,accuracy,formatted_address,google_place_id,input_string,latitude,longitude,number_of_results,postcode,status,type
0,APPROXIMATE,"Kerem Shalom, Israel",ChIJYbENsimT_RQRRKPpPAAObOY,כרם שלום,31.228281,34.284559,1,,OK,"locality,political"
1,APPROXIMATE,"Or HaNer, Israel",ChIJLZKoVneEAhUR9hqUp_mN_gk,אור הנר,31.556197,34.602305,1,,OK,"locality,political"
2,APPROXIMATE,"Erez, Israel",ChIJkdemMLiDAhUREdnIb1iQ5RM,ארז,31.55984,34.564889,1,,OK,"locality,political"
3,APPROXIMATE,"Kfar Aza, Israel",ChIJHZDiaGuAAhURKhblmQnfBp0,כפר עזה,31.483416,34.532291,1,,OK,"locality,political"
4,APPROXIMATE,"Sa'ad, Israel",ChIJ0SClRXSAAhURDwzFt58-Qrs,סעד,31.47018499999999,34.534356,1,,OK,"locality,political"
5,APPROXIMATE,"Be'eri, Israel",ChIJt1GvUpGA_RQR1jXFLfRTrsE,בארי,31.424513,34.492567,1,,OK,"locality,political"
6,APPROXIMATE,"Nir Oz, Israel",ChIJMcigPiGP_RQRF4ijsZQYuv8,ניר עוז,31.309697,34.402075,1,,OK,"locality,political"
7,APPROXIMATE,"Nirim, Israel",ChIJcSOiGmmP_RQRxsGycN0j18I,נירים,31.33572999999999,34.394087,1,,OK,"locality,political"
8,APPROXIMATE,"Ein HaShlosha, Israel",ChIJG3biWfGF_RQRY-tAXW4ZkQw,עין השלושה,31.351722,34.403471,1,,OK,"locality,political"
9,APPROXIMATE,"Yad Mordechai, Israel",ChIJpS4KkQODAhURIDsOoJnXSX8,יד מרדכי,31.586963,34.5575,1,,OK,"locality,political"
10,APPROXIMATE,"Netiv HaAsara, Israel",ChIJGT38s0WCAhUR5NddCNuNya0,נתיב העשרה,31.572407,34.539322,1,,OK,"locality,political"
11,APPROXIMATE,"Nahal Oz, Israel",ChIJ369MrASA_RQRJYNKPc4SgLY,נחל עוז,31.47267999999999,34.497675,1,,OK,"locality,political"
12,APPROXIMATE,"Alumim, Israel",ChIJKzV7UvN_AhUR7lHMETJEPZY,עלומים,31.453049,34.514711,1,,OK,"locality,political"
13,APPROXIMATE,"Kfar Maimon, Israel",ChIJOac1GqR_AhURf82IsBPEDvA,כפר מימון,31.431401,34.53718,1,,OK,"locality,political"
14,APPROXIMATE,"Shuva, Israel",ChIJX3Fq6c5_AhURY50RjbNQf8A,שובה,31.44995,34.545496,1,,OK,"locality,political"
15,APPROXIMATE,"Shokeda, Israel",ChIJKXDcnHF_AhURFfkw3bhj5YA,שוקדה,31.422098,34.524383,1,,OK,"locality,political"
16,APPROXIMATE,"Tushia, Israel",ChIJdWXsZKV_AhURhxMpT4o-WDk,תושיה,31.432895,34.541314,1,,OK,"locality,political"
17,APPROXIMATE,"Tkuma, Israel",ChIJE0Cp1B5-AhURcsaYHaiUlGo,תקומה,31.448536,34.578085,1,,OK,"locality,political"
18,APPROXIMATE,"Zimrat, Israel",ChIJhYXmyMx_AhURdobPCB6MlgI,זמרת,31.447853,34.552288,1,,OK,"locality,political"
19,APPROXIMATE,"Yizre'am Farm, Israel",ChIJC1-2-Dx-AhURmEPIpDOdSrA,חוות יזרעם,31.442963,34.571844,1,,OK,"locality,political"
20,APPROXIMATE,"Mavki'im, Israel",ChIJK6t2precAhUReHMjSYDaR1g,מבקיעים,31.622518,34.577431,1,,OK,"locality,political"
21,APPROXIMATE,"Talmei Yaffe, Israel",ChIJKx3mOESbAhURZ82wK1oRDH4,תלמי יפה,31.616857,34.612482,1,,OK,"locality,political"
22,APPROXIMATE,"Beit Shikma, Israel",ChIJQxDT7nCbAhUR98Bu0H2KCQo,בית שיקמה,31.637735,34.610074,1,,OK,"locality,political"
23,APPROXIMATE,"Bat Hadar, Israel",ChIJc2Yp_n-bAhURFYElLX42noU,בת הדר,31.648125,34.597146,1,,OK,"locality,political"
24,APPROXIMATE,"Ge'a, Israel",ChIJmWNSLWebAhURCNsBRQup-zg,גיאה,31.628467,34.602678,1,,OK,"locality,political"
25,APPROXIMATE,"Zikim, Israel",ChIJ22f5R5eCAhURRWN5IfelBDk,זיקים,31.607204,34.520968,1,,OK,"locality,political"
26,APPROXIMATE,"Karmia, Israel",ChIJKSDIjOiCAhURGAlqPuKTToI,כרמיה,31.60269499999999,34.540413,1,,OK,"locality,political"
27,APPROXIMATE,"Kfar Silver, Israel",ChIJ0wswuOWbAhUR_aMl7YbymjI,כפר סילבר,31.675669,34.612311,1,,OK,"locality,political"
28,APPROXIMATE,"Mash'en, Israel",ChIJ-8TfZr6bAhURS7jkmDmdau8,משען,31.656885,34.621607,1,,OK,"locality,political"
29,APPROXIMATE,"Nir Yisrael, Israel",ChIJ3VBFSHSZAhURwmybCoYMctI,ניר ישראל,31.692156,34.638071,1,,OK,"locality,political"
30,APPROXIMATE,"Ashkelon, Israel",ChIJc15oQVGcAhURD9ySMB0hcus,אשקלון,31.6687885,34.5742523,1,,OK,"locality,political"
31,APPROXIMATE,"Be'er Ganim, Israel",ChIJ15kZYEaZAhURLHEXEIY4GRY,באר גנים,31.700354,34.610934,1,,OK,"locality,political"
32,APPROXIMATE,"Berekhya, Israel",ChIJya0he8ObAhURD89SjpIvvGw,ברכיה,31.66804699999999,34.624296,1,,OK,"locality,political"
33,APPROXIMATE,"Hodaya, Israel",ChIJWbuxyH-ZAhURfAQLGaGkSk0,הודיה,31.676356,34.639275,1,,OK,"locality,political"
34,ROOFTOP,"Kibuts Galuyot St 27, Ashkelon, Israel",ChIJu-bnQFqcAhUR7rZJideKUCE,א.ת אשקלון,31.6644157,34.5655538,1,,OK,"clothing_store,establishment,point_of_interest,store"
35,APPROXIMATE,"Ami'oz, Israel",ChIJ7ewJuQ6M_RQRf9-1cuu4FXQ,עמיעוז,31.248463,34.413404,1,,OK,"locality,political"
36,APPROXIMATE,"Tzohar, Israel",ChIJ9_oCvoyL_RQR66SU1DeqV5Y,צוחר,31.23717,34.426444,1,,OK,"locality,political"
37,APPROXIMATE,"Sde Nitzan, Israel",ChIJmWd0PXiM_RQR-w1TS0xhFTw,שדה ניצן,31.230035,34.418363,1,,OK,"locality,political"
38,APPROXIMATE,"Talmei Eliyahu, Israel",ChIJSY0jsY-L_RQRwZstWXX_Iw0,תלמי אליהו,31.229611,34.429114,1,,OK,"locality,political"
39,,,,אוהד,,,0,,ZERO_RESULTS,
40,APPROXIMATE,"Yesha, Israel",ChIJZ2pdghSM_RQRrybzzI_M2aY,ישע,31.247595,34.403091,1,,OK,"locality,political"
41,APPROXIMATE,"Mivtahim, Israel",ChIJkUYEbW2M_RQRY6g_hIcgSFM,מבטחים,31.242423,34.407488,1,,OK,"locality,political"
42,APPROXIMATE,"Gan Yavne, Israel",ChIJQX6gY9y8AhURWQAyTCEavqM,גן יבנה,31.783056,34.703101,1,,OK,"locality,political"
43,APPROXIMATE,"Hatsav, Israel",ChIJb9gQJhy8AhUR8x0fZAX1TkM,חצב,31.780095,34.770572,1,,OK,"locality,political"
44,APPROXIMATE,"Hatsor Ashdod, Israel",ChIJXbiuL_28AhUR6lVC6tmcgwY,חצור אשדוד,31.772744,34.719366,1,,OK,"locality,political"
45,GEOMETRIC_CENTER,"כנות, Israel",ChIJ5-0DzYq7AhURqJWbbTOYeD0,כנות,31.8022065,34.75094139999999,2,,OK,"establishment,point_of_interest,school"
46,APPROXIMATE,"Neve Mivtah, Israel",ChIJZVP9g4i7AhUR0G6BocXs7WQ,נווה מבטח,31.806767,34.741231,1,,OK,"locality,political"
47,APPROXIMATE,"Bitzaron, Israel",ChIJQUxmMoi8AhUR2CmEeB-rphs,ביצרון,31.7949517,34.7293463,1,,OK,"locality,political"
48,APPROXIMATE,"Bnei Ayish, Israel",ChIJTxdMWw68AhURb-TkcODRnZk,"בני עי""ש",31.790235,34.759291,1,,OK,"locality,political"
49,APPROXIMATE,"Gan HaDarom, Israel",ChIJkyhoqbu8AhUR4xKzSTrcvDI,גן הדרום,31.804056,34.69987,1,,OK,"locality,political"
50,APPROXIMATE,"Ein Tzurim, Israel",ChIJty96HqaXAhURDoZRKDyQzZk,עין צורים,31.694936,34.718683,1,,OK,"locality,political"
51,APPROXIMATE,"Shafir, Israel",ChIJq1SYZq2XAhUR1Cuoqsc8XMQ,שפיר,31.697557,34.728181,2,,OK,"locality,political"
52,APPROXIMATE,"Merkaz Shapira, Israel",ChIJd-meeJ-XAhURh_4F6fgqq1o,מרכז שפירא,31.696927,34.707319,1,,OK,"locality,political"
53,APPROXIMATE,"Masu'ot Itzhak, Israel",ChIJ12N_c4GXAhURgNrH2UHtnRc,משואות יצחק,31.70261,34.689968,1,,OK,"locality,political"
54,APPROXIMATE,"Kiryat Malakhi, Israel",ChIJCTdn0I29AhURJQjYgjPeeyg,קרית מלאכי,31.730202,34.746996,1,,OK,"locality,political"
55,APPROXIMATE,"Timorim, Israel",ChIJyeCQFB2WAhURwORu9TVjA80,תימורים,31.716336,34.761356,1,,OK,"locality,political"
56,APPROXIMATE,"Talmei Yehi'el, Israel",ChIJf3NyaNK9AhUR80KwkVH-nvU,תלמי יחיאל,31.753621,34.764308,1,,OK,"locality,political"
57,APPROXIMATE,"Kfar HaRif, Israel",ChIJA1aTi2G-AhURopRemuy-v9A,"כפר הרי""ף",31.747029,34.790928,1,,OK,"locality,political"
58,APPROXIMATE,"Kfar Warburg, Israel",ChIJbbMrvNKXAhURGuNlMBXa1J0,כפר ורבורג,31.718747,34.72868,1,,OK,"locality,political"
59,APPROXIMATE,"Kfar Menahem, Israel",ChIJrfTHK6G_AhUR96S6iaBAIZk,כפר מנחם,31.732077,34.835079,1,,OK,"locality,political"
60,APPROXIMATE,"Arugot, Israel",ChIJW7gi0gq-AhURxzke7xA-ppU,ערוגות,31.732798,34.77624,1,,OK,"locality,political"
61,APPROXIMATE,"Be'er Tuvia, Israel",ChIJJwZZlnm9AhURahAgUgYbWas,באר טוביה,31.737127,34.72557,1,,OK,"locality,political"
62,APPROXIMATE,"Yinon, Israel",ChIJ-S83C3q-AhURS0-8U4Bd-D8,ינון,31.741832,34.780947,1,,OK,"locality,political"
63,APPROXIMATE,"Kfar Ahim, Israel",ChIJ3_Gh68a9AhURZIa_ot7a9uM,כפר אחים,31.745864,34.755932,1,,OK,"locality,political"
64,ROOFTOP,"Ben Avigdor St 22, Tel Aviv-Yafo, Israel",ChIJfR_FcnZLHRUR3pzEaHWUmSY,אביגדור,32.0669871,34.7900679,1,,OK,"establishment,general_contractor,point_of_interest"
65,,,,אורות,,,0,,ZERO_RESULTS,
66,APPROXIMATE,"Ahva, Israel",ChIJpTf5zdu9AhUR_AaWnQuWWP4,אחווה,31.742893,34.767848,1,,OK,"locality,political"
67,APPROXIMATE,"Al-'Azi, Israel",ChIJMfEatTW-AhURVL4CDnJvczM,אל עזי,31.71886799999999,34.814254,1,,OK,"locality,political"
68,APPROXIMATE,"Kissufim, Israel",ChIJbdrJcseF_RQRQVlt4PQ_GoU,כיסופים,31.374545,34.398992,1,,OK,"locality,political"
69,APPROXIMATE,"Hatzerim, Israel",ChIJcctZ3Y9vAhURPttz40mmP3A,חצרים,31.240603,34.717427,1,,OK,"locality,political"
70,APPROXIMATE,"Be'er Sheva, Israel",ChIJd4efAkBmAhUR2F3rLQHo3gg,באר שבע,31.252973,34.791462,1,,OK,"locality,political"
71,APPROXIMATE,"Mas'udein el-Azazme, Israel",ChIJWQ_DsopoAhUR4V6LnazORhY,מסעודין אל עזאזמה,31.199264,34.817449,1,,OK,"political,sublocality,sublocality_level_1"
72,APPROXIMATE,"Tifrah, Israel",ChIJN6-mnUl7AhURn5Yr4B6hE2w,תפרח,31.324471,34.679236,1,,OK,"locality,political"
73,APPROXIMATE,"Bitha, Israel",ChIJmclYSKJ7AhUR1WEpsdxq0HI,בטחה,31.333869,34.634318,1,,OK,"locality,political"
74,APPROXIMATE,"Gilat, Israel",ChIJPzRcnQ57AhUR_pcOtN6-teY,גילת,31.326321,34.648934,1,,OK,"locality,political"
75,APPROXIMATE,"Ta'ashur, Israel",ChIJ_1s-5op8AhURkeco5uCLeFA,תאשור,31.371709,34.643547,1,,OK,"locality,political"
76,APPROXIMATE,"Tidhar, Israel",ChIJrfVOM118AhURjmdcGIDnsPE,תדהר,31.37885799999999,34.630364,1,,OK,"locality,political"
77,,,,ברוש,,,0,,ZERO_RESULTS,
78,APPROXIMATE,"Givolim, Israel",ChIJZyxx25x-AhUR9kZkg3H3_hM,גבעולים,31.397604,34.593821,1,,OK,"locality,political"
79,APPROXIMATE,"Mlilot, Israel",ChIJ0WV_up9-AhUR0_CV3s9RI5Q,מלילות,31.389897,34.595243,1,,OK,"locality,political"
80,,,,מעגלים,,,0,,ZERO_RESULTS,
81,APPROXIMATE,"Shibolim, Israel",ChIJQ3qR1S98AhURHOYLwCxaNVg,שיבולים,31.396398,34.608144,1,,OK,"locality,political"
82,APPROXIMATE,"Sharsheret, Israel",ChIJ-7Mqzyx8AhURQl9SyFWKMgY,שרשרת,31.404819,34.604397,1,,OK,"locality,political"
83,APPROXIMATE,"Nir Moshe, Israel",ChIJawxrVB2HAhUR70mSbbH4DTw,ניר משה,31.477456,34.630085,1,,OK,"locality,political"
84,APPROXIMATE,"Nir Akiva, Israel",ChIJOZxfm6uHAhURny48TYcaHJo,ניר עקיבא,31.469933,34.646166,1,,OK,"locality,political"
85,APPROXIMATE,"Pa'amei Tashaz, Israel",ChIJPaxRyQyIAhURhyoSxqvaOWU,"פעמי תש""ז",31.437967,34.692875,1,,OK,"locality,political"
86,APPROXIMATE,"Klahim, Israel",ChIJdQMHzNuHAhURwKpzPNnaVEQ,קלחים,31.449795,34.679092,1,,OK,"locality,political"
87,APPROXIMATE,"Shavei Darom, Israel",ChIJQz-5SgaHAhURrrW2sTgqjhY,שבי דרום,31.46637699999999,34.638576,1,,OK,"locality,political"
88,APPROXIMATE,"Sde Tzvi, Israel",ChIJfaLGzF6IAhUROTaeKo4sxDI,שדה צבי,31.448747,34.713234,1,,OK,"locality,political"
89,APPROXIMATE,"Talmei Bilu, Israel",ChIJVWv914OHAhURdSSuX8kRcRw,"תלמי ביל""ו",31.438055,34.644823,1,,OK,"locality,political"
90,APPROXIMATE,"Beit HaGadi, Israel",ChIJbRokNN19AhURZXd_kCHwbaM,בית הגדי,31.422839,34.607878,1,,OK,"locality,political"
91,APPROXIMATE,"Netivot, Israel",ChIJK-qF2HV-AhURarqClNndXp4,נתיבות,31.423196,34.595254,1,,OK,"locality,political"
92,GEOMETRIC_CENTER,Israel,ChIJS_0Kcwt-AhURjR2PuRmrx9Q,קרית חינוך שדות נגב,31.43104,34.592817,1,,OK,"establishment,point_of_interest"
93,APPROXIMATE,"Eshbol, Israel",ChIJsw8LZOqHAhURfXhjLZ-NVR4,אשבול,31.44551599999999,34.666654,1,,OK,"locality,political"
94,APPROXIMATE,"Zru'a, Israel",ChIJFwr3UWuHAhURcV0iuM3kr_I,זרועה,31.459133,34.624161,1,,OK,"locality,political"
95,APPROXIMATE,"Yoshivia, Israel",ChIJG0s3BViHAhURzpmi-jycU1M,יושיביה,31.444699,34.608784,1,,OK,"locality,political"
96,APPROXIMATE,"Mabu'im, Israel",ChIJwyFE0peHAhURAgvMc8-tZ64,מבועים,31.44945,34.65499399999999,1,,OK,"locality,political"
97,APPROXIMATE,"Eshkol Regional Council, Israel",ChIJj7jy5GGJ_RQRimzaLgX8qf4,מועצה אזורית אשכול,31.2068084,34.4641848,1,,OK,"administrative_area_level_4,political"
98,,,,מפעלי מעון,,,0,,ZERO_RESULTS,
99,APPROXIMATE,"Ein HaBesor, Israel",ChIJR6djShaJ_RQR8UZoR6HY7zk,עין הבשור,31.280895,34.443446,1,,OK,"locality,political"
100,APPROXIMATE,"Magen, Israel",ChIJX3aa3CmJ_RQRhb5qDLPiabA,מגן,31.298108,34.427059,1,,OK,"locality,political"
101,APPROXIMATE,"Nir Yitzhak, Israel",ChIJ6WSzpAuN_RQRlW7Bg1gRmsg,ניר יצחק,31.23604,34.356702,1,,OK,"locality,political"
102,APPROXIMATE,"Sufa, Israel",ChIJvYjJB3qN_RQRQiX9a9qfqt0,סופה,31.238309,34.341987,1,,OK,"locality,political"
103,APPROXIMATE,"Holit, Israel",ChIJ_0SyHZ-S_RQRDUoxkb5QtjY,חולית,31.230563,34.32734,1,,OK,"locality,political"
104,APPROXIMATE,"Talmei Yosef, Israel",ChIJ0V0XezKN_RQRl4SCp0EtT7s,תלמי יוסף,31.199958,34.363751,1,,OK,"locality,political"
105,APPROXIMATE,"Yated, Israel",ChIJ3Zw8mFTt_RQRt7P4fcBDopY,יתד,31.207042,34.326126,1,,OK,"locality,political"
106,APPROXIMATE,"Neve, Israel",ChIJtR0ztIDt_RQRTnMX4XnjYA8,נווה,31.162183,34.329827,1,,OK,"locality,political"
107,APPROXIMATE,"Pri Gan, Israel",ChIJh0MYABWN_RQR2WebbSDGA9U,פרי גן,31.222015,34.355936,1,,OK,"locality,political"
108,APPROXIMATE,"Sdei Avraham, Israel",ChIJN90OuVaN_RQRaqBNlRNAZzA,שדי אברהם,31.211594,34.335692,1,,OK,"locality,political"
109,APPROXIMATE,"Shlomit, Israel",ChIJv2GTq9js_RQRxFDgNTc2Dq0,שלומית,31.2064862,34.284526,1,,OK,"locality,political"
110,APPROXIMATE,"Bnei Netsarim, Israel",ChIJhf044-7t_RQRomaJ_AKj82E,בני נצרים,31.143513,34.316403,1,,OK,"locality,political"
111,APPROXIMATE,"Dekel, Israel",ChIJq3puR7Hy_RQRkg_wtJlLepQ,דקל,31.195908,34.346771,1,,OK,"locality,political"
112,APPROXIMATE,"Yevul, Israel",ChIJ1yTiE2jt_RQRtG1rwNXSW50,יבול,31.189458,34.318952,1,,OK,"locality,political"
113,,,,אבשלום,,,0,,ZERO_RESULTS,
114,APPROXIMATE,"Ranen, Israel",ChIJX-fbqdl7AhURwAJLAiBu3Y8,רנן,31.33871,34.600358,1,,OK,"locality,political"
115,APPROXIMATE,"Peduim, Israel",ChIJC7O4QMx7AhUR8EjO38Vtttk,פדויים,31.326275,34.612069,1,,OK,"locality,political"
116,ROOFTOP,"Bograshov St 47, Tel Aviv-Yafo, Israel",ChIJoRh2sn9MHRURt_FtjiH3lqE,מסלול,32.0761138,34.7715864,1,,OK,"clothing_store,establishment,point_of_interest,store"
117,APPROXIMATE,"Ofakim, Israel",ChIJX4Hp5Eh6AhURjgCRJy9y3qA,אופקים,31.311337,34.622824,1,,OK,"locality,political"
118,APPROXIMATE,"Patish, Israel",ChIJ3cYxw7F5AhURPLO5DidGWCA,פטיש,31.327829,34.559981,1,,OK,"locality,political"
119,APPROXIMATE,"Urim, Israel",ChIJTRJBq_Z3AhUR77TvoukSCNc,אורים,31.304094,34.524868,1,,OK,"locality,political"
120,APPROXIMATE,"Bnei Darom, Israel",ChIJyyjoc1a7AhURQjSgczEjwvg,בני דרום,31.82087,34.691609,1,,OK,"locality,political"
121,GEOMETRIC_CENTER,Israel,ChIJWRuF_FS7AhUR09fPgwTi4H4,נווה הרצוג,31.8233,34.687861,1,,OK,"establishment,point_of_interest"
122,APPROXIMATE,"Nir Galim, Israel",ChIJ99ufpqukAhURWG9COXcvZ4c,ניר גלים,31.82552,34.68254,1,,OK,"locality,political"
123,GEOMETRIC_CENTER,"Ad Halom Bridge, Israel",ChIJ0fXXTdmiAhURNBZVCdWqWQ8,עד הלום,31.78196,34.6694,1,,OK,"establishment,point_of_interest"
124,APPROXIMATE,"Ashdod, Israel",ChIJ7-RHdRGjAhURL2OGWhptgJc,אשדוד,31.804381,34.655314,1,,OK,"locality,political"
125,APPROXIMATE,"Shtulim, Israel",ChIJywXJ3dKiAhURUsG5_rOT82E,שתולים,31.773687,34.684409,1,,OK,"locality,political"
126,APPROXIMATE,"Emunim, Israel",ChIJUd5GCAiYAhUR0P81VRTJcd0,אמונים,31.743885,34.674492,1,,OK,"locality,political"
127,APPROXIMATE,"Beit Ezra, Israel",ChIJA_B8mW6YAhURDdmHytkU1vk,בית עזרא,31.736402,34.657514,1,,OK,"locality,political"
128,APPROXIMATE,"Giv'ati, Israel",ChIJTydorQSYAhURzk81FXRoEBU,גבעתי,31.733138,34.679478,1,,OK,"locality,political"
129,APPROXIMATE,"Ezer, Israel",ChIJsX4ELg6YAhURkULDKpg2ro4,עזר,31.736151,34.671447,1,,OK,"locality,political"
130,APPROXIMATE,"Azrikam, Israel",ChIJh0ogEU-9AhURHTo58ZNi7SE,עזריקם,31.751695,34.694818,1,,OK,"locality,political"
131,APPROXIMATE,"Sde Uziyahu, Israel",ChIJOxHaMrGiAhUR6460J2Srj68,שדה עוזיהו,31.758437,34.678194,1,,OK,"locality,political"
132,APPROXIMATE,"Komemiyut, Israel",ChIJFQUzrSCXAhURZ06yCgjl9hY,קוממיות,31.662583,34.72929999999999,1,,OK,"locality,political"
133,APPROXIMATE,"Revaha, Israel",ChIJT7P_9dSWAhURvyPyldfOyyE,רווחה,31.648695,34.733681,1,,OK,"locality,political"
134,APPROXIMATE,"Zrahia, Israel",ChIJ9-TyB_aWAhURytuJG34AHrA,זרחיה,31.681742,34.746419,1,,OK,"locality,political"
135,APPROXIMATE,"Menuha, Israel",ChIJ-3lgGSGUAhURTDUYSYKYpBY,מנוחה,31.656159,34.777273,1,,OK,"locality,political"
136,APPROXIMATE,"Nahala, Israel",ChIJTRnrBDeUAhURlz3O80yesNc,נחלה,31.66,34.792817,1,,OK,"locality,political"
137,APPROXIMATE,"Nir Banim, Israel",ChIJRapLoY2WAhUR6dqRcKbz2S4,ניר בנים,31.671177,34.755012,1,,OK,"locality,political"
138,APPROXIMATE,"Sgula, Israel",ChIJpQMtmSuUAhURcKb6KksvsBo,סגולה,31.66954599999999,34.778426,1,,OK,"locality,political"
139,ROOFTOP,"1525 Fillmore St, San Francisco, CA 94115, USA",ChIJ8zXoo7mAhYARtoa-WE3d5NE,קדמה,37.7836893,-122.4329965,1,94115,OK,"establishment,food,point_of_interest,restaurant"
140,APPROXIMATE,"Vardon, Israel",ChIJF8GfAi-UAhURJbEAsO80kcs,ורדון,31.663823,34.781766,1,,OK,"locality,political"
141,APPROXIMATE,"Zavdiel, Israel",ChIJFde-kb2WAhURQglS6Bin8oo,זבדיאל,31.6592451,34.7602609,1,,OK,"locality,political"
142,,,,אלומה,,,0,,ZERO_RESULTS,
143,APPROXIMATE,"Mefalsim, Israel",ChIJJ1_SDQOBAhURi0TnSnP8kYs,מפלסים,31.50220599999999,34.561674,1,,OK,"locality,political"
144,APPROXIMATE,"Ibim, Israel",ChIJoztHmBqEAhUReFaM_e56Evg,איבים,31.533597,34.609697,1,,OK,"locality,political"
145,APPROXIMATE,"Gevim, Israel",ChIJXwyik8qGAhURVVc2MIbMCf8,גבים,31.506273,34.598949,1,,OK,"locality,political"
146,GEOMETRIC_CENTER,"ד.נ חוף אשקלון מועצה אזורית שער הנגב, 7915600, Israel",ChIJ7ZPmlkqBAhURbEuDw90q-dI,מכללת ספיר,31.5093864,34.594523,1,7915600,OK,"establishment,point_of_interest,university"
147,APPROXIMATE,"Nir Am, Israel",ChIJ94N8B0SBAhURMfd0kwPHRkM,ניר עם,31.518459,34.580544,1,,OK,"locality,political"
148,APPROXIMATE,"Sderot, Israel",ChIJK0K8tVKBAhURChPSGjVEyp4,שדרות,31.52269399999999,34.595581,1,,OK,"locality,political"
149,APPROXIMATE,"Nitzan, Israel",ChIJ2ZVvr_KYAhURsaMZETS6gpU,ניצן,31.737518,34.630804,1,,OK,"locality,political"
150,APPROXIMATE,"Nitzan Bet, Israel",ChIJF-ekGIuYAhUR4RAzdhjPuXw,ניצן ב',31.737089,34.638235,1,,OK,"locality,political"
151,APPROXIMATE,"Nitzanim, Israel",ChIJbx186_2YAhURp9YOUvfIxJQ,ניצנים,31.717845,34.634636,1,,OK,"locality,political"
152,APPROXIMATE,"Tel Aviv-Yafo, Israel",ChIJH3w7GaZMHRURkD-WwKJy-8E,תל אביב יפו,32.0852999,34.78176759999999,1,,OK,"locality,political"
153,APPROXIMATE,"Glil Yam, Israel",ChIJPQpN3mhIHRUR5TlNctlvTY0,גליל ים,32.158797,34.831876,1,,OK,"locality,political"
154,APPROXIMATE,"HaKfar HaYarok, Ramat Hasharon, Israel",ChIJBUH4p7JJHRURLy-v0Ns7vKo,הכפר הירוק,32.135172,34.829305,1,,OK,"neighborhood,political"
155,APPROXIMATE,"Herzliya, Israel",ChIJb-UlwQ1IHRURxMFKFMsjoEY,הרצליה,32.162413,34.844675,1,,OK,"locality,political"
156,APPROXIMATE,"Kfar Shmaryahu, Israel",ChIJO_2CBdJHHRURSS9CuxEzbGE,כפר שמריהו,32.187123,34.823124,1,,OK,"locality,political"
157,APPROXIMATE,"Ramat Hasharon, Israel",ChIJdWZI5UtIHRUREKFBBFqVWY0,רמת השרון,32.137793,34.840278,1,,OK,"locality,political"
158,APPROXIMATE,"Shoham, Israel",ChIJ2288Ppw0HRUROqW3rJWv-Tw,שוהם,31.9957581,34.9488403,1,,OK,"locality,political"
159,APPROXIMATE,"Ahi'ezer, Israel",ChIJ33feQZjKAhURqwGITxIuR0w,אחיעזר,31.981671,34.871821,1,,OK,"locality,political"
160,APPROXIMATE,"Beit Dagan, Israel",ChIJ_8Brfjy1AhURNatGR16AZ_Y,בית דגן,32.0017816,34.8297087,1,,OK,"locality,political"
161,APPROXIMATE,"Ganot, Israel",ChIJb0RWI9NKHRURfKaglSNCBdw,גנות,32.018204,34.825877,1,,OK,"locality,political"
162,APPROXIMATE,"Zeitan, Israel",ChIJu5VSuenKAhURNQu6-JbF-Qk,זיתן,31.975178,34.891732,1,,OK,"locality,political"
163,APPROXIMATE,"Hemed, Israel",ChIJASk5DrZKHRURKMMdTxV8qsc,חמד,32.017992,34.841265,1,,OK,"locality,political"
164,APPROXIMATE,"Yagel, Israel",ChIJz6ngn7nKAhURSdVBCgwDPyA,יגל,31.987792,34.880262,1,,OK,"locality,political"
165,APPROXIMATE,"Kfar Habad, Israel",ChIJDYFcgkK1AhURDazK6ugEzcU,"כפר חב""ד",31.990144,34.849103,1,,OK,"locality,political"
166,APPROXIMATE,"Kfar Truman, Israel",ChIJyRxF4jXLAhUR5yNIMi9rY80,כפר טרומן,31.980493,34.927696,1,,OK,"locality,political"
167,APPROXIMATE,"Mishmar HaShiv'a, Israel",ChIJgxriHym1AhUR85yu7NVfa98,משמר השבעה,32.010891,34.822337,1,,OK,"locality,political"
168,APPROXIMATE,"Tzafria, Israel",ChIJgebiyFO1AhURtr50VB1HVAo,צפריה,32.004315,34.854664,1,,OK,"locality,political"
169,APPROXIMATE,"Magshimim, Israel",ChIJEzvi5rE1HRURVVpbzSPMYus,מגשימים,32.044363,34.899834,1,,OK,"locality,political"
170,APPROXIMATE,"Mazor, Israel",ChIJ00Uq9hY0HRURh9S2fSnMmDw,מזור,32.050698,34.931373,1,,OK,"locality,political"
171,APPROXIMATE,"Nofekh, Israel",ChIJCw8HYEY0HRURWhbUhjhRa_g,נופך,32.043748,34.920306,1,,OK,"locality,political"
172,APPROXIMATE,"Nehalim, Israel",ChIJt3KDwTE0HRURTgBW6O065eU,נחלים,32.05859700000001,34.9136,1,,OK,"locality,political"
173,APPROXIMATE,"Nahshonim, Israel",ChIJm8qpkas2HRURRK8JSLA-dXY,נחשונים,32.063236,34.947011,1,,OK,"locality,political"
174,APPROXIMATE,"Rinatya, Israel",ChIJV7HcAkA0HRURuaRsU1X4bHM,רינתיה,32.044365,34.928477,1,,OK,"locality,political"
175,APPROXIMATE,"Einat, Israel",ChIJb_72h8c2HRUR0PhKMt7eMsc,עינת,32.081948,34.937514,1,,OK,"locality,political"
176,APPROXIMATE,"Rosh Haayin, Israel",ChIJTbFX6ioxHRURHn9WS3zh798,ראש העין,32.095838,34.952177,1,,OK,"locality,political"
177,APPROXIMATE,"Beit Nehemia, Israel",ChIJRY-2LKvMAhURw-aqwQoipEA,בית נחמיה,31.977142,34.953835,1,,OK,"locality,political"
178,APPROXIMATE,"Beit Arif, Israel",ChIJI853M7o0HRURZdqxvb8QNiQ,בית עריף,31.995352,34.935103,1,,OK,"locality,political"
179,APPROXIMATE,"Bareket, Israel",ChIJof8eG4c0HRUR6Sj-Lnl-zU8,ברקת,32.018344,34.943179,1,,OK,"locality,political"
180,APPROXIMATE,"Hadid, Israel",ChIJS-tGzkbLAhUR40kFzRm6dSA,חדיד,31.969429,34.932156,1,,OK,"locality,political"
181,APPROXIMATE,"Tirat Yehuda, Israel",ChIJy6DxW440HRUROtOX2eAo5s8,טירת יהודה,32.014833,34.935878,1,,OK,"locality,political"
182,APPROXIMATE,"Shoham Center, Israel",ChIJZeBwZaU0HRURhTOLzMKzG8Q,מרכז שוהם,31.991562,34.941558,1,,OK,"locality,political"
183,APPROXIMATE,"Rishon LeTsiyon, Israel",ChIJ_2arJzi0AhURuHoaV0rFvBc,ראשון לציון,31.9730015,34.7925013,1,,OK,"locality,political"
184,APPROXIMATE,"Or Yehuda, Israel",ChIJh6SH2phKHRURJa93EDPAJz8,אור יהודה,32.029748,34.85617300000001,1,,OK,"locality,political"
185,APPROXIMATE,"Ganei Tikva, Israel",ChIJ1V1eY401HRURBwQnmFvUCS4,גני תקווה,32.060497,34.873121,1,,OK,"locality,political"
186,APPROXIMATE,"Yehud, Israel",ChIJpzw_5m01HRURkMHzaBYKjtk,יהוד מונוסון,32.030339,34.8870985,1,,OK,"locality,political"
187,APPROXIMATE,"Kfar Azar, Ramat Gan, Israel",ChIJ_R-6EGdKHRUR3PxCDq3LUic,"כפר אז""ר",32.0584275,34.8417207,1,,OK,"neighborhood,political"
188,APPROXIMATE,"Kfar Ma'as, Israel",ChIJdY8cVcQ1HRUR0wKjcgmm9tY,מעש,32.063511,34.892639,1,,OK,"locality,political"
189,APPROXIMATE,"Ramat Efal, Ramat Gan, Israel",ChIJR4m_yO9KHRURB4Y7v_OoQtQ,נווה אפעל,32.047236,34.835859,1,,OK,"neighborhood,political"
190,APPROXIMATE,"Savyon, Israel",ChIJrdKlZJw1HRUR4eQ2pUFARuA,סביון,32.045589,34.87657799999999,1,,OK,"locality,political"
191,APPROXIMATE,"Kiryat Ono, Israel",ChIJbSk8pXlKHRURCJwQHISUFZw,קרית אונו,32.054863,34.85885800000001,1,,OK,"locality,political"
192,APPROXIMATE,"Ramat Efal, Ramat Gan, Israel",ChIJR4m_yO9KHRURB4Y7v_OoQtQ,רמת אפעל,32.047236,34.835859,1,,OK,"neighborhood,political"
193,APPROXIMATE,"El'ad, Israel",ChIJnw1AdvgzHRURye_13WoFfns,אלעד,32.04953,34.95075,1,,OK,"locality,political"
194,APPROXIMATE,"Be'erot Yitzhak, Israel",ChIJjwG9vU00HRURRyeE-n8JJpU,בארות יצחק,32.042025,34.910221,1,,OK,"locality,political"
195,APPROXIMATE,"Bnei Atarot, Israel",ChIJb49zxfw0HRURx5QSInW2rF0,בני עטרות,32.02147,34.910146,1,,OK,"locality,political"
196,APPROXIMATE,"Giv'at Ko'ah, Israel",ChIJ4wPc8G80HRURnZyxtzCkPVI,"גבעת כ""ח",32.032091,34.938796,1,,OK,"locality,political"
197,APPROXIMATE,"Gan Sorek, Israel",ChIJwSfjGkSxAhURZRrkxyNUwxo,גן שורק,31.944011,34.758322,1,,OK,"locality,political"
198,APPROXIMATE,"Neta'im, Israel",ChIJDR3JIK22AhURB0F5ofRJf-M,נטעים,31.945689,34.775145,1,,OK,"locality,political"
199,APPROXIMATE,"Palmachim, Israel",ChIJAb8pbjWwAhURbYSKY1Bso9M,פלמחים,31.932705,34.706874,1,,OK,"locality,political"
200,APPROXIMATE,"Qiryat Shemona, Israel",ChIJSbStEFS9HhURrbtscsZJZDk,קרית שמונה,33.207933,35.570246,1,,OK,"locality,political"
201,GEOMETRIC_CENTER,"כביש 9977, קרית שמונה, 1220800, Israel",ChIJQXGzN3e9HhURqxX6b8qlpfA,תל חי,33.235864,35.578207,1,1220800,OK,"establishment,point_of_interest,university"
202,APPROXIMATE,"Manara, Israel",ChIJ30RNKj6YHhURiPza90g6FP8,מנרה,33.195375,35.543728,1,,OK,"locality,political"
203,APPROXIMATE,"Ma'ayan Baruch, Israel",ChIJb6BgUq29HhURsEWjoEf6EWg,מעיין ברוך,33.239349,35.609359,1,,OK,"locality,political"
204,APPROXIMATE,"Margaliot, Israel",ChIJq_4krvSXHhURQRATvjlYMD4,מרגליות,33.216474,35.544354,1,,OK,"locality,political"
205,APPROXIMATE,"Misgav Am, Israel",ChIJZ22BncuXHhURYfMPmWzfrc4,משגב עם,33.247572,35.548499,1,,OK,"locality,political"
206,APPROXIMATE,"Beit Hillel, Israel",ChIJNc0nASG9HhURoVEBEM9g6MU,בית הלל,33.208782,35.606515,1,,OK,"locality,political"
207,APPROXIMATE,"Yuval, Israel",ChIJS0b2Xrq9HhURNCLys512a30,יובל,33.246577,35.597063,1,,OK,"locality,political"
208,APPROXIMATE,"Kfar Giladi, Israel",ChIJ-UsBh4K9HhURx2MTmV7M83s,כפר גלעדי,33.242078,35.574142,1,,OK,"locality,political"
209,APPROXIMATE,"Metula, Israel",ChIJ6w754OK9HhURDDldD2BqBr0,מטולה,33.277232,35.578235,1,,OK,"locality,political"
210,APPROXIMATE,"Shdema, Israel",ChIJGxHkWqW7AhURR5rqHfFv2Xg,שדמה,31.833778,34.74009,1,,OK,"locality,political"
211,APPROXIMATE,"Kfar Aviv, Israel",ChIJX9_v6Qy7AhURykZ3EmstPzQ,כפר אביב,31.831039,34.722577,1,,OK,"locality,political"
212,APPROXIMATE,"Kfar Mordechai, Israel",ChIJ4V1V2Mi7AhURFgn-dQQDib0,כפר מרדכי,31.831504,34.756643,1,,OK,"locality,political"
213,GEOMETRIC_CENTER,"כרם ביבנה, Israel",ChIJKcAkNnq7AhUROHEX11JGrkc,כרם יבנה,31.8169574,34.7236186,1,,OK,"establishment,point_of_interest"
214,APPROXIMATE,"Meishar, Israel",ChIJ5z1oUOu7AhURsHWr8aD46o8,מישר,31.815936,34.752588,1,,OK,"locality,political"
215,APPROXIMATE,"Misgav Dov, Israel",ChIJyzuYJJq7AhUREnfuJ3gLNAM,משגב דב,31.819054,34.739162,1,,OK,"locality,political"
216,APPROXIMATE,"Aseret, Israel",ChIJhfyYjr67AhURaYyLipQHPrY,עשרת,31.824913,34.747459,1,,OK,"locality,political"
217,GEOMETRIC_CENTER,Israel,ChIJA4VrY1q6AhURZyT6obwzbdE,צופיה,31.8556962,34.7378943,1,,OK,"establishment,health,point_of_interest"
218,APPROXIMATE,"Kvutzat Yavne, Israel",ChIJT_nxzXy7AhURkCrs1JEG4_0,קבוצת יבנה,31.81398699999999,34.719103,1,,OK,"locality,political"
219,APPROXIMATE,"Beit Gamliel, Israel",ChIJkbUnDj26AhURu0arzq175pc,בית גמליאל,31.856128,34.760947,1,,OK,"locality,political"
220,APPROXIMATE,"Givat Washington, Israel",ChIJKQ0PHHi7AhURlP5u-NwK9Xw,בית רבן,31.817497,34.7289,1,,OK,"locality,political"
221,APPROXIMATE,"Ben Zakai, Israel",ChIJMyYZNPi6AhURW5hJUquB-C0,בן זכאי,31.85722299999999,34.727432,1,,OK,"locality,political"
222,APPROXIMATE,"Bnaya, Israel",ChIJ_eTWfkq6AhURUD27nYbCBvI,בניה,31.84344399999999,34.751793,1,,OK,"locality,political"
223,APPROXIMATE,"Givat Hen, Israel",ChIJwct4Ehs4HRURGTFS4wj2q-w,"גבעת ח""ן",32.16758,34.875514,1,,OK,"locality,political"
224,APPROXIMATE,"Ra'anana, Israel",ChIJ4YUw-HI4HRUR0bpdpwAdTxE,רעננה,32.184781,34.871326,1,,OK,"locality,political"
225,APPROXIMATE,"Rishpon, Israel",ChIJSzegs7ZHHRURj609UxDsDwo,רשפון,32.201856,34.824723,1,,OK,"locality,political"
226,GEOMETRIC_CENTER,"Beit Guvrin-Maresha National Park, Israel",ChIJuQKlsmTrAhURib1Zc_Ek5ow,בית גוברין,31.601631,34.895464,1,,OK,"establishment,park,point_of_interest"
227,APPROXIMATE,"Beit Nir, Israel",ChIJXbGqVtfqAhURXO2LwiPVjrM,בית ניר,31.647627,34.873107,1,,OK,"locality,political"
228,APPROXIMATE,"Gal On, Israel",ChIJWy3BVsaUAhURqurhLqgjy1k,גלאון,31.63337099999999,34.848898,1,,OK,"locality,political"
229,APPROXIMATE,"Lachish, Israel",ChIJJ1wXPMOSAhURpHibDAduRUg,לכיש,31.560907,34.84409,1,,OK,"locality,political"
230,APPROXIMATE,"Revadim, Israel",ChIJh1S15Na-AhUR60ANzXz0fo8,רבדים,31.773966,34.814807,1,,OK,"locality,political"
231,GEOMETRIC_CENTER,Israel,ChIJWdLBsp6-AhURILedFynegTM,ברורים,31.767772,34.779518,1,,OK,"establishment,point_of_interest"
232,APPROXIMATE,"Gedera, Israel",ChIJ01avgGW5AhURMUaFg-ORCIk,גדרה,31.8123014,34.77701920000001,1,,OK,"locality,political"
233,APPROXIMATE,"Ganei Tal, Israel",ChIJQ4SRTUu5AhURwR2vE1yg3EA,גני טל,31.788573,34.791392,1,,OK,"locality,political"
234,APPROXIMATE,"Hafetz Haim, Israel",ChIJS3dPRjS5AhUR-7NhQ5c-9PU,חפץ חיים,31.789319,34.799739,1,,OK,"locality,political"
235,APPROXIMATE,"Yad Binyamin, Israel",ChIJ937SB9-4AhURjX5Fb3JPQpk,יד בנימין,31.796685,34.82037,1,,OK,"locality,political"
236,APPROXIMATE,"Kidron, Israel",ChIJs_GT0Gy5AhURrbEd1XGr6U0,קדרון,31.814142,34.795548,1,,OK,"locality,political"
237,APPROXIMATE,"Beit Elazari, Israel",ChIJgb6558e5AhURtZjRgPfxk94,בית אלעזרי,31.844717,34.806627,1,,OK,"locality,political"
238,APPROXIMATE,"Beit Hilkia, Israel",ChIJudlIeSW5AhURUR9P9VwOSA0,בית חלקיה,31.793001,34.809698,1,,OK,"locality,political"
239,APPROXIMATE,"Bnei Re'em, Israel",ChIJNVI03r2-AhURfveKDaP92qc,בני ראם,31.769972,34.790463,1,,OK,"locality,political"
240,APPROXIMATE,"Abu Ghosh, Israel",ChIJ40bxIN_QAhUR7azWMEhNx4c,אבו גוש,31.806293,35.109193,1,,OK,"locality,political"
241,GEOMETRIC_CENTER,Israel,ChIJB7dZXJvQAhURC4i7SBqvbRk,איתנים,31.7786992,35.0950205,1,,OK,"establishment,hospital,point_of_interest"
242,APPROXIMATE,"Beit Meir, Israel",ChIJNVszRf7PAhURxwbArwcb_20,בית מאיר,31.794786,35.036753,1,,OK,"locality,political"
243,APPROXIMATE,"Bar Giora, Israel",ChIJbeirjQ_bAhURbzcdoOtmEhk,בר גיורא,31.729683,35.073414,1,,OK,"locality,political"
244,APPROXIMATE,"Giv'at Ye'arim, Israel",ChIJkWRbyY_QAhUR_jyRw0AHR98,גבעת יערים,31.786089,35.09277,1,,OK,"locality,political"
245,APPROXIMATE,"Yad HaShmona, Israel",ChIJT3md9PvQAhURKQELmf8ZEDA,יד השמונה,31.80955,35.089617,1,,OK,"locality,political"
246,APPROXIMATE,"Yedida, Israel",ChIJtRDMhh_RAhURMPRgKMDDISE,ידידה,31.812281,35.104639,1,,OK,"locality,political"
247,APPROXIMATE,"Ksalon, Israel",ChIJaRziwbDaAhURP6beEvG0-1I,כסלון,31.774262,35.048171,1,,OK,"locality,political"
248,APPROXIMATE,"Mata, Israel",ChIJKdQ9gULbAhURuctGQmrV-1A,מטע,31.716522,35.060571,1,,OK,"locality,political"
249,APPROXIMATE,"Neve Ilan, Israel",ChIJc4qFJ1jQAhURXPH06yir4Rs,נווה אילן,31.807585,35.080922,1,,OK,"locality,political"
250,APPROXIMATE,"Nataf, Israel",ChIJJdRSgrrRAhURYU80ccsXDtU,נטף,31.831276,35.06957999999999,1,,OK,"locality,political"
251,APPROXIMATE,"Nes Harim, Israel",ChIJP9BEcyDbAhURNuR1dVdXzxg,נס הרים,31.74419199999999,35.059406,1,,OK,"locality,political"
252,APPROXIMATE,"Ein Naqquba, Israel",ChIJy8pOQc7QAhURO4Rbs41aVeo,עין נקובא,31.79391,35.11968299999999,1,,OK,"locality,political"
253,APPROXIMATE,"Ein Rafa, Israel",ChIJhbTapMjQAhURgMyknCmTDPY,עין ראפה,31.790605,35.116514,1,,OK,"locality,political"
254,APPROXIMATE,"Kiryat Ye'arim, Israel",ChIJsa0WDebQAhURapOu2dpW5-A,קרית יערים,31.802774,35.099945,1,,OK,"locality,political"
255,APPROXIMATE,"Ramat Raziel, Israel",ChIJobzgioTaAhUR_iQ7wn8knc8,רמת רזיאל,31.773573,35.074447,1,,OK,"locality,political"
256,APPROXIMATE,"Sho'eva, Israel",ChIJfUcjP17QAhURxZMEeyq4SFw,שואבה,31.799369,35.079003,1,,OK,"locality,political"
257,APPROXIMATE,"Shoresh, Israel",ChIJSWQfCmzQAhURgMUfh7EzZ8g,שורש,31.797488,35.06529700000001,1,,OK,"locality,political"
258,APPROXIMATE,"Even Sapir, Israel",ChIJu0VwTVbXAhURuK5LaRytITk,אבן ספיר,31.7625,35.134991,1,,OK,"locality,political"
259,APPROXIMATE,"Ora, Israel",ChIJ5SxoFd7ZAhURIAohOUC3v60,אורה,31.752109,35.150165,1,,OK,"locality,political"
260,APPROXIMATE,"Mevo Beitar, Israel",ChIJ_TlBscnbAhURu9svi8Ty7CU,מבוא ביתר,31.722592,35.106656,1,,OK,"locality,political"
261,APPROXIMATE,"Aminadav, Israel",ChIJN2fAO-TZAhUR4d7Hh5v9Y_8,עמינדב,31.75170499999999,35.142428,1,,OK,"locality,political"
262,APPROXIMATE,"Tzur Hadassah, Israel",ChIJjyGoprvbAhUR2HXSA-OgXCg,צור הדסה,31.719374,35.096958,1,,OK,"locality,political"
263,APPROXIMATE,"Gvulot, Israel",ChIJE7dGnVSK_RQRrptggvqLSh0,גבולות,31.211168,34.466199,1,,OK,"locality,political"
264,APPROXIMATE,"Tze'elim, Israel",ChIJ15tqqL91AhURfwoNkIoyByE,צאלים,31.203909,34.533359,1,,OK,"locality,political"
265,APPROXIMATE,"Tlalim, Israel",ChIJf-N2nVURAhURtoUJG_Ej1NU,טללים,30.991511,34.771261,1,,OK,"locality,political"
266,APPROXIMATE,"Kmehin, Israel",ChIJGcmz45n-_RQRXE4b6IxY1rk,כמהין,30.910327,34.430725,1,,OK,"locality,political"
267,,,,מעלה שביט,,,0,,ZERO_RESULTS,
268,APPROXIMATE,"Mashabei Sadeh, Israel",ChIJf_Zs9g0UAhURoSrUZiI8Asg,משאבי שדה,31.00404199999999,34.785029,1,,OK,"locality,political"
269,GEOMETRIC_CENTER,Israel,ChIJqzfmjXf-_RQRXaVPoMejmyk,ניצנה כפר נוער,30.886468,34.421518,2,,OK,"establishment,point_of_interest"
270,APPROXIMATE,"Nitzanei Sinai, Israel",ChIJA88UQrX9_RQRMzNzqFAJRZg,ניצני סיני,30.903428,34.396679,1,,OK,"locality,political"
271,APPROXIMATE,"Ezuz, Israel",ChIJT6_HCq8B_hQRlNn956piTaA,עזוז,30.792202,34.472404,1,,OK,"locality,political"
272,APPROXIMATE,"Kzi'ot, Israel",ChIJS8lGZLL__RQRwXHM04vumBI,קציעות,30.872313,34.467412,1,,OK,"locality,political"
273,GEOMETRIC_CENTER,Israel,ChIJbeaEzaURAhUR6AX3gpHOb8k,ראם תשלובת חקלאית,30.979013,34.72362,1,,OK,"establishment,point_of_interest"
274,APPROXIMATE,"Revivim, Israel",ChIJfWP5BlcSAhURlx-NLo_eY0Q,רביבים,31.045195,34.72108600000001,1,,OK,"locality,political"
275,APPROXIMATE,"Ruakh ba-Midbar, Israel",ChIJqRD7DAsRAhUR8yATFTLYZt8,רוח במדבר,30.98153499999999,34.733883,1,,OK,"locality,political"
276,APPROXIMATE,"Retamim, Israel",ChIJ2URJg34SAhURmcpq2w-bxHo,רתמים,31.05401,34.690902,1,,OK,"locality,political"
277,APPROXIMATE,"Shivta, Israel",ChIJ35lUenoEAhUR7i_ds4-M3uM,שיבטה,30.881121,34.630836,2,,OK,"locality,political"
278,APPROXIMATE,"Ashalim, Israel",ChIJnW7chjAQAhUR_dKB50kK9pI,אשלים,30.964245,34.699674,1,,OK,"locality,political"
279,APPROXIMATE,"Be'er Milka, Israel",ChIJyWUGUg78_RQRqXvrwzcuPvw,באר מילכה,30.934112,34.405643,1,,OK,"locality,political"
280,APPROXIMATE,"Bir Hadaj, Israel",ChIJCVBAfmUSAhURgootzaCRF9g,ביר הדאג',31.02316,34.709138,1,,OK,"political,sublocality,sublocality_level_1"
281,APPROXIMATE,Ortal,ChIJpTo6uWuvHhURwzgG4hURsIA,אורטל,33.086236,35.758661,1,,OK,"locality,political"
282,APPROXIMATE,Alonei Habashan,ChIJHUvogwWsHhURhKx3OsXsexg,אלוני הבשן,33.044087,35.838507,1,,OK,"locality,political"
283,,,,יונתן,,,0,,ZERO_RESULTS,
284,APPROXIMATE,Merom Golan,ChIJka8l7tavHhURlicUkeUKIDM,מרום גולן,33.132583,35.77707100000001,1,,OK,"locality,political"
285,APPROXIMATE,Ein Zivan,ChIJ1aaOa1quHhUR_wPYsnNLfiY,עין זיוון,33.09645,35.796313,1,,OK,"locality,political"
286,GEOMETRIC_CENTER,"The Gateway Arch, St. Louis, MO 63102, USA",ChIJteVBdWDwwIcRNKiWxoko7Xk,קשת,38.624691,-90.1847763,1,63102,OK,"establishment,park,point_of_interest"
287,APPROXIMATE,"El-Athamin (South to Nevatim), Israel",ChIJZQcwSUldAhURV-2A1ODOuC4,אל עת'אמין,31.20614599999999,34.879442,2,,OK,"political,sublocality,sublocality_level_1"
288,APPROXIMATE,"Bir Abu el-Hamam, Israel",ChIJqxV1YRpdAhURkCIO7JYICjk,ביר אבו אל חמאם,31.222267,34.896634,1,,OK,"political,sublocality,sublocality_level_1"
289,APPROXIMATE,"Nevatim, Israel",ChIJh-_emmpdAhURoTTl17AkWIM,נבטים,31.219761,34.882488,1,,OK,"locality,political"
290,APPROXIMATE,"Shaqib al-Salam, Israel",ChIJswxZt2xoAhURxDNoc52Lr2E,שגב שלום,31.198361,34.839665,1,,OK,"locality,political"
291,APPROXIMATE,"Abu Queider El Afauy (South to Nevatim), Israel",ChIJqUU_zlpdAhURp41IpvTpGO4,אבו קוידר אל עפאוי דרומית לנבטים,31.213979,34.873003,1,,OK,"political,sublocality,sublocality_level_1"
292,APPROXIMATE,"Abu Tulul, Israel",ChIJ875c7a5DAhUR2hjBSpbt5vI,אבו תלול,31.142612,34.913514,1,,OK,"political,sublocality,sublocality_level_1"
293,APPROXIMATE,"El-Hamidi, Israel",ChIJ_4jvjVJdAhUR9R9Yz2PmwQA,אל חמידי,31.204259,34.87237400000001,1,,OK,"political,sublocality,sublocality_level_1"
294,APPROXIMATE,"Shomrat, Israel",ChIJoRNbITvJHRURPxMf2JR9QLA,שמרת,32.95148,35.094955,1,,OK,"locality,political"
295,APPROXIMATE,"Bustan HaGalil, Israel",ChIJ3fiLeeDIHRURdapvNthFzwk,בוסתן הגליל,32.948636,35.08068799999999,1,,OK,"locality,political"
296,APPROXIMATE,"Beit HaEmek, Israel",ChIJL8cV8z7MHRURYxU_-U989SU,בית העמק,32.971014,35.145305,1,,OK,"locality,political"
297,APPROXIMATE,"Makr, Jadeidi-Makr, Israel",ChIJqf8xS-_LHRUREOnvAKGA0Uw,ג'דידה מכר,32.935159,35.1390388,1,,OK,"neighborhood,political"
298,APPROXIMATE,"Kfar Masaryk, Israel",ChIJT2k2nNvJHRURQ-9c5ePQP2c,כפר מסריק,32.891218,35.098414,1,,OK,"locality,political"
299,APPROXIMATE,"Nes Ammim, Israel",ChIJvYXPAabOHRURU00xUvMQuVw,נס עמים,32.965465,35.121588,1,,OK,"locality,political"
300,APPROXIMATE,"Netiv HaShayara, Israel",ChIJsyo2OSvMHRUReSYB7_nB9qo,נתיב השיירה,32.991185,35.130745,1,,OK,"locality,political"
301,APPROXIMATE,"Ein HaMifratz, Israel",ChIJJVkaj8jJHRURi-UI6-NKidU,עין המפרץ,32.902581,35.09303999999999,1,,OK,"locality,political"
302,APPROXIMATE,"Acre, Israel",ChIJJZyyA_7IHRURKcNNgOVZmHA,עכו,32.933052,35.082678,1,,OK,"locality,political"
303,APPROXIMATE,"Sheikh Danun, Israel",ChIJsTbyisnNHRURJfSAexgAE2A,שייח' דנון,32.9938295,35.14856839999999,1,,OK,"locality,political"
304,APPROXIMATE,"Giv'at Shmuel, Israel",ChIJrefIUhBKHRURgGM51orRChk,גבעת שמואל,32.077299,34.849206,1,,OK,"locality,political"
305,APPROXIMATE,"Giv'atayim, Israel",ChIJpwmMR7pLHRUR98g1DgIgZ4c,גבעתיים,32.072176,34.808871,1,,OK,"locality,political"
306,APPROXIMATE,"Havat Shalem, Israel",ChIJryXWwOBKHRURgD5xXz2HKZY,חוות שלם,32.039601,34.822714,1,,OK,"locality,political"
307,APPROXIMATE,"Petah Tikva, Israel",ChIJuVMHo3M2HRURPETBIx9l4M0,פתח תקווה,32.084041,34.887762,1,,OK,"locality,political"
308,APPROXIMATE,"Ramat Gan, Israel",ChIJreSU54ZMHRURb1IX5z6_AC0,רמת גן,32.068424,34.824785,1,,OK,"locality,political"
309,APPROXIMATE,"Bnei Brak, Israel",ChIJeXLMWyNKHRURhzlCjBfKL6M,בני ברק,32.084932,34.835226,1,,OK,"locality,political"
310,APPROXIMATE,"Azor, Israel",ChIJYUAPOjRLHRUR_NH9fByeZTY,אזור,32.029558,34.799648,1,,OK,"locality,political"
311,APPROXIMATE,"Bat Yam, Israel",ChIJi7MrQRKzAhURMpxIzGUalrI,בת ים,32.013186,34.748019,1,,OK,"locality,political"
312,APPROXIMATE,"Holon, Israel",ChIJOb8zDLu0AhURLeclBWR53fs,חולון,32.015833,34.787384,1,,OK,"locality,political"
313,GEOMETRIC_CENTER,"Derech HaKramim, Israel",ChIJy1r4DlNLHRURVXLQVH03ICY,מקווה ישראל,32.0331743,34.7814667,1,,OK,"establishment,point_of_interest,school"
314,APPROXIMATE,"Kfar HaNagid, Israel",ChIJGUlzL5mwAhUR6BUg0aJSg7U,כפר הנגיד,31.887134,34.748725,1,,OK,"locality,political"
315,APPROXIMATE,"Ge'alya, Israel",ChIJf3tezq-wAhURI9MsCF3fx4g,גאליה,31.885644,34.765351,1,,OK,"locality,political"
316,APPROXIMATE,"Yavne, Israel",ChIJs32SQXq6AhUR5H65MScHmUE,יבנה,31.877958,34.739449,1,,OK,"locality,political"
317,APPROXIMATE,"Re'im, Israel",ChIJ-VWeM-GG_RQRi81n7Ca5bXg,רעים,31.386159,34.458823,1,,OK,"locality,political"
318,APPROXIMATE,"Yakhini, Israel",ChIJa6ennyyHAhURidanjkgfWfY,יכיני,31.482205,34.598634,1,,OK,"locality,political"
319,,,,זוהר,,,0,,ZERO_RESULTS,
320,APPROXIMATE,"Yad Natan, Israel",ChIJm5na_bSQAhURvBuJZ0PRM8E,יד נתן,31.652961,34.704874,1,,OK,"locality,political"
321,APPROXIMATE,"Kokhav Michael, Israel",ChIJzX_PSmGaAhURuHqkC-fZVos,כוכב מיכאל,31.631482,34.667794,1,,OK,"locality,political"
322,APPROXIMATE,"Negba, Israel",ChIJj5C3BQKaAhURhQuuWmkoySs,נגבה,31.662547,34.679561,1,,OK,"locality,political"
323,APPROXIMATE,"Nehora, Israel",ChIJSe4IZ4yQAhUR3S6rcWDOvbA,נהורה,31.621321,34.704496,1,,OK,"locality,political"
324,APPROXIMATE,"Noga, Israel",ChIJzfsnC4WQAhURAm1a8o6lXbw,נוגה,31.625691,34.69528,1,,OK,"locality,political"
325,APPROXIMATE,"Nir Hen, Israel",ChIJ8ZtvO1mQAhURFqiYuarUIqg,"ניר ח""ן",31.608906,34.714282,1,,OK,"locality,political"
326,APPROXIMATE,"Otzem, Israel",ChIJ2YNLAL-QAhUR2dpuqZ3rhYY,עוצם,31.637665,34.705108,1,,OK,"locality,political"
327,APPROXIMATE,"Sde Yoav, Israel",ChIJEXLhBA2aAhUR-hFbJAJaolk,שדה יואב,31.645723,34.676849,1,,OK,"locality,political"
328,,,,שחר,,,0,,ZERO_RESULTS,
329,APPROXIMATE,"E-Ziyadna (South to Rahat), Rahat, Israel",ChIJMTq2bVJiAhURzdiFIaDunFo,א זיאדנה דרומית לרהט,31.367093,34.740095,1,,OK,"political,sublocality,sublocality_level_1"
330,APPROXIMATE,"E-Ziyadna (North to Rahat), Israel",ChIJ2caGQyCKAhURYZ8Hb_J_HFA,א זיאדנה צפונית לרהט,31.414435,34.77579,1,,OK,"political,sublocality,sublocality_level_1"
331,APPROXIMATE,"El-Heil, Israel",ChIJUe9oWdyJAhURYI3ETx21M4M,אל הייל,31.408423,34.748283,1,,OK,"political,sublocality,sublocality_level_1"
332,APPROXIMATE,"Hukok, Israel",ChIJSat2iIs8HBURCin3SjAW3xM,אל חוקוק,32.878631,35.496654,1,,OK,"locality,political"
333,APPROXIMATE,"El-Ata'iqa, Rahat, Israel",ChIJaQ4X_kNiAhURa2OBw-xNG_s,אל עתאיקה,31.376914,34.746405,1,,OK,"political,sublocality,sublocality_level_1"
334,APPROXIMATE,"Beit Kama, Israel",ChIJVRgYG3CJAhURSJ_tppYDakQ,בית קמה,31.446566,34.762248,1,,OK,"locality,political"
335,APPROXIMATE,"Giv'ot Bar, Israel",ChIJxbXOEMtjAhUR2zhy3Z-9l8A,גבעות בר,31.357209,34.755541,1,,OK,"locality,political"
336,APPROXIMATE,"Dvir, Israel",ChIJBxYsk_uKAhURvaJnAFnZaF4,דבירה,31.411699,34.825177,1,,OK,"locality,political"
337,,,,הוזייל,,,0,,ZERO_RESULTS,
338,APPROXIMATE,"Adanim Youth Village, Israel",ChIJf1MggZ2JAhURaJ7ExjD7G2w,כפר נוער עדנים,31.4375,34.76,1,,OK,"locality,political"
339,APPROXIMATE,"Lahav, Israel",ChIJFxZB3Uj1AhURlv-f-Lxvpc4,להב,31.379363,34.871311,1,,OK,"locality,political"
340,APPROXIMATE,"Lehavim, Israel",ChIJjTc0QNNhAhURvi4DnHT6Kks,להבים,31.373835,34.816952,1,,OK,"locality,political"
341,GEOMETRIC_CENTER,"צומת, Beit Kama, Israel",ChIJB-UWt3uJAhURgzfdCVK5Nvs,מפעלי אבשלום,31.4424287,34.7610131,1,,OK,"establishment,point_of_interest"
342,APPROXIMATE,"Mishmar HaNegev, Israel",ChIJ_9jeWhtjAhUR6t_HZHqiKXw,משמר הנגב,31.364796,34.71796800000001,1,,OK,"locality,political"
343,APPROXIMATE,"Rahat, Israel",ChIJmYPjYgtiAhURSKycipB75Hc,רהט,31.394548,34.753934,1,,OK,"locality,political"
344,APPROXIMATE,"Shoval, Israel",ChIJFfqQmsSJAhURWfhGAfryX2Y,שובל,31.413734,34.745814,1,,OK,"locality,political"
345,APPROXIMATE,"Tirabin al-Sana, Israel",ChIJnd_c7qJjAhURfwMDygo5orU,תראבין א צאנה,31.345481,34.739126,1,,OK,"locality,political"
346,GEOMETRIC_CENTER,"Ben Shemen, 7311200, Israel",ChIJV6fIrmzLAhURypxCfeh8gfw,בן שמן כפר נוער,31.95966499999999,34.929056,2,7311200,OK,"establishment,point_of_interest,school"
347,APPROXIMATE,"Ginaton, Israel",ChIJs18anBvLAhUReR5Ru0f4aiY,גינתון,31.962801,34.913062,1,,OK,"locality,political"
348,APPROXIMATE,"Kerem Ben Shemen, Israel",ChIJx-2B_WvLAhURacTW3ViPt-8,כרם בן שמן,31.958896,34.934104,1,,OK,"locality,political"
349,APPROXIMATE,"Lod, Israel",ChIJoQbRWlzKAhURGoHKB15E7qw,לוד,31.951014,34.888075,1,,OK,"locality,political"
350,APPROXIMATE,"Nir Tzvi, Israel",ChIJr7xkOoi1AhURCEZfk5l1x-c,ניר צבי,31.954403,34.861529,1,,OK,"locality,political"
351,APPROXIMATE,"Be'er Ya'akov, Israel",ChIJy7mXtcK1AhUR99sk2N-jKFo,באר יעקב,31.943507,34.83904,1,,OK,"locality,political"
352,APPROXIMATE,"Yashresh, Israel",ChIJ5Z7ryha2AhURK9LU21tbEqA,ישרש,31.915667,34.847337,1,,OK,"locality,political"
353,APPROXIMATE,"Matsli'ah, Israel",ChIJV-5tUObJAhURYIOr93CWdCk,מצליח,31.906364,34.871278,1,,OK,"locality,political"
354,APPROXIMATE,"Tzrifin, Israel",ChIJMYGn-ZW1AhURfrUokzywAgY,צריפין,31.957328,34.840566,1,,OK,"locality,political"
355,APPROXIMATE,"Ramla, Israel",ChIJcSCzSQXKAhUREqDRNdWzQAg,רמלה,31.931566,34.872938,1,,OK,"locality,political"
356,APPROXIMATE,"Irus, Israel",ChIJnSEad8u2AhURBZU44ytVuZc,אירוס,31.928595,34.776605,1,,OK,"locality,political"
357,APPROXIMATE,"Givat Brenner, Israel",ChIJAdXkJGK3AhURxj71smLD6FU,גבעת ברנר,31.86661,34.802254,1,,OK,"locality,political"
358,APPROXIMATE,"Gibton, Israel",ChIJ5fSX_xS3AhURMu-45qQEjLo,גיבתון,31.888318,34.79906,1,,OK,"locality,political"
359,APPROXIMATE,"Kvutzat Shiller, Israel",ChIJoQX5qWm3AhURcTwnmvysmpQ,גן שלמה,31.878777,34.798901,1,,OK,"locality,political"
360,APPROXIMATE,"Netzer Sereni, Israel",ChIJHxOn_mO2AhURAb79xDAp3yg,נצר סרני,31.922789,34.821191,1,,OK,"locality,political"
361,APPROXIMATE,"Rehovot, Israel",ChIJj-W_kgW3AhURV_lYF8v4re4,רחובות,31.892773,34.811272,1,,OK,"locality,political"
362,APPROXIMATE,"Beit Hanan, Israel",ChIJT0T6GLW2AhURVNd_ylylatM,בית חנן,31.935211,34.775596,1,,OK,"locality,political"
363,APPROXIMATE,"Beit Oved, Israel",ChIJgVtI2tK2AhUR4chZ_T9AEAw,בית עובד,31.921287,34.774905,1,,OK,"locality,political"
364,APPROXIMATE,"Ness Ziona, Israel",ChIJJbOI0Za2AhURJ70ufX-3YZo,נס ציונה,31.932111,34.801327,1,,OK,"locality,political"
365,APPROXIMATE,"Ayanot, Israel",ChIJpdl-_CmxAhURMGQWfk4RNqk,עיינות,31.91579999999999,34.768097,1,,OK,"locality,political"
366,APPROXIMATE,"Ahisamakh, Israel",ChIJOXy3ZLXLAhURoJgIvWujKWI,אחיסמך,31.931906,34.908576,1,,OK,"locality,political"
367,APPROXIMATE,"Ben Shemen Youth Village, Israel",ChIJOe5JOBPLAhURv4kTE4-jPgI,בן שמן,31.959019,34.927831,1,,OK,"locality,political"
368,APPROXIMATE,Si'ir,ChIJCyhpsb7gAhURdc1hqN4OsGk,סיעיר,31.582455,35.143776,1,,OK,"locality,political"
369,APPROXIMATE,Abdalla Ibrahim,ChIJVRsBvtbeAhURicvrj0TECfE,עבדאללה איברהים,31.664956,35.166735,1,,OK,"locality,political"
370,APPROXIMATE,Rosh Tzurim,ChIJVfpnah7cAhURP2zVraHI2e0,ראש צורים,31.66779099999999,35.125288,1,,OK,"locality,political"
371,APPROXIMATE,Beit Ummar,ChIJCyHq9ZLdAhURLl-O9PfmmE0,בית אומר,31.622812,35.102199,1,,OK,"locality,political"
372,APPROXIMATE,Bayt Kahil,ChIJ3xAroEXmAhUR7HJqfL-sqoc,בית כאחיל,31.57054699999999,35.068931,1,,OK,"locality,political"
373,APPROXIMATE,Bayt Sakarya,ChIJj1THvCHcAhURIQVkhT9dTZw,בית סכריא,31.662876,35.123008,1,,OK,"locality,political"
374,APPROXIMATE,Bayt Fajar,ChIJu8EEcETeAhURkKWcuu51uhA,בית פג'אר,31.6216355,35.154903,1,,OK,"locality,political"
375,APPROXIMATE,Betar Illit,ChIJT1oSV_rbAhURCxq8bq_qRS0,ביתר עילית,31.7010023,35.1119254,1,,OK,"locality,political"
376,APPROXIMATE,Bat Ayin,ChIJ-9t5bEncAhURhMEsJnsLPMo,בת עין,31.657653,35.101101,1,,OK,"locality,political"
377,APPROXIMATE,Battir,ChIJPemLzJrZAhURUy-OPplJW4I,בתיר,31.728181,35.138032,1,,OK,"locality,political"
378,APPROXIMATE,Bayt Jala,ChIJG1dFnETYAhURc8pEC3CXOGU,ג'אלא,31.715999,35.187149,1,,OK,"locality,political"
379,APPROXIMATE,Jab'a,ChIJS0oI_PPcAhURWdHnIDwoy74,ג'בעה,31.674467,35.076957,1,,OK,"locality,political"
380,APPROXIMATE,Har Gillo,ChIJrXZL10zYAhURQQDvd94iknE,הר גילה,31.722058,35.171491,1,,OK,"locality,political"
381,APPROXIMATE,Wadi Fukin,ChIJTfyGz5TbAhUR_tJJfBVqflg,ואדי פוכין,31.707272,35.104193,1,,OK,"locality,political"
382,APPROXIMATE,Khirbat Safa,ChIJ8R3yabfdAhURRwUHh8yTvVI,ח'ירבת ספא,31.64261699999999,35.100808,1,,OK,"locality,political"
383,APPROXIMATE,Husan,ChIJtZmhZmTZAhUR7Ve1HUEot7k,חוסאן,31.708426,35.133425,1,,OK,"locality,political"
384,APPROXIMATE,Halhul,ChIJmdBw-xjnAhURgaDWgn-PG04,חלחול,31.5798898,35.0999042,1,,OK,"locality,political"
385,,,,חסכה,,,0,,ZERO_RESULTS,
386,APPROXIMATE,Kweizba,ChIJtQhcGiPeAhURlmewNKyFwa4,כוויזבא,31.603912,35.152208,1,,OK,"locality,political"
387,APPROXIMATE,Kfar Ezion,ChIJ9esxhjLcAhURL6KmolX_97U,כפר עציון,31.649486,35.115234,1,,OK,"locality,political"
388,APPROXIMATE,Karmei Zur,ChIJ62_SpWHnAhURjUGe-_TvTvo,כרמי צור,31.609468,35.101273,1,,OK,"locality,political"
389,APPROXIMATE,Migdal Oz,ChIJdQ9mf4neAhURUhFCsD-7ZIY,מגדל עוז,31.640932,35.143139,1,,OK,"locality,political"
390,APPROXIMATE,Al Aroub,ChIJ_V6-gW3eAhUR6CDSrkveB9w,מועסכר אל ערוב,31.62260199999999,35.13812600000001,1,,OK,"locality,political"
391,APPROXIMATE,Marah Al-Baqr,ChIJmW5uc53nAhURaKG1MA1R8ws,מראח אל בקר,31.605668,35.081604,1,,OK,"locality,political"
392,APPROXIMATE,Neve Daniel,ChIJ-apqfbPeAhURb71VO6Wo7pI,נווה דניאל,31.67632,35.143293,1,,OK,"locality,political"
393,APPROXIMATE,Nahalin,ChIJOzAsp_jbAhURtXfRRSIuFbk,נחאלין,31.685608,35.12036200000001,1,,OK,"locality,political"
394,APPROXIMATE,Surif,ChIJXw_C6xbdAhURwHUo_uqCBZs,סוריף,31.649552,35.064712,1,,OK,"locality,political"
395,APPROXIMATE,alShuyukh,ChIJKUKEmergAhUREBYKaAopiVw,א שויוח,31.574996,35.149421,1,,OK,"locality,political"
396,APPROXIMATE,Al Aroub,ChIJ_V6-gW3eAhUR6CDSrkveB9w,אל ערוב,31.62260199999999,35.13812600000001,1,,OK,"locality,political"
397,APPROXIMATE,Alon Shvut,ChIJVwHBwyfcAhURdjq_PikLbJg,אלון שבות,31.654871,35.125256,1,,OK,"locality,political"
398,APPROXIMATE,Elazar,ChIJBc8P3r3eAhURqKx0jYUnKsA,אלעזר,31.659676,35.143074,1,,OK,"locality,political"
399,,,,אפרתה,,,0,,ZERO_RESULTS,
400,APPROXIMATE,Al-Masara,ChIJd4IphzbfAhURZWpeTGkvLa0,מעסרה,31.658258,35.189953,1,,OK,"locality,political"
401,APPROXIMATE,Mezad Shim'on,ChIJZ33ny5TfAhUROeoVBRhLLTM,מצד שמעון,31.601868,35.196727,1,,OK,"locality,political"
402,APPROXIMATE,Marah Rabah,ChIJL582DQ7fAhURm0liIY72Dk8,מראח רבאח,31.633423,35.186779,1,,OK,"locality,political"
403,APPROXIMATE,Nokdim,ChIJd3EZwswgAxUR0ttEmaYrUYM,נוקדים,31.645331,35.244064,1,,OK,"locality,political"
404,APPROXIMATE,Ubeidiya,ChIJH8fAgbAoAxURcxhCE_KrgJA,עובידייה,31.72383,35.291821,1,,OK,"locality,political"
405,APPROXIMATE,al-Eizariya,ChIJ3RXQRRApAxURdZmIalTY8Rk,עיזרייה,31.769135,35.271533,1,,OK,"locality,political"
406,APPROXIMATE,Ilat Ali,ChIJlwUR6mYnAxURT6gDwXBMCWc,עילת עלי,31.676972,35.22177,1,,OK,"locality,political"
407,APPROXIMATE,Arab alSham'a,ChIJd0tKqyXfAhURFsaRA79KxrI,ערב א שמעה,31.65461999999999,35.178852,1,,OK,"locality,political"
408,APPROXIMATE,Kedar,ChIJ8zlw0tEuAxUR7G_HbjjX0Fk,קדר,31.754384,35.310732,1,,OK,"locality,political"
409,APPROXIMATE,Ras Sinsil,ChIJ_WoPb04mAxURjGAkw8fiLoU,ראס סניסיל,31.691451,35.265172,1,,OK,"locality,political"
410,APPROXIMATE,Rafida,ChIJ4dDCREMnAxURrcXcTYRj8UY,רפידא,31.667633,35.22673899999999,1,,OK,"locality,political"
411,APPROXIMATE,Tuqu',ChIJecBHB1_fAhUR-7L079OEKLw,תוקוע,31.639093,35.21249,1,,OK,"locality,political"
412,,,,תעמרה,,,0,,ZERO_RESULTS,
413,APPROXIMATE,Tekoa,ChIJ98SaPk0nAxURCPTC3MI2Y44,תקוע,31.652785,35.227517,1,,OK,"locality,political"
414,APPROXIMATE,Hebron,ChIJ-2PE7CfkAhURTBMvalxNRr4,א דיר במזרח הר חברון,31.532569,35.09982600000001,1,,OK,"locality,political"
415,APPROXIMATE,Abu Nujaym,ChIJhdbcabPYAhURu21nzTIY8AQ,אבו נוג'ים,31.66192,35.199291,1,,OK,"locality,political"
416,APPROXIMATE,Umm al-Tala',ChIJ069wv0smAxURCzj9n-2__Js,אום א טלע,31.696829,35.262868,1,,OK,"locality,political"
417,APPROXIMATE,Umm Salmuna,ChIJCUNRCOTeAhURxnpG4xfG8CU,אום סלמונה,31.645665,35.165229,1,,OK,"locality,political"
418,APPROXIMATE,Umm 'Asala,ChIJKeoQ4RUmAxURc_2muz709n4,אום עסלה,31.699141,35.281913,1,,OK,"locality,political"
419,APPROXIMATE,al-Khader,ChIJYdI8_x3ZAhURrePAACr_o80,אל ח'דר,31.694811,35.170745,1,,OK,"locality,political"
420,APPROXIMATE,Metzad,ChIJe3G8M9_fAhURaMwCY_-l0Ko,אספר,31.586152,35.187594,1,,OK,"locality,political"
421,APPROXIMATE,Irtas,ChIJdfooEezYAhURsyUhGyRZBZE,ארטאס,31.689957,35.188236,1,,OK,"locality,political"
422,APPROXIMATE,Bad Fluh,ChIJ6-nPsl4nAxURz6zmeyJhS0w,בד פלוח,31.669249,35.219529,1,,OK,"locality,political"
423,APPROXIMATE,Buwaidi'a,ChIJgXqg_3AnAxURlGCcm3jwfIo,בווידיעה,31.683946,35.228412,1,,OK,"locality,political"
424,APPROXIMATE,Hebron,ChIJ-2PE7CfkAhURTBMvalxNRr4,ביאדה בהר חברון,31.532569,35.09982600000001,1,,OK,"locality,political"
425,APPROXIMATE,Bayt Rahal,ChIJKbVDt9PYAhUR8smC1NhP39c,בית רחאל,31.670686,35.178491,1,,OK,"locality,political"
426,ROOFTOP,"Ha-Biluyim St 9, Gedera, Israel",ChIJ01avgGW5AhURK77L-yJpgrA,בית תעמר,31.8150576,34.7728058,2,,OK,"establishment,food,point_of_interest,restaurant"
427,APPROXIMATE,"Basma, Israel",ChIJ1yMQEh8HHRURl7bTE5W5qtM,ברד'עה,32.52940100000001,35.103199,1,,OK,"locality,political"
428,APPROXIMATE,Jahalin,ChIJW7C3UD0pAxURvFcTS74mWPY,ג'האלין,31.764899,35.281138,1,,OK,"locality,political"
429,,,,ג'וב א רום,,,0,,ZERO_RESULTS,
430,APPROXIMATE,Juhazm,ChIJmyV1GzsmAxURBxHEDZ6lFFA,ג'והזם,31.705446,35.27295100000001,1,,OK,"locality,political"
431,APPROXIMATE,Jorat al-Sham'a,ChIJtxIOtyHfAhURDL-BTMGs7s0,ג'ורת א שמעה,31.650025,35.174198,1,,OK,"locality,political"
432,APPROXIMATE,Dahr Halat al-Jami',ChIJExQLErDYAhURApEu02RRZLg,ד'הר חלת אל ג'אמיע,31.668885,35.202744,1,,OK,"locality,political"
433,APPROXIMATE,Dheisha,ChIJ7-Iks-_YAhURTYLAh_SJxRk,דהיישה מחנה פליטים,31.693516,35.184562,1,,OK,"locality,political"
434,,,,ואדי אל עראיס,,,0,,ZERO_RESULTS,
435,APPROXIMATE,Za'tara,ChIJWy25FgMnAxUReou1o0mVlN0,זעתרה,31.674444,35.255091,1,,OK,"locality,political"
436,APPROXIMATE,Harzan,ChIJseqB_I0oAxURmrDvl-r1jBE,ח'רזאן,31.733554,35.269247,1,,OK,"locality,political"
437,APPROXIMATE,Hujayla,ChIJLTo1HswnAxUR1i0N_vjU72k,חוג'ילה,31.709459,35.253381,1,,OK,"locality,political"
438,APPROXIMATE,Harmala,ChIJ4UdtLFcnAxURJDI5KKSBY_w,חרמלה,31.6610022,35.2219894,1,,OK,"locality,political"
439,APPROXIMATE,Kfar Eldad,ChIJLXWNey8nAxURmu39720BCT0,כפר אלדד,31.653953,35.250995,1,,OK,"locality,political"
440,,,,מיניה,,,0,,ZERO_RESULTS,
441,APPROXIMATE,Ma'ale Adumim,ChIJk_sscakuAxURGL1i9kMPn7Y,מעלה אדומים,31.777369,35.297955,1,,OK,"locality,political"
442,APPROXIMATE,Ma'ale Amos,ChIJtaqZmm4gAxUR2az8ugEqJhY,מעלה עמוס,31.596887,35.22936500000001,1,,OK,"locality,political"
443,APPROXIMATE,"Uza, Israel",ChIJsxO7FYORAhUR84hNicGwQ9k,עוזה,31.593042,34.764524,1,,OK,"locality,political"
444,APPROXIMATE,"Kiryat Gat, Israel",ChIJO6bnsmaRAhUR_WhTM9BYac8,קרית גת,31.611148,34.768459,1,,OK,"locality,political"
445,APPROXIMATE,"Sde Moshe, Israel",ChIJhY3j8pOTAhURgPsbG-xzGWU,שדה משה,31.610982,34.800427,1,,OK,"locality,political"
446,,,,שלווה,,,0,,ZERO_RESULTS,
447,APPROXIMATE,"Even Shmuel, Israel",ChIJOdn1V-2RAhURhdCul0vD0Z8,אבן שמואל,31.576429,34.762963,1,,OK,"locality,political"
448,APPROXIMATE,"Ahuzam, Israel",ChIJifW3owGOAhURL_ytd2dy3FA,אחוזם,31.552682,34.770151,1,,OK,"locality,political"
449,APPROXIMATE,"Eitan, Israel",ChIJQ-PGN8ORAhUR1LO-dKC2-Ok,איתן,31.572213,34.747909,1,,OK,"locality,political"
450,APPROXIMATE,"Gat, Israel",ChIJqV1UmwqUAhUR-TgO1L_tK4c,גת,31.627796,34.794112,1,,OK,"locality,political"
451,APPROXIMATE,"Mabhur, Israel",ChIJdzxXH1mRAhURffroUmW1vXM,מבחור,31.620886,34.771006,1,,OK,"locality,political"
452,APPROXIMATE,"No'am, Israel",ChIJKbYTMhaSAhUROXkCLewrKDg,נועם,31.568567,34.788161,1,,OK,"locality,political"
453,APPROXIMATE,"Bror Hayil, Israel",ChIJzdOvTgGFAhURH25hET-HLnY,ברור חיל,31.55698499999999,34.646547,1,,OK,"locality,political"
454,APPROXIMATE,"Gvar'am, Israel",ChIJNasOSbqEAhURKJ0lcNbNEI8,גברעם,31.591461,34.612156,1,,OK,"locality,political"
455,APPROXIMATE,"Heletz, Israel",ChIJD0CQjDmFAhUR9ZURRHo3lWQ,חלץ,31.57794,34.658391,1,,OK,"locality,political"
456,APPROXIMATE,"Sde David, Israel",ChIJwdskz1WFAhURwOBRvRrXydw,שדה דוד,31.577476,34.683443,1,,OK,"locality,political"
457,APPROXIMATE,"Tlamim, Israel",ChIJXaBYTGiFAhURdqrdHOKIUYI,תלמים,31.563416,34.67199799999999,1,,OK,"locality,political"
458,APPROXIMATE,"Givat HaShlosha, Israel",ChIJ71S4du82HRURt7nSHbChgKo,גבעת השלושה,32.09634,34.920628,1,,OK,"locality,political"
459,APPROXIMATE,"Gat Rimon, Israel",ChIJ2xpU8eg1HRURyL-eW3oYLf4,גת רימון,32.068105,34.881362,1,,OK,"locality,political"
460,APPROXIMATE,"Kfar Sirkin, Israel",ChIJIRMfqpA2HRURaKLE6vMZSpY,כפר סירקין,32.076684,34.922763,1,,OK,"locality,political"
461,GEOMETRIC_CENTER,Israel,ChIJo6u6sgQ3HRURm4P0sAcC1X4,תעשיון השרון,32.11378,34.917535,1,,OK,"establishment,point_of_interest"
462,APPROXIMATE,"Shefayim, Israel",ChIJ3f4qFapHHRURF7ShebYE2o0,שפיים,32.216586,34.822409,1,,OK,"locality,political"
463,APPROXIMATE,"Tel Yitzhak, Israel",ChIJA4-wvlo_HRUR_t85v95T7CU,תל יצחק,32.252745,34.872378,1,,OK,"locality,political"
464,APPROXIMATE,"Mishmeret, Israel",ChIJ018qlMw-HRURDA_y8-baMJ0,משמרת,32.227586,34.922055,1,,OK,"locality,political"
465,APPROXIMATE,"Nir Eliyahu, Israel",ChIJxzaVCmA5HRURumMU6jTIG20,ניר אליהו,32.197593,34.949375,1,,OK,"locality,political"
466,APPROXIMATE,"Azri'el, Israel",ChIJq7SMoMc9HRUR-ryABU3MBoQ,עזריאל,32.262841,34.971133,1,,OK,"locality,political"
467,APPROXIMATE,"Ein Vered, Israel",ChIJ23n8N2A-HRURRxqP5V2tsbs,עין ורד,32.264467,34.930705,1,,OK,"locality,political"
468,APPROXIMATE,"Ein Sarid, Israel",ChIJTxhZ024-HRURv94eaFdhQ7E,עין שריד,32.274901,34.93418,1,,OK,"locality,political"
469,APPROXIMATE,"Porat, Israel",ChIJa-FkMXU-HRURh2MBPNjVAdU,פורת,32.277081,34.948816,1,,OK,"locality,political"
470,APPROXIMATE,"Pardesiya, Israel",ChIJdalN4Ss-HRURIdbQPYGBuRY,פרדסיה,32.305011,34.911731,1,,OK,"locality,political"
471,APPROXIMATE,"Kokhav Ya'ir Tzur Yigal, Israel",ChIJASkhr2E8HRURJo34OtDD4H4,צור יגאל,32.220922,34.992405,1,,OK,"locality,political"
472,APPROXIMATE,"Tzur Yitzhak, Israel",ChIJVUVJLv48HRURwUY2MQqcx9E,צור יצחק,32.241478,34.997998,1,,OK,"locality,political"
473,APPROXIMATE,"Tzur Moshe, Israel",ChIJa0SpHi4-HRURLtlA0M9G6ps,צור משה,32.298911,34.913117,1,,OK,"locality,political"
474,APPROXIMATE,"Tzur Natan, Israel",ChIJZ1ge_h49HRUR-PpiyQT0HK0,צור נתן,32.239673,35.01402,1,,OK,"locality,political"
475,APPROXIMATE,"Kadima Zoran, Israel",ChIJVZVfOUU-HRURvdBpZUKuFrE,קדימה צורן,32.277644,34.919297,1,,OK,"locality,political"
476,APPROXIMATE,"Qalansawe, Israel",ChIJHdsyNog9HRUR2EoZbFzG54A,קלנסווה,32.285791,34.981487,1,,OK,"locality,political"
477,APPROXIMATE,"Ramat HaKovesh, Israel",ChIJ6_9an005HRUR5jgE5GFwC7k,רמת הכובש,32.218313,34.93828999999999,1,,OK,"locality,political"
478,APPROXIMATE,"Sde Warburg, Israel",ChIJ9w22DeE4HRUR_gnMwChhnVc,שדה ורבורג,32.208691,34.90325,1,,OK,"locality,political"
479,APPROXIMATE,"Sha'ar Efraim, Israel",ChIJ3cHaD9IXHRURA8v8lUP7qQg,שער אפרים,32.290662,34.999448,1,,OK,"locality,political"
480,APPROXIMATE,"Tel Mond, Israel",ChIJu0-f5e8-HRURBlCmorTe13Q,תל מונד,32.256608,34.91846,1,,OK,"locality,political"
481,APPROXIMATE,"Even Yehuda, Israel",ChIJ54VM3XM_HRURVtFg88Uc7AI,אבן יהודה,32.276648,34.885087,1,,OK,"locality,political"
482,APPROXIMATE,"Udim, Israel",ChIJZaSZNrxAHRURCvQJF3wC7to,אודים,32.266865,34.846995,1,,OK,"locality,political"
483,APPROXIMATE,"Arsuf, Israel",ChIJn2qGBVNGHRUR25vAgvFLYJc,ארסוף,32.212841,34.815977,1,,OK,"locality,political"
484,APPROXIMATE,"Beit Yehoshua, Israel",ChIJu4mNTV4_HRURhNi5Wq5rBeg,בית יהושע,32.262075,34.865418,1,,OK,"locality,political"
485,APPROXIMATE,"Bnei Zion, Israel",ChIJr5ETMZk4HRURDfeIkMl09JA,בני ציון,32.219839,34.868378,1,,OK,"locality,political"
486,APPROXIMATE,"Batzra, Israel",ChIJTb-cT5E4HRUR4k7dgq5mnHc,בצרה,32.214541,34.878123,1,,OK,"locality,political"
487,APPROXIMATE,"Ga'ash, Israel",ChIJf0I8ZhtHHRURf-XKDoPfn64,געש,32.228477,34.824411,1,,OK,"locality,political"
488,GEOMETRIC_CENTER,Israel,ChIJr6j4kGRHHRUR0C37E9ZWnQs,ורדים מוסד חינוכי,32.218787,34.856058,1,,OK,"establishment,point_of_interest"
489,APPROXIMATE,"Harutzim, Israel",ChIJpbwd5KA4HRURP4Ufy4zfzh4,חרוצים,32.22771,34.86477199999999,1,,OK,"locality,political"
490,APPROXIMATE,"Yakum, Israel",ChIJd4p-9EpHHRURLfcDOj3SYn8,יקום,32.249196,34.84190299999999,1,,OK,"locality,political"
491,APPROXIMATE,"Kfar Netter, Israel",ChIJ8xRbCHA_HRURAdMZSYTbqwk,כפר נטר,32.271928,34.871979,1,,OK,"locality,political"
492,GEOMETRIC_CENTER,Israel,ChIJpbwd5KA4HRURH3g9GYKWqkw,קרית שלמה,32.2343696,34.8621579,1,,OK,"establishment,hospital,point_of_interest"
493,,,,אייל,,,0,,ZERO_RESULTS,
494,ROOFTOP,"Gronemann St 11, Tel Aviv-Yafo, Israel",ChIJB8IqNWBJHRURDSZK8wOmAyU,אילנות,32.1065676,34.798928,1,,OK,"establishment,point_of_interest,school"
495,APPROXIMATE,"Beit Berl, Israel",ChIJgTrZfhM5HRURbWuTyKKOtRQ,בית ברל,32.199789,34.926039,1,,OK,"locality,political"
496,APPROXIMATE,"Bnei Dror, Israel",ChIJ884LsBw_HRURDG4oXkYvi4w,בני דרור,32.261795,34.901791,1,,OK,"locality,political"
497,APPROXIMATE,"Geulim, Israel",ChIJbRcTNQI-HRURTapC24dvh7M,גאולים,32.296487,34.943862,1,,OK,"locality,political"
498,APPROXIMATE,"Herut, Israel",ChIJUQt-Tdo-HRURZs79nQZStmU,חרות,32.240973,34.914127,1,,OK,"locality,political"
499,APPROXIMATE,"Tayibe, Israel",ChIJ8SbNFG89HRURx2OUrhtBw3Y,טייבה,32.266892,35.009675,1,,OK,"locality,political"
500,APPROXIMATE,"Tira, Israel",ChIJvV1edqA-HRURCI9I8JDfWuM,טירה,32.235466,34.950506,1,,OK,"locality,political"
501,APPROXIMATE,"Ye'af, Israel",ChIJL_ikY8E9HRUREPF599F2kE8,יעף,32.268254,34.967425,1,,OK,"locality,political"
502,APPROXIMATE,"Kokhav Ya'ir Tzur Yigal, Israel",ChIJASkhr2E8HRURJo34OtDD4H4,כוכב יאיר,32.220922,34.992405,1,,OK,"locality,political"
503,APPROXIMATE,"Kfar Hess, Israel",ChIJX_srRJE-HRURM5rgs_iji3Y,כפר הס,32.247721,34.935137,1,,OK,"locality,political"
504,APPROXIMATE,"Kfar Yavetz, Israel",ChIJW_lgu-k9HRURP5BDCA3o5jE,כפר יעבץ,32.273945,34.965463,1,,OK,"locality,political"
505,APPROXIMATE,"Kfar Avoda, Israel",ChIJ08z7AYY-HRURJLeYK9rBFGM,כפר עבודה,32.255731,34.93966899999999,1,,OK,"locality,political"
506,APPROXIMATE,"Sdei Hemed, Israel",ChIJ87FNrYw5HRURQWL2eEhfljM,שדי חמד,32.158488,34.9428062,1,,OK,"locality,political"
507,APPROXIMATE,Oranit,ChIJydhTXHw6HRURszEbqlqexaQ,אורנית,32.131924,34.99081,1,,OK,"locality,political"
508,APPROXIMATE,"Elishama, Israel",ChIJoQjSbug5HRURjab-QlbQD-U,אלישמע,32.154778,34.930461,1,,OK,"locality,political"
509,APPROXIMATE,"Jaljulia, Israel",ChIJZ_jE1x86HRURlSxvIn-PmpA,ג'לג'וליה,32.1524568,34.9539749,1,,OK,"locality,political"
510,APPROXIMATE,"Ganei Am, Israel",ChIJX11HAoE3HRURAt1_kbJLvgE,גני עם,32.149838,34.903358,1,,OK,"locality,political"
511,APPROXIMATE,"Hod Hasharon, Israel",ChIJZ7bkiCc4HRURpSQrqNrNBR8,הוד השרון,32.149961,34.8838788,1,,OK,"locality,political"
512,APPROXIMATE,Hable,ChIJrZaJAEw6HRURBDHy57FT53k,חבלה,32.163844,34.97828,1,,OK,"locality,political"
513,ROOFTOP,"Haroe St 92, Ramat Gan, Israel",ChIJV1GE7jZKHRURKBdM0LdW608,חגור,32.0805224,34.8253674,1,,OK,"establishment,point_of_interest,store"
514,APPROXIMATE,"Horshim, Israel",ChIJCwXP6Aw6HRUR3FkG2LuBuqc,חורשים,32.137875,34.97102,1,,OK,"locality,political"
515,APPROXIMATE,"Yarhiv, Israel",ChIJfef18BU6HRURAomunxO5sBs,ירחיב,32.151536,34.967992,1,,OK,"locality,political"
516,APPROXIMATE,"Yarkona, Israel",ChIJP96lLoU3HRUR9UyQYbgEQXM,ירקונה,32.144524,34.897882,1,,OK,"locality,political"
517,APPROXIMATE,"Kafr Bara, Israel",ChIJN40cfaAwHRURNbMfmDQn_-Q,כפר ברא,32.130911,34.970108,1,,OK,"locality,political"
518,APPROXIMATE,"Kfar Malal, Israel",ChIJj1ofiDo4HRUReRtRQaATUas,"כפר מל""ל",32.167567,34.894744,1,,OK,"locality,political"
519,APPROXIMATE,"Kafr Qasim, Israel",ChIJt0P2iZUwHRURAnS98h0GfZ0,כפר קאסם,32.114093,34.972767,1,,OK,"locality,political"
520,APPROXIMATE,"Matan, Israel",ChIJ1dbX80c6HRURr2f5wbb9cfk,מתן,32.159377,34.97319,1,,OK,"locality,political"
521,APPROXIMATE,"Neve Yarak, Israel",ChIJ27v-A2k3HRURaXP_TeNpyF4,נווה ירק,32.132729,34.925488,1,,OK,"locality,political"
522,APPROXIMATE,"Nirit, Israel",ChIJWV4x8mc6HRUR-4Vp_nhaquo,נירית,32.146206,34.984822,1,,OK,"locality,political"
523,APPROXIMATE,"Adanim, Israel",ChIJQUPUp3c3HRURU8bLXqFzlLY,עדנים,32.138798,34.909148,1,,OK,"locality,political"
524,APPROXIMATE,"Ramot HaShavim, Israel",ChIJKwDjJhk4HRURvKSrGVIIjm0,רמות השבים,32.16509,34.881543,1,,OK,"locality,political"
525,APPROXIMATE,"Ganei Hadar East, Israel",ChIJe1WNWte3AhUR7S1zIoy9uzk,גני הדר,31.8782413,34.857588,1,,OK,"locality,political"
526,APPROXIMATE,"Ganei Yohanan, Israel",ChIJn-T4LvO3AhURVtIn0KjN73M,גני יוחנן,31.859924,34.840827,1,,OK,"locality,political"
527,APPROXIMATE,"Hulda, Israel",ChIJz3tnUubHAhURCvCP09lf8Ik,חולדה,31.83215,34.881523,1,,OK,"locality,political"
528,APPROXIMATE,"Yad Rambam, Israel",ChIJ-9SS5ZvJAhURLqoqK3x4EV8,"יד רמב""ם",31.899841,34.900086,1,,OK,"locality,political"
529,APPROXIMATE,"Yesodot, Israel",ChIJtWVkj4jHAhURSAS3eLlmAq0,יסודות,31.815835,34.86563599999999,1,,OK,"locality,political"
530,APPROXIMATE,"Yatzitz, Israel",ChIJ7SKK0OG3AhURPz6zjDXTxzs,יציץ,31.863226,34.861903,1,,OK,"locality,political"
531,APPROXIMATE,"Kfar Bilu, Israel",ChIJ4ayYTZq3AhURVlodP-iFMW0,"כפר ביל""ו",31.870475,34.826734,1,,OK,"locality,political"
532,APPROXIMATE,"Kfar Bin Nun, Israel",ChIJE8cYTirJAhURFHeVh0gOjJA,כפר בן נון,31.861679,34.947191,1,,OK,"locality,political"
533,APPROXIMATE,"Kfar Shmuel, Israel",ChIJGV3Wp0bJAhURH1Ji82sW3cY,כפר שמואל,31.888259,34.934819,1,,OK,"locality,political"
534,APPROXIMATE,"Karmei Yosef, Israel",ChIJYXmpzuzIAhURODA-J-TB7Mw,כרמי יוסף,31.848024,34.921347,1,,OK,"locality,political"
535,APPROXIMATE,"Mazkeret Batya, Israel",ChIJD6srcPW3AhURV_icJ0eT6pE,מזכרת בתיה,31.853167,34.842421,1,,OK,"locality,political"
536,,,,"מרכז קניות ביל""ו",,,0,,ZERO_RESULTS,
537,APPROXIMATE,"Mishmar Ayalon, Israel",ChIJw1KruzHJAhUR_SRqdWweq5o,משמר איילון,31.872478,34.943253,1,,OK,"locality,political"
538,APPROXIMATE,"Mishmar David, Israel",ChIJC2dSD87HAhURyySx7tVhMsM,משמר דוד,31.82355799999999,34.900676,1,,OK,"locality,political"
539,APPROXIMATE,"Na'an, Israel",ChIJ49ZmNtS3AhURIoqtsPkmheg,נען,31.883208,34.859237,1,,OK,"locality,political"
540,APPROXIMATE,"Netser Khazani, Israel",ChIJKW7bAIrHAhURc21uOioMETU,נצר חזני,31.8214,34.862554,1,,OK,"locality,political"
541,APPROXIMATE,"Sitria, Israel",ChIJ4RrJWMq3AhURW4EqPoLmE5w,סתריה,31.889854,34.842094,1,,OK,"locality,political"
542,APPROXIMATE,"Azaria, Israel",ChIJqTXhVAvJAhURSCffl1KKywM,עזריה,31.890495,34.911872,1,,OK,"locality,political"
543,APPROXIMATE,"Pedaya, Israel",ChIJeyh6OhXIAhURHMip6ILlT30,פדיה,31.857768,34.883774,1,,OK,"locality,political"
544,APPROXIMATE,"Petahia, Israel",ChIJ9UuktkfIAhURi1EU2M-H0GY,פתחיה,31.866957,34.88687,1,,OK,"locality,political"
545,APPROXIMATE,"Kiryat Ekron, Israel",ChIJDwHxaiq4AhURNLqn5ZfAVGk,קרית עקרון,31.862547,34.8219576,1,,OK,"locality,political"
546,APPROXIMATE,"Ramot Meir, Israel",ChIJVcMtlNu3AhURpJ41hAdwSI4,רמות מאיר,31.874444,34.855208,1,,OK,"locality,political"
547,APPROXIMATE,"Beit Hashmonai, Israel",ChIJ3fHjYW3JAhURmUmbDdXrTFY,בית חשמונאי,31.890298,34.917599,1,,OK,"locality,political"
548,APPROXIMATE,"Beit Uziel, Israel",ChIJQTVQoVXIAhURE4bsx0tcF74,בית עוזיאל,31.87005,34.904858,1,,OK,"locality,political"
549,APPROXIMATE,"Gezer Regional Council, Israel",ChIJuYz6kyPJAhUR_2Yx2qTW2mM,גזר,31.8592289,34.8844867,1,,OK,"administrative_area_level_4,political"
550,APPROXIMATE,"Sde Nehemia, Israel",ChIJlc7bAs28HhURyodA_chAksc,שדה נחמיה,33.188234,35.62307,1,,OK,"locality,political"
551,APPROXIMATE,"Shamir, Israel",ChIJ6clXIK-kHhURzX2XaEGjsFU,שמיר,33.166754,35.659949,1,,OK,"locality,political"
552,APPROXIMATE,"Lehavot HaBashan, Israel",ChIJ29X-9XijHhURrSApe1GggEE,להבות הבשן,33.1412178,35.6478714,1,,OK,"locality,political"
553,APPROXIMATE,"Neot Mordechai, Israel",ChIJpZug4PaiHhURrmSuy2Vg8iQ,נאות מרדכי,33.159785,35.595602,1,,OK,"locality,political"
554,APPROXIMATE,"Amir, Israel",ChIJ2cSbSDCjHhUR62nQxLVS-6c,עמיר,33.17772610000001,35.6198305,1,,OK,"locality,political"
555,APPROXIMATE,"Kfar Szold, Israel",ChIJcRrhxWC7HhURRrforqucBU8,כפר סאלד,33.196035,35.657993,1,,OK,"locality,political"
556,APPROXIMATE,"Kfar Blum, Israel",ChIJ7_YtPeCiHhURvRjedygNPBw,כפר בלום,33.172527,35.607938,1,,OK,"locality,political"
557,APPROXIMATE,"Gonen, Israel",ChIJ9wpPCIyjHhURxBxPxlvTOBQ,גונן,33.1240353,35.6461519,1,,OK,"locality,political"
558,APPROXIMATE,"E-Nabari, Hura, Israel",ChIJzanKP8heAhURfeo163LYrA8,א נבארי,31.282467,34.941101,1,,OK,"political,sublocality,sublocality_level_1"
559,APPROXIMATE,"AlSayid Tribe, Israel",ChIJuyJt5L5eAhUR8xLzhptptKQ,א סייד,31.281719,34.916298,1,,OK,"political,sublocality,sublocality_level_1"
560,APPROXIMATE,"Abu Jaber (South to Meitar), Hura, Israel",ChIJE3NCvSRfAhURd4EuoZeEuKs,אבו ג'אבר דרומית ממיתר,31.312164,34.934897,1,,OK,"political,sublocality,sublocality_level_1"
561,APPROXIMATE,"El-Atauna, Meitar, Israel",ChIJoZ0KOfteAhURahRVcbXZHsY,אל עטאונה,31.302482,34.916719,1,,OK,"political,sublocality,sublocality_level_1"
562,APPROXIMATE,"A'sam, Israel",ChIJO9N_915eAhURMtDdloBmt9s,אעצם,31.295816,34.903102,1,,OK,"political,sublocality,sublocality_level_1"
563,APPROXIMATE,"Hura, Israel",ChIJuer8HtleAhURiJ_m5Rh7NJo,חורה,31.300399,34.935688,1,,OK,"locality,political"
564,GEOMETRIC_CENTER,"Kiryat Anavim, Israel",ChIJk2o3MiDRAhURiEBjwDAPIio,כרמים,31.812108,35.118312,1,,OK,"establishment,lodging,point_of_interest,spa"
565,APPROXIMATE,"Carmit, Israel",ChIJg0iNIqNfAhURIkkSD33eg2w,כרמית,31.332182,34.896813,1,,OK,"locality,political"
566,APPROXIMATE,"Mulada, Israel",ChIJgaITh2hZAhUR7wLoLx5gze0,מולדה,31.261071,34.975564,1,,OK,"political,sublocality,sublocality_level_1"
567,APPROXIMATE,"Meitar, Israel",ChIJywaOwk5fAhURuGooyArkHY8,מיתר,31.327011,34.943213,1,,OK,"locality,political"
568,APPROXIMATE,"Sansana, Israel",ChIJW14CKnr1AhUR_bTDZhxqW5U,סנסנה,31.36176499999999,34.901003,1,,OK,"locality,political"
569,,,,עוקבי,,,0,,ZERO_RESULTS,
570,APPROXIMATE,"Yehiam, Israel",ChIJjVVxl64yHBURFnpS8w6lj8A,יחיעם,32.996109,35.22109100000001,1,,OK,"locality,political"
571,APPROXIMATE,"Manot, Israel",ChIJ_e1b5MLSHRURVqz1KipI4IQ,מנות,33.038709,35.195156,1,,OK,"locality,political"
572,APPROXIMATE,"Neve Ziv, Israel",ChIJsQ6JppHSHRURA_GegO55xNc,נווה זיו,33.027399,35.18433,1,,OK,"locality,political"
573,APPROXIMATE,"Avdon, Israel",ChIJg6_VCfvSHRUR2_aqwKxsoHg,עבדון,33.048792,35.179128,1,,OK,"locality,political"
574,APPROXIMATE,"Ein Ya'akov, Israel",ChIJdVfmLlstHBUR-FUrDn0h8VU,עין יעקב,33.009312,35.229024,1,,OK,"locality,political"
575,APPROXIMATE,"Ga'aton, Israel",ChIJ3wxMx6rSHRURlTxx0vEk6yM,געתון,33.006075,35.213831,1,,OK,"locality,political"
576,APPROXIMATE,"Mesilat Zion, Israel",ChIJAwqVuInPAhURQlZiY-ttmXI,מסילת ציון,31.801449,35.009463,1,,OK,"locality,political"
577,APPROXIMATE,Nuba,ChIJQTqpYN_nAhUR7fDbAifVKZo,נובא,31.607383,35.03913000000001,1,,OK,"locality,political"
578,APPROXIMATE,"Neve Michael, Israel",ChIJmcE3O-XCAhURu8f9xlcPBV0,נווה מיכאל,31.673049,35.00671,1,,OK,"locality,political"
579,APPROXIMATE,"Neve Shalom, Israel",ChIJ56w71WXPAhURtDmECNBsWJA,נווה שלום,31.817427,34.978335,1,,OK,"locality,political"
580,APPROXIMATE,"Naham, Israel",ChIJ_elSnATFAhURKQCQd4FXnbM,נחם,31.7664783,35.0035723,1,,OK,"locality,political"
581,APPROXIMATE,"Nahshon, Israel",ChIJQzl0AUzPAhURVFQFo-uPWE4,נחשון,31.831616,34.955986,1,,OK,"locality,political"
582,APPROXIMATE,"Netiv HaLamed-Heh, Israel",ChIJu1CHbE3CAhUR7TqGxeCO0cU,"נתיב הל""ה",31.687184,34.982523,1,,OK,"locality,political"
583,GEOMETRIC_CENTER,Israel,ChIJZds6Qk7EAhURguz7gMWD46Q,פארק צרעה,31.762482,34.981962,1,,OK,"establishment,point_of_interest"
584,APPROXIMATE,"Tslafon, Israel",ChIJeWG13RTGAhURkhDlTzIkSLI,צלפון,31.805599,34.931797,1,,OK,"locality,political"
585,APPROXIMATE,"Tsor'a, Israel",ChIJ3zkYHDrEAhUR5bRx3QfU0iA,צרעה,31.762653,34.966931,1,,OK,"locality,political"
586,APPROXIMATE,"Rogalit, Neve Michael, Israel",ChIJ301QhfrCAhURh81DJJ3bvww,רוגלית,31.672754,35.003668,1,,OK,"neighborhood,political"
587,APPROXIMATE,Telem,ChIJVaa0eq_oAhURDloxSAGH2hk,תלם,31.563051,35.03124,1,,OK,"locality,political"
588,APPROXIMATE,"Ta'oz, Israel",ChIJg5WyWu3FAhURCw9VyEmDenE,תעוז,31.801288,34.971972,1,,OK,"locality,political"
589,APPROXIMATE,"Tarum, Israel",ChIJg2lvl7vFAhUR1dAvjr0jn1w,תרום,31.783306,34.980238,1,,OK,"locality,political"
590,APPROXIMATE,Tarqumiyah,ChIJMwzpUMboAhURLzTfa88Wkq4,תרקומיא,31.57733,35.014174,1,,OK,"locality,political"
591,APPROXIMATE,al Dayr,ChIJRUloeLjCAhURyCGftwqPmDY,א דיר במערב הר חברון,31.655232,35.025616,1,,OK,"locality,political"
592,APPROXIMATE,"Aviezer, Israel",ChIJpe1mjyHDAhURXxycqTTUPBs,אביעזר,31.681996,35.018821,1,,OK,"locality,political"
593,APPROXIMATE,"Aderet, Israel",ChIJG4WvBmLCAhURpxRSnxFQ1dU,אדרת,31.659715,34.99444,1,,OK,"locality,political"
594,APPROXIMATE,Umm 'Allas,ChIJCfUI317oAhURVUFEGqE7Nyw,אום עלאס,31.602078,35.012471,1,,OK,"locality,political"
595,APPROXIMATE,al-Qilla,ChIJfetFHFDoAhURm9_V-jYUK5Y,אל קילא,31.611646,35.004847,1,,OK,"locality,political"
596,APPROXIMATE,"Eshtaol, Israel",ChIJG3zxtmzFAhURPE4HqQ8LXj8,אשתאול,31.780385,35.010102,1,,OK,"locality,political"
597,APPROXIMATE,Bayt Ula,ChIJTesxFmPoAhUR_CX490j4R6w,בית אולא,31.598422,35.026375,1,,OK,"locality,political"
598,APPROXIMATE,"Beit Jimal, Israel",ChIJL9DQa4zDAhURuky5-zNeJ8Q,בית ג'מאל,31.724542,34.976521,1,,OK,"locality,political"
599,APPROXIMATE,"Bet Shemesh, Israel",ChIJ3_279V3EAhUROO_7ElUqB-A,בית שמש,31.747041,34.988099,1,,OK,"locality,political"
600,APPROXIMATE,"Beko'a, Israel",ChIJT49dP57IAhURtFlC2qyq2A8,בקוע,31.827899,34.924732,1,,OK,"locality,political"
601,APPROXIMATE,"Giv'ot Eden, Israel",ChIJZROLsuvCAhURKpYE_hLu1YQ,גבעות עדן,31.662171,35.013876,1,,OK,"locality,political"
602,APPROXIMATE,"Givat Shemesh, Israel",ChIJtysM_YHGAhURXt_EVr6hhkY,גבעת שמש,31.774189,34.95055,1,,OK,"locality,political"
603,APPROXIMATE,"Gizo, Israel",ChIJnSN3ig3GAhURf19YlU7QlGM,גיזו,31.805585,34.939653,1,,OK,"locality,political"
604,APPROXIMATE,"Deir Rafat, Israel",ChIJz_qIBYHGAhURgkRYvJ0-TbE,דייר ראפאת,31.77652999999999,34.947439,1,,OK,"locality,political"
605,ROOFTOP,"Abba Hillel Silver Rd 3, Ramat Gan, 5211802, Israel",ChIJnRF7XsdLHRUR5stumrpTSww,הראל,32.0838904,34.8030192,1,5211802,OK,"establishment,point_of_interest"
606,APPROXIMATE,"Zano'ah, Israel",ChIJ-UU2pIjEAhURP-Km5OJ1saQ,זנוח,31.733813,34.999369,1,,OK,"locality,political"
607,APPROXIMATE,Kharas,ChIJPz88K-HnAhURQ5rQbB4zdDg,ח'ראס,31.612218,35.044251,1,,OK,"locality,political"
608,APPROXIMATE,"Tal Shahar, Israel",ChIJF299ZrLHAhURBQjZ688w5CA,טל שחר,31.804404,34.903272,1,,OK,"locality,political"
609,APPROXIMATE,"Yish'i, Israel",ChIJNSddmhfEAhUREowmd-Px5Yk,ישעי,31.752969,34.962586,1,,OK,"locality,political"
610,APPROXIMATE,"Kfar Uria, Israel",ChIJJXKPLnHGAhURZc4PuOfeIB0,כפר אוריה,31.793399,34.944757,1,,OK,"locality,political"
611,APPROXIMATE,"Mahseya, Israel",ChIJYWVPtu_EAhURvIhrC4CVPT4,מחסיה,31.748858,35.00726,1,,OK,"locality,political"
612,APPROXIMATE,Latrun,ChIJSa1IvBPPAhURC4BFgKxH4w4,מנזר לטרון,31.832722,34.97981,1,,OK,"locality,political"
613,,,,יפתח,,,0,,ZERO_RESULTS,
614,APPROXIMATE,"Malkia, Israel",ChIJPTsJXlqeHhURSjWhFoKHEw8,מלכיה,33.098589,35.509624,1,,OK,"locality,political"
615,APPROXIMATE,"Merkaz Kah, Israel",ChIJSQkWIfyhHhURQw_lJO3e1RM,"מרכז כ""ח",33.120223,35.56963500000001,1,,OK,"locality,political"
616,APPROXIMATE,"Ramot Naftali, Israel",ChIJv9hewG-fHhURv7Cp1RO9gl4,רמות נפתלי,33.102354,35.553313,1,,OK,"locality,political"
617,APPROXIMATE,"Dishon, Israel",ChIJgS4p6jWeHhURLyp_kZ-Qrck,דישון,33.082318,35.517572,1,,OK,"locality,political"
618,APPROXIMATE,"Hadera, Israel",ChIJuyXRUkISHRURPeSPe4UTvjo,חדרה,32.4340458,34.9196518,1,,OK,"locality,political"
619,APPROXIMATE,"Or Akiva, Israel",ChIJt4_KK0wMHRURCojPQ5J-3z4,אור עקיבא,32.509965,34.920394,1,,OK,"locality,political"
620,APPROXIMATE,"Caesarea, Israel",ChIJA7IQOvgMHRURy83PkxVSxUo,קיסריה,32.519016,34.904544,1,,OK,"locality,political"
621,APPROXIMATE,"Sdot Yam, Israel",ChIJTdsxIm0NHRURFhk2llGwZJw,שדות ים,32.492613,34.89315,1,,OK,"locality,political"
622,APPROXIMATE,"Binyamina-Giv'at Ada, Israel",ChIJA17NbaEOHRURmWwDeLxh30w,בנימינה גבעת עדה,32.517078,34.955096,1,,OK,"locality,political"
623,APPROXIMATE,"Jisr az-Zarqa, Israel",ChIJuYN5Z2MMHRURPnaFy_G1wOw,ג'סר א זרקא,32.536262,34.911569,1,,OK,"locality,political"
624,APPROXIMATE,"Givat Nili, Israel",ChIJC4IOrtUHHRURew4cl1Zy-Qw,"גבעת ניל""י",32.549043,35.041194,1,,OK,"locality,political"
625,APPROXIMATE,"Kfar Glikson, Israel",ChIJad8K_SQPHRUR8-nxF5w4dNE,כפר גליקסון,32.505824,35.00354,1,,OK,"locality,political"
626,APPROXIMATE,"Ma'agan Michael, Israel",ChIJq4pDnJALHRURB_m2NY1iD1I,מעגן מיכאל,32.55871,34.917816,1,,OK,"locality,political"
627,APPROXIMATE,"Amikam, Israel",ChIJJ8_r5GgIHRURO1tUEqizmNA,עמיקם,32.564626,35.020326,1,,OK,"locality,political"
628,APPROXIMATE,"Regavim, Israel",ChIJG6lfraYIHRURN4YZLk2tLPI,רגבים,32.52344,35.033987,1,,OK,"locality,political"
629,APPROXIMATE,"Aviel, Israel",ChIJNVCSCigJHRUROOT4FjzHJRU,אביאל,32.531346,34.993493,1,,OK,"locality,political"
630,APPROXIMATE,"Alonei Yitzhak, Israel",ChIJXayP0S8PHRURZ68kFbP9mSM,אלוני יצחק,32.509997,35.00519999999999,1,,OK,"locality,political"
631,APPROXIMATE,"Beit Hanania, Israel",ChIJwSkE72wMHRURuExTWKI_qgk,בית חנניה,32.529504,34.926734,1,,OK,"locality,political"
632,APPROXIMATE,"Bat Shlomo, Israel",ChIJvYt5ToanHRUR2mJ1bEbeQ1U,בת שלמה,32.600335,35.003837,1,,OK,"locality,political"
633,APPROXIMATE,"Dor, Israel",ChIJ47xF_GsKHRURM-fR-k7O_Qw,דור,32.607802,34.923316,1,,OK,"locality,political"
634,APPROXIMATE,"HaBonim, Israel",ChIJfZTl6b6gHRURiWmgjcRTCX0,הבונים,32.636586,34.932704,1,,OK,"locality,political"
635,APPROXIMATE,"Zikhron Ya'akov, Israel",ChIJQb0k838JHRUR5sbs5Nm1J9s,זכרון יעקב,32.573905,34.951977,1,,OK,"locality,political"
636,APPROXIMATE,"Kerem Maharal, Israel",ChIJc-kE5f6mHRURGSwKUcII7oA,"כרם מהר""ל",32.644325,34.99145,1,,OK,"locality,political"
637,GEOMETRIC_CENTER,"מאיר שפיה, Israel",ChIJsxUxI-oJHRURfsrjykg4Hf4,מאיר שפיה,32.5912213,34.9710703,1,,OK,"establishment,point_of_interest,school"
638,APPROXIMATE,"Ma'ayan Tzvi, Israel",ChIJma9iDtALHRURILWYSE2xIXU,מעיין צבי,32.568484,34.940623,1,,OK,"locality,political"
639,APPROXIMATE,"Merkaz Meirav, Israel",ChIJPRlfUyanHRUR_qiEAgFq6E8,"מרכז מיר""ב",32.64726,34.964089,1,,OK,"locality,political"
640,APPROXIMATE,"Nahsholim, Israel",ChIJGb8IG24KHRURY5vbfsRNIIo,נחשולים,32.61309,34.92225,1,,OK,"locality,political"
641,APPROXIMATE,"Ofer, Israel",ChIJPcvqfG2nHRURg9LWKi3IFaw,עופר,32.621882,34.983472,1,,OK,"locality,political"
642,APPROXIMATE,"Ein Ayala, Israel",ChIJD_tMaLGgHRURa3reHKQ32bM,עין איילה,32.629963,34.944296,1,,OK,"locality,political"
643,APPROXIMATE,"Fureidis, Israel",ChIJR4CZl_UJHRURkK7fyvHteQc,פוריידיס,32.597351,34.951899,1,,OK,"locality,political"
644,APPROXIMATE,"Tzrufa, Israel",ChIJQbR1NdKgHRURZRZuPzOA4RU,צרופה,32.647822,34.946455,1,,OK,"locality,political"
645,APPROXIMATE,"Beit Oren, Israel",ChIJj28OXRelHRUR_9P0nBXjk-M,בית אורן,32.731601,35.00632,1,,OK,"locality,political"
646,GEOMETRIC_CENTER,Israel,ChIJS4wFJg2lHRURL5xV74HObOc,גבעת וולפסון,32.72022,35.016055,1,,OK,"establishment,point_of_interest"
647,APPROXIMATE,"Daliyat al-Karmel, Israel",ChIJNQtx4HOvHRURExfHRc_irzg,דאלית אל כרמל,32.693796,35.055447,1,,OK,"locality,political"
648,APPROXIMATE,"Isfiya, Israel",ChIJ6ctT8eqvHRURBz_DkYib61E,עספיא,32.720737,35.059087,1,,OK,"locality,political"
649,ROOFTOP,"Shu'alei Shimshon St 2, Ramat Gan, 5238602, Israel",ChIJFbxXhjVKHRURogJ_zZbd2NY,בית צבי,32.0784145,34.8217109,1,5238602,OK,"establishment,point_of_interest,university"
650,APPROXIMATE,"Geva Carmel, Israel",ChIJO-5kZdKmHRURg-pr_gsuEzA,גבע כרמל,32.662163,34.954078,1,,OK,"locality,political"
651,GEOMETRIC_CENTER,Israel,ChIJGQR39jWkHRUR_hKekXWQN5U,ימין אורד,32.7016285,34.9898458,2,,OK,"establishment,point_of_interest,school"
652,APPROXIMATE,"Megadim, Israel",ChIJ2xjLJ32kHRUR6KrAKZbLMZU,מגדים,32.727734,34.960923,1,,OK,"locality,political"
653,APPROXIMATE,"Neve Yam, Israel",ChIJ6w-gfT-hHRURNyBUcIK3TJk,נווה ים,32.679769,34.93188,1,,OK,"locality,political"
654,APPROXIMATE,"Nir Etzion, Israel",ChIJG7FVcjWkHRURAdwcLgamr_4,ניר עציון,32.699125,34.992526,1,,OK,"locality,political"
655,APPROXIMATE,"Ein Hod, Israel",ChIJddBLzzmkHRURkMOC5V8NBjc,עין הוד,32.700292,34.982716,1,,OK,"locality,political"
656,APPROXIMATE,"Ein Hawd, Israel",ChIJnd_MOcylHRURdeGyu-I6Xyw,עין חוד,32.691361,34.999058,1,,OK,"locality,political"
657,APPROXIMATE,"Ein Carmel, Israel",ChIJF4GigLOmHRURhn-IC5dsXcY,עין כרמל,32.677912,34.953676,1,,OK,"locality,political"
658,APPROXIMATE,"Atlit, Israel",ChIJJZV9LlGhHRURUyiKM6eBGjQ,עתלית,32.690875,34.942914,1,,OK,"locality,political"
659,APPROXIMATE,"Shekef, Israel",ChIJr1BCru_tAhURvhmWTpPCMFY,שקף,31.51489,34.937318,1,,OK,"locality,political"
660,APPROXIMATE,Al Bira,ChIJ0dq2cI3zAhUR2CNPEYQmPuc,אל בירה בהר חברון,31.4361213,34.9256527,1,,OK,"locality,political"
661,APPROXIMATE,"Amatzia, Israel",ChIJD5czZ6LtAhURK2SzSRidLUM,אמציה,31.531176,34.914463,1,,OK,"locality,political"
662,APPROXIMATE,Eshkolot,ChIJ-UWMQwD1AhUR7dgxQgIttdA,אשכולות,31.391171,34.904856,1,,OK,"locality,political"
663,APPROXIMATE,"Lynchburg, VA, USA",ChIJAQQykHjZsokRYeIgyF7ztsM,בורג',37.4137536,-79.14224639999999,2,,OK,"locality,political"
664,APPROXIMATE,Bayt al-Rosh al-Fawqa,ChIJc_wl57jzAhURNSeDNtn-4gw,בית א רוש אל פוקא,31.452678,34.926241,1,,OK,"locality,political"
665,APPROXIMATE,"Bayt Mirsim, Israel",ChIJ3c5A2KPzAhURgef65CUcctg,בית מירסים,31.453869,34.91217,1,,OK,"locality,political"
666,APPROXIMATE,"Bnei Dkalim, Israel",ChIJn4b4eoXtAhUR3CTHWaUctcI,בני דקלים,31.517188,34.917033,1,,OK,"locality,political"
667,APPROXIMATE,"Eliav, Israel",ChIJXeQDV7_tAhUR0wDVhyVoNdc,כרם עמי,31.530203,34.928414,1,,OK,"locality,political"
668,APPROXIMATE,"Karmei Katif, Israel",ChIJbVuKgqbtAhUR1TduLtD1q4c,כרמי קטיף,31.537825,34.911993,1,,OK,"locality,political"
669,APPROXIMATE,"Neta, Israel",ChIJE5IDm0fyAhUR0vcsoR3B8Cs,נטע,31.477893,34.927774,1,,OK,"locality,political"
670,APPROXIMATE,"Shomria, Israel",ChIJfW_3e6L0AhURwArnpNwErHE,שומריה,31.432154,34.88409499999999,1,,OK,"locality,political"
671,APPROXIMATE,"Sdot Micha, Israel",ChIJ39Z_GxHBAhUR9eYTLwvZy9s,שדות מיכה,31.721354,34.920683,1,,OK,"locality,political"
672,APPROXIMATE,"Srigim-Li On, Israel",ChIJw1tDp-7BAhURP43lRM1OYAY,שריגים,31.678567,34.93509,1,,OK,"locality,political"
673,APPROXIMATE,"Tirosh, Israel",ChIJUz2PQMjAAhURcxpkkKLn9ss,תירוש,31.750347,34.885915,1,,OK,"locality,political"
674,APPROXIMATE,"Givat Yeshayahu, Israel",ChIJq7PTl_DBAhURY3ckbuNd1HQ,גבעת ישעיהו,31.67168,34.943738,1,,OK,"locality,political"
675,APPROXIMATE,"Gefen, Israel",ChIJq-kzBJbAAhUR5wKQdeGWEuI,גפן,31.740766,34.878563,1,,OK,"locality,political"
676,APPROXIMATE,"Zekharia, Israel",ChIJU_7sZHvBAhURuYs4oVaYNKA,זכריה,31.708812,34.944708,1,,OK,"locality,political"
677,APPROXIMATE,"Kfar Zoharim, Israel",ChIJPQdXNLTrAhURjUxe_1Q_K9g,כפר זוהרים,31.622631,34.925669,1,,OK,"locality,political"
678,APPROXIMATE,"Luzit, Israel",ChIJ749OMyPAAhURNxPkhTkEmFE,לוזית,31.688209,34.888222,1,,OK,"locality,political"
679,APPROXIMATE,"Nehusha, Israel",ChIJvRliZYjpAhURJMARP11Ya5c,נחושה,31.628848,34.952732,1,,OK,"locality,political"
680,APPROXIMATE,"Agur, Israel",ChIJc5ma2LPBAhURrmvqUw6ntxI,עגור,31.697475,34.912024,1,,OK,"locality,political"
681,APPROXIMATE,"Tzafririm, Israel",ChIJaRSuRwfqAhUR2SCUn9XN9MY,צפרירים,31.659618,34.944326,1,,OK,"locality,political"
682,,,,א שייח' אחמד,,,0,,ZERO_RESULTS,
683,APPROXIMATE,Abu Salman,ChIJawJibYs6HRUR_Sci5eQsaos,אבו סלמאן,32.140361,34.998989,1,,OK,"locality,political"
684,APPROXIMATE,al-Mudawwar,ChIJTawiWek6HRURwjOs8cGql2g,אל מודוור,32.143218,35.01222600000001,1,,OK,"locality,political"
685,APPROXIMATE,Alfei Menashe,ChIJTfwCQxY7HRURuqLDB0RXTQU,אלפי מנשה,32.170631,35.014858,1,,OK,"locality,political"
686,APPROXIMATE,Elkana,ChIJzW69PwcwHRURDzHvoJ9avRc,אלקנה,32.110566,35.032054,1,,OK,"locality,political"
687,APPROXIMATE,Biddya,ChIJwxCOCXQlHRURGWPuMZNEedw,בידיה,32.113366,35.077465,1,,OK,"locality,political"
688,APPROXIMATE,Bayt Amin,ChIJQa4Ezr46HRURI6eCEfGFqx0,בית אמין,32.131863,35.021907,1,,OK,"locality,political"
689,APPROXIMATE,Jinsafut,ChIJTVWGhGAhHRURbpvYo2bTqhk,ג'ינסאפוט,32.180632,35.130154,1,,OK,"locality,political"
690,APPROXIMATE,Deir Istiya,ChIJyZxJ5JAmHRURlzPiwn9stUY,דיר איסתיא,32.130762,35.140136,1,,OK,"locality,political"
691,APPROXIMATE,Khirbat al-Nabi Elias,ChIJ-ZcfMGg7HRURpfqcl6rGy3Q,ח'ירבת א נבי אליאס,32.184632,35.016089,1,,OK,"locality,political"
692,APPROXIMATE,Khirbat al-Ashqar,ChIJL3lhe8E6HRURBeoL8hi2tR0,ח'ירבת אל אשקר,32.140211,35.020122,1,,OK,"locality,political"
693,APPROXIMATE,Khirbat Asale,ChIJq2Ag-kk7HRURw141x1K-dPw,ח'ירבת עסלה,32.17183,35.032959,1,,OK,"locality,political"
694,APPROXIMATE,Khirbat Ras al-Tira,ChIJL977ORw7HRURd135Pd7hbLA,ח'ירבת ראס א טירה,32.161714,35.010221,1,,OK,"locality,political"
695,APPROXIMATE,Ras Atiya,ChIJlYJ3j1Y6HRURPldJWNRxePY,ח'ירבת ראס עטיה,32.158854,34.991489,1,,OK,"locality,political"
696,APPROXIMATE,Yakir,ChIJB2Z6SBckHRUROO6tcU8mD6I,יקיר,32.149831,35.114631,1,,OK,"locality,political"
697,APPROXIMATE,Kafr Laqif,ChIJF3BP0IQjHRURgGE44NIYrbE,כפר לאקף,32.182406,35.090541,1,,OK,"locality,political"
698,APPROXIMATE,Kafr Thulth,ChIJ1yqnTtEkHRUR8tWL90s7pUM,כפר ת'ולת,32.152799,35.04529,1,,OK,"locality,political"
699,APPROXIMATE,Mas'ha,ChIJE0REPlglHRUR3jTYdyri3oU,מסחה,32.107264,35.050974,1,,OK,"locality,political"
700,APPROXIMATE,Ma'ale Shomron,ChIJj9CHmpEkHRUR16y8uVYrUdo,מעלה שומרון,32.165406,35.069744,1,,OK,"locality,political"
701,APPROXIMATE,Nofim,ChIJXfgvBGwkHRURwxelDaqNVGg,נופים,32.155458,35.09984,1,,OK,"locality,political"
702,APPROXIMATE,Saniriya,ChIJhQNcqTclHRURx630id3eDAo,סניריא,32.129167,35.047442,1,,OK,"locality,political"
703,APPROXIMATE,Sarta,ChIJ3RIYzpolHRURHRjOzK6PSAo,סרטא,32.103335,35.091838,1,,OK,"locality,political"
704,APPROXIMATE,Azzun,ChIJFWDxj6MkHRURELumjty0FQM,עזון,32.177101,35.055957,1,,OK,"locality,political"
705,APPROXIMATE,Azun Atme,ChIJ63X79aI6HRURgwcaEuD_Iss,עזון עתמה,32.123667,35.018481,1,,OK,"locality,political"
706,APPROXIMATE,Immanuel,ChIJEXIw8VIhHRURW_qxgxkIG1U,עמנואל,32.160688,35.136036,1,,OK,"locality,political"
707,APPROXIMATE,Ets Efraim,ChIJ_w90Wk4lHRURugs3i2A4Jtc,עץ אפרים,32.119403,35.046367,1,,OK,"locality,political"
708,APPROXIMATE,Zufim,ChIJX8U8XGI7HRURCtULdyH8wkQ,צופין,32.197318,35.008912,1,,OK,"locality,political"
709,APPROXIMATE,Qalqilya,ChIJDTLnSJA7HRURB9zZ5ROM0I4,קלקיליה,32.196015,34.981513,1,,OK,"locality,political"
710,APPROXIMATE,Qarawat Bani Hassan,ChIJd1aogrQlHRUR0te4OGJOj1Y,קראות בני חסן,32.128505,35.099378,1,,OK,"locality,political"
711,APPROXIMATE,Karnei Shomron,ChIJ7XmqxYkjHRURsInfr6xw34E,קרני שומרון,32.171553,35.097462,1,,OK,"locality,political"
712,APPROXIMATE,Sha'arei Tikva,ChIJu52QnKU6HRURZV_qdtLybXQ,שערי תקווה,32.120679,35.026998,1,,OK,"locality,political"
713,APPROXIMATE,"Gan Haim, Israel",ChIJoSbk-wE5HRURN9YUHH5UXtA,גן חיים,32.195761,34.906957,1,,OK,"locality,political"
714,APPROXIMATE,"Kefar Sava, Israel",ChIJX5VRIbM5HRURajf6VPPFUI4,כפר סבא,32.178195,34.90761,1,,OK,"locality,political"
715,APPROXIMATE,"Neve Yamin, Israel",ChIJ_35Hspo5HRURg0bksSeAyqA,נווה ימין,32.171692,34.939378,1,,OK,"locality,political"
716,APPROXIMATE,"Tzofit, Israel",ChIJGcNHrA85HRURPlZ8b0zcU4c,צופית,32.19488,34.920085,1,,OK,"locality,political"
717,APPROXIMATE,"Eilot, Israel",ChIJy7uiSm1uABUR0-px_lXxMOc,אילות,29.580548,34.963023,1,,OK,"locality,political"
718,APPROXIMATE,"Eilat, Israel",ChIJC155JONxABUR2_Z3VfiVHf4,אילת,29.557669,34.951925,1,,OK,"locality,political"
719,APPROXIMATE,Alei Zahav,ChIJsXLT0LkvHRURORe-kzT06nc,עלי זהב,32.072227,35.064135,1,,OK,"locality,political"
720,APPROXIMATE,Pedu'el,ChIJ_RmosjMuHRURza2-nKqnhCU,פדואל,32.062479,35.052619,1,,OK,"locality,political"
721,APPROXIMATE,Rafat,ChIJbzJsEdovHRURY1-bnxoSOk4,ראפאת ליד פדואל,32.078686,35.045287,1,,OK,"locality,political"
722,APPROXIMATE,Rantis,ChIJDUlO5hgyHRURiBo0pnSbWi4,רנתיס,32.029973,35.018973,1,,OK,"locality,political"
723,,,,ג'ילג'יליא,,,0,,ZERO_RESULTS,
724,APPROXIMATE,Dayr al-Sudan,ChIJs2b0Yh8pHRURTwaqTfuh--0,דיר א סודאן,32.031883,35.148975,1,,OK,"locality,political"
725,APPROXIMATE,Deir Abu Masha'al,ChIJ08tfNJUtHRURfTP9_mT9wf4,דיר אבו משעל,32.004214,35.0598856,1,,OK,"locality,political"
726,APPROXIMATE,Deir Nidham,ChIJE-S_8hwsHRURebE8gN34vi4,דיר ניזאם,32.002823,35.113728,1,,OK,"locality,political"
727,APPROXIMATE,Dayr Ghasana,ChIJx8cE9eMuHRURO3M2lzWCmfs,דיר ע'סאנה,32.046374,35.098124,1,,OK,"locality,political"
728,APPROXIMATE,Khirbat Qeis,ChIJowidH3koHRURX1hdTbgnSno,ח'ירבת קיס,32.063147,35.177798,1,,OK,"locality,political"
729,APPROXIMATE,Halamish,ChIJPdzDEVMpHRURoG2Z1Mfuyeg,חלמיש,32.008313,35.128876,1,,OK,"locality,political"
730,APPROXIMATE,Yasuf,ChIJ8UmkH8HYHBURqN9eEbmgM_c,יאסוף,32.109371,35.239715,1,,OK,"locality,political"
731,APPROXIMATE,Kaubar,ChIJpTWRStgrHRUR4q6cE4wZQJg,כובר,31.989948,35.158443,1,,OK,"locality,political"
732,APPROXIMATE,Kufr al-Dik,ChIJUeFPrqcvHRURAVFUNMekJNA,כפר א דיכ,32.068694,35.080583,1,,OK,"locality,political"
733,APPROXIMATE,Kafr Ein,ChIJuW7WViovHRURNDWf0Xeau5I,כפר עין,32.045124,35.123807,1,,OK,"locality,political"
734,APPROXIMATE,Kfar Tapuach,ChIJHednJdLYHBURTDueAqfEsys,כפר תפוח,32.117973,35.249829,1,,OK,"locality,political"
735,APPROXIMATE,Luban e-Sharkiya,ChIJdX6Q-UPYHBURigHBSyyr9g8,לובאן שרקיה,32.070745,35.242027,1,,OK,"locality,political"
736,,,,מזאריע א נובאני,,,0,,ZERO_RESULTS,
737,APPROXIMATE,Ma'ale Levona,ChIJmXdh4iLYHBURHYHihkOY0go,מעלה לבונה,32.054436,35.239503,1,,OK,"locality,political"
738,APPROXIMATE,Nabi Saleh,ChIJW0c5D7MuHRURIYqOeXMmkfM,נבי סאלח,32.016219,35.12453,1,,OK,"locality,political"
739,APPROXIMATE,As-Sawiya,ChIJLcpbd_7YHBURdQKtaFrYtH0,סאוויה,32.085165,35.256761,1,,OK,"locality,political"
740,APPROXIMATE,Sinjil,ChIJPVCArH7XHBURZc_V_XEIOYY,סינג'יל,32.033607,35.263935,1,,OK,"locality,political"
741,APPROXIMATE,Aboud,ChIJT3XHdtktHRURRV-g79LVPyM,עאבוד,32.016539,35.06880700000001,1,,OK,"locality,political"
742,APPROXIMATE,Abwein,ChIJP2vdVTooHRURUHdMKiW3coc,עבווין,32.030795,35.201015,1,,OK,"locality,political"
743,APPROXIMATE,Ajul,ChIJWQK7DK0pHRURcPTUbsWj_K8,עג'ול,32.023036,35.180439,1,,OK,"locality,political"
744,APPROXIMATE,Birzeit,ChIJV870LBkqHRURtX2cz4hPtyc,עטארה ליד ביר זית,31.975314,35.196042,1,,OK,"locality,political"
745,APPROXIMATE,Ateret,ChIJIwHd_JspHRURLKF-LvHSnCE,עטרת,32.001207,35.176982,1,,OK,"locality,political"
746,APPROXIMATE,Amuriya,ChIJ5RDzlPknHRURhbBD7QZ3r2E,עמוריה,32.063983,35.210473,1,,OK,"locality,political"
747,APPROXIMATE,Bani Zeid al-Sharqiya,ChIJBePpHlkoHRURd_XMwlP-jVI,ערורה,32.040709,35.17387799999999,1,,OK,"locality,political"
748,APPROXIMATE,Qarawat Bani Zeid,ChIJn77hnzIvHRURIKZGy12KSPg,קראות בני זיד,32.052539,35.125431,1,,OK,"locality,political"
749,APPROXIMATE,Al-Lubban Al-Gharbi,ChIJGV1B-v0xHRURytJTWMTXF3s,א לובאן,32.035776,35.038365,1,,OK,"locality,political"
750,APPROXIMATE,Beit Aryeh-Ofarim,ChIJs6g1cRouHRUR3VsB3DaFYIw,בית אריה,32.040059,35.049472,1,,OK,"locality,political"
751,APPROXIMATE,Bruchin,ChIJv1kW_28vHRURbhiXgnRs92E,ברוכין,32.082231,35.094113,1,,OK,"locality,political"
752,APPROXIMATE,Dayr Balut,ChIJiYm1m88xHRURRFHlK_r1voA,דיר בלוט,32.065033,35.025549,1,,OK,"locality,political"
753,APPROXIMATE,Zawiya,ChIJO1mc-OEvHRURU9ftpnr5-Y0,זאוויה,32.094671,35.039276,1,,OK,"locality,political"
754,GEOMETRIC_CENTER,"Ofarim St, Eilat, Israel",ChIJi04_tfhxABURXZgDsV1ZuPY,עופרים,29.5583509,34.9515753,2,,OK,route
755,APPROXIMATE,Shuqba,ChIJR92m6H8tHRURKeTZSdv9WT0,שוקבא,31.98908299999999,35.039516,1,,OK,"locality,political"
756,APPROXIMATE,Umm Safa,ChIJOUx5oXQpHRURQUHvTDCVSJg,אום ספא,32.008869,35.165696,1,,OK,"locality,political"
757,APPROXIMATE,Iskaka,ChIJX9kXi5rYHBURy9o7l7j3pTs,איסכאכא,32.102921,35.224549,1,,OK,"locality,political"
758,,,,בורהאם,,,0,,ZERO_RESULTS,
759,APPROXIMATE,Bruqin,ChIJceFIkWwvHRURuYo5hJ6Jo_A,בורוקין,32.072613,35.098406,1,,OK,"locality,political"
760,APPROXIMATE,Bayt Rima,ChIJWaX9XuouHRURMDODKzbpS70,בית רימא,32.032333,35.103293,1,,OK,"locality,political"
761,APPROXIMATE,Jibya,ChIJParbQnspHRUR3TeJJbvt1pI,ג'יביא,31.99713999999999,35.161111,1,,OK,"locality,political"
762,ROOFTOP,"Ahad Ha'Am St 14, Tel Aviv-Yafo, Israel",ChIJZx4mmJxMHRURIGnpTiymfs4,פסגות,32.0634977,34.7694418,2,,OK,"establishment,finance,point_of_interest"
763,APPROXIMATE,Qibya,ChIJpaU-deoyHRURWLxWw1jzBWg,קיביא,31.97868099999999,35.012721,1,,OK,"locality,political"
764,APPROXIMATE,Qalandiya,ChIJSSTiZ3nVAhURKRH4jKrj5n4,קלנדיה,31.861597,35.207914,1,,OK,"locality,political"
765,APPROXIMATE,Ras Karkar,ChIJE2hLcccsHRURRqvIjql5oMk,ראס כרכר,31.942694,35.103905,1,,OK,"locality,political"
766,APPROXIMATE,Giv'at Ze'ev,ChIJ96gDaVLUAhURaK2OU1S8VJw,ראפאת ליד גבעת זאב,31.861189,35.167252,2,,OK,"locality,political"
767,APPROXIMATE,Ramallah,ChIJ0Vgt2kzVAhURdiyLzBdNbb8,רמאללה,31.9037641,35.2034184,1,,OK,"locality,political"
768,APPROXIMATE,Shabtin,ChIJF3UonW8tHRURxqWBofKoSm0,שבתין,31.974291,35.050558,1,,OK,"locality,political"
769,APPROXIMATE,Ein Qiniyye,ChIJnQlh7Pq5HhURKiS1_Ouk9tM,עין קיניא,33.2366802,35.7313062,1,,OK,"locality,political"
770,GEOMETRIC_CENTER,"Ein Eyov Waterfall, Capernaum, Israel",ChIJXYBjdPYXHBUROensq_4827I,עין איוב,32.872285,35.5524399,1,,OK,"establishment,natural_feature,park,point_of_interest"
771,APPROXIMATE,Ein Yabrud,ChIJ45bU2c_VHBURXKr22z3abIo,עין יברוד,31.953259,35.249852,1,,OK,"locality,political"
772,APPROXIMATE,Ein Sinya,ChIJ1UYUUAjWHBUR7sXvUXPQJ58,עין סיניא,31.972239,35.227966,1,,OK,"locality,political"
773,APPROXIMATE,Ein Arik,ChIJV8D5A7rUAhURg1kGLd_9-sY,עין עריכ,31.907267,35.14305,1,,OK,"locality,political"
774,APPROXIMATE,Na'ale,ChIJn8J95BUtHRURkCxuugu1i9E,נעלה,31.962594,35.065976,1,,OK,"locality,political"
775,APPROXIMATE,Surda,ChIJKYKoMGMqHRURpIAr4SYoCv8,סורדה,31.941752,35.20318,1,,OK,"locality,political"
776,ROOFTOP,"Hotel, 45 Seventh Street, Garden City, NY 11530, USA",ChIJi6d3FTh9wokRIv4-CPe9zsY,ספא,40.724537,-73.6406037,1,11530,OK,"beauty_salon,establishment,hair_care,health,lodging,point_of_interest,spa"
777,APPROXIMATE,Kokhav Ya'akov,ChIJVRU6sc4qAxURtbZqCA8gr0w,כוכב יעקב,31.880152,35.242773,1,,OK,"locality,political"
778,APPROXIMATE,Kafr Ni'ma,ChIJa7KZ_jDTAhUR4Imac41NqKw,כפר ניעמה,31.924437,35.09692500000001,1,,OK,"locality,political"
779,APPROXIMATE,Kafr 'Aqab,ChIJ09J1SJkqAxURtkL9iucZsy8,כפר עקב,31.87195629999999,35.2269353,1,,OK,"locality,political"
780,APPROXIMATE,Mazra'a al-Qibliya,ChIJ5-NzEQsrHRUR_YmGEJu1Ryk,מזרעה אל קיבליה,31.951601,35.150742,1,,OK,"locality,political"
781,APPROXIMATE,Nahliel,ChIJf1tnLJIrHRURsCakIwsrhkU,נחליאל,31.973542,35.140431,1,,OK,"locality,political"
782,APPROXIMATE,Nili,ChIJH32MiFwtHRURoxS1sBVZ0C4,"ניל""י",31.963415,35.04727,1,,OK,"locality,political"
783,APPROXIMATE,Dayr Qadis,ChIJ3W0RTVMtHRURMVTjLJxVh2A,דיר קדיס,31.948562,35.045121,1,,OK,"locality,political"
784,APPROXIMATE,Khirbat Ras al-Tira,ChIJL977ORw7HRURd135Pd7hbLA,ח'ירבת א טירה,32.161714,35.010221,1,,OK,"locality,political"
785,APPROXIMATE,Kharbatha al-Misbah,ChIJ4yHvVE_SAhUR3zHK9F6177c,ח'ירבת אל מיסבאח,31.885266,35.072073,1,,OK,"locality,political"
786,APPROXIMATE,Kharbatha Bani Harith,ChIJx2VQBS4tHRUR0kUiRlLJnlg,ח'ירבתא,31.945399,35.072502,1,,OK,"locality,political"
787,APPROXIMATE,Beit Horon,ChIJawlzIIHTAhURdBKcLCKFDhM,טירה ליד בית חורון,31.87989,35.124097,1,,OK,"locality,political"
788,APPROXIMATE,Talmon,ChIJ8Utp6F0rHRURUIj--CwvyMY,טלמון,31.93947499999999,35.133131,1,,OK,"locality,political"
789,APPROXIMATE,Yabrud,ChIJQxFmIG7WHBURlQeycku4Wqc,יברוד,31.975287,35.243822,1,,OK,"locality,political"
790,APPROXIMATE,Jalazone,ChIJMVIYtnUqHRUROy0wQ-oXLxQ,ג'לזון,31.951612,35.212517,1,,OK,"locality,political"
791,,,,ג'מאלא,,,0,,ZERO_RESULTS,
792,APPROXIMATE,Jifna,ChIJj6pp4ffVHBURsyX5Ul6m8QE,ג'פנא,31.963463,35.215092,1,,OK,"locality,political"
793,APPROXIMATE,Giv'at Asaf,ChIJW8W2-xrVHBURx5-AWgl4kVg,גבעת אסף,31.911475,35.250072,2,,OK,"bus_station,establishment,point_of_interest,transit_station"
794,APPROXIMATE,Dolev,ChIJ86jhQlErHRUR3gkuw3_PY9g,דולב,31.926249,35.133591,1,,OK,"locality,political"
795,APPROXIMATE,Dura el-Kari'a,ChIJo7-zKu7VHBURu_3aRPPTMC0,דורא אל קריע,31.958519,35.225893,1,,OK,"locality,political"
796,APPROXIMATE,Dayr Ibzi',ChIJvRdXxlDTAhURqWZMiW73wa0,דיר איבזיע,31.916154,35.120532,1,,OK,"locality,political"
797,APPROXIMATE,Deir 'Ammar,ChIJBxiSG_QsHRURSIW_ffnoxQQ,דיר עמאר,31.966931,35.09976,1,,OK,"locality,political"
798,APPROXIMATE,Baytillu,ChIJL40oim8sHRUR3WlK4HaIvOQ,ביתילו,31.976599,35.114167,1,,OK,"locality,political"
799,APPROXIMATE,Baytin,ChIJPSJotQrVHBUR9yucMecxN7s,ביתין,31.926481,35.236911,1,,OK,"locality,political"
800,APPROXIMATE,Janiya,ChIJIxsb1aYsHRURS-lip6xoGVY,ג'אניה,31.938419,35.123984,1,,OK,"locality,political"
801,GEOMETRIC_CENTER,"Geva St, Jerusalem, Israel",ChIJ_QcgcCnWAhURdgrVBQP6nv8,ג'בע מצפון לירושלים,31.782108,35.211413,2,,OK,route
802,APPROXIMATE,Bayt Duqu,ChIJacjACwvUAhUR0gYZsNQDJXM,בית דוקו,31.859417,35.130739,1,,OK,"locality,political"
803,APPROXIMATE,Beit Horon,ChIJawlzIIHTAhURdBKcLCKFDhM,בית חורון,31.87989,35.124097,1,,OK,"locality,political"
804,APPROXIMATE,Bayt Liqya,ChIJ8WaRdSPSAhURHEaC5ZqajUQ,בית ליקיא,31.869937,35.065202,1,,OK,"locality,political"
805,APPROXIMATE,Bayt Sira,ChIJ5ZrnvQzSAhURvvVEET0T7TA,בית סירא,31.88743,35.04532,1,,OK,"locality,political"
806,APPROXIMATE,Beit Ur al-Tahta,ChIJHbqtuKrTAhURwLsgyoMTfoA,בית ע'ור א תחתא,31.895181,35.083874,1,,OK,"locality,political"
807,APPROXIMATE,Beit Ur al-Fauqa,ChIJ5eueaJ3TAhURrIVNVpAVQkU,בית ע'ור אל פוקא,31.886181,35.114256,1,,OK,"locality,political"
808,APPROXIMATE,Beitunia,ChIJueiM4d_UAhURrUMzt8YAvak,ביתוניא,31.889281,35.169813,1,,OK,"locality,political"
809,,,,אבו שח'ידם,,,0,,ZERO_RESULTS,
810,APPROXIMATE,Al-Bireh,ChIJkS-til3VHBURpJMoXYMfB5Q,אל בירה,31.912563,35.221717,1,,OK,"locality,political"
811,APPROXIMATE,Burqa,ChIJY8dheOAdHRURxZ9pHaO4arM,בורקה,32.301365,35.192933,1,,OK,"locality,political"
812,APPROXIMATE,Bil'in,ChIJk08uO8XSAhUR7dApWMK9V4E,בילעין,31.92851599999999,35.070954,1,,OK,"locality,political"
813,APPROXIMATE,Birzeit,ChIJV870LBkqHRURtX2cz4hPtyc,ביר זית,31.975314,35.196042,1,,OK,"locality,political"
814,APPROXIMATE,Beit 'Anan,ChIJ4zp7x-PTAhURgGBMFWNw-mc,בית איענאן,31.851065,35.111719,1,,OK,"locality,political"
815,APPROXIMATE,Beit El,ChIJpfssYIXVHBURTn3MbVjJysI,בית אל,31.94159999999999,35.222734,1,,OK,"locality,political"
816,APPROXIMATE,Al-Ram,ChIJgzhGeIoqAxUR5YRDPaMDVD0,א ראם,31.849252,35.233489,1,,OK,"locality,political"
817,APPROXIMATE,Abu Qash,ChIJz-yetFsqHRURQ_Hjexey9cA,אבו קש,31.950733,35.184719,1,,OK,"locality,political"
818,APPROXIMATE,Budrus,ChIJAawMZiozHRURe2Bl8s-ORRc,בודרוס,31.967678,34.993693,1,,OK,"locality,political"
819,APPROXIMATE,"Gimzo, Israel",ChIJZUmabI7LAhURxZfVJyCKjeA,גמזו,31.927217,34.941128,1,,OK,"locality,political"
820,APPROXIMATE,Hashmona'im,ChIJ2wSxdmnNAhUReLlVw-ZvFC0,חשמונאים,31.93263099999999,35.023269,1,,OK,"locality,political"
821,APPROXIMATE,"Kfar Daniel, Israel",ChIJKdy_ZZfLAhUR-KZlPBH6_4k,כפר דניאל,31.933521,34.932306,1,,OK,"locality,political"
822,APPROXIMATE,"Kfar Ha-Oranim, Israel",ChIJhx55PX3NAhURQrYgNKEvoKE,כפר הארנים,31.919928,35.036911,1,,OK,"locality,political"
823,APPROXIMATE,Kfar Rut,ChIJ8aYWuIHNAhURMUi-v3N2x8A,כפר רות,31.910378,35.035309,1,,OK,"locality,political"
824,APPROXIMATE,Lapid,ChIJcXkiX3nNAhURKk2kje1N1IM,לפיד,31.917522,35.032191,1,,OK,"locality,political"
825,APPROXIMATE,Mevo Horon,ChIJq9baoCHOAhURKTf6CT5L-Yk,מבוא חורון,31.849598,35.034977,1,,OK,"locality,political"
826,APPROXIMATE,"Mevo Modi'im, Israel",ChIJe6gFn_vMAhURVOVD2cutugQ,מבוא מודיעים,31.933851,34.98799899999999,1,,OK,"locality,political"
827,APPROXIMATE,"Modi'in-Maccabim-Re'ut, Israel",ChIJNZp8usTNAhURAzIT5b9sX68,מודיעין מכבים רעות,31.890267,35.010397,1,,OK,"locality,political"
828,APPROXIMATE,Modi'in Ilit,ChIJXaX1D6HSAhURtQvB7jEn2ZY,מודיעין עילית,31.932477,35.042265,1,,OK,"locality,political"
829,APPROXIMATE,al-Midya,ChIJZcrjHhrNAhURDu20BheKvnc,מידיה,31.936093,35.004574,1,,OK,"locality,political"
830,,,,מתתיהו,,,0,,ZERO_RESULTS,
831,APPROXIMATE,"Nof Ayalon, Israel",ChIJTXHKeonOAhURJFMFXgzqi98,נוף איילון,31.871215,34.991321,1,,OK,"locality,political"
832,APPROXIMATE,Ni'lin,ChIJqUUuukjNAhURGv90a_gvYE8,ניעלין,31.946843,35.021461,1,,OK,"locality,political"
833,APPROXIMATE,"Shilat, Israel",ChIJlTsCBQvNAhURb8UrDD4WxVg,שילת,31.921173,35.014572,1,,OK,"locality,political"
834,APPROXIMATE,"Sha'alvim, Israel",ChIJ5VxMeI3OAhURhoY9A3pOhlQ,שעלבים,31.870235,34.984304,1,,OK,"locality,political"
835,APPROXIMATE,"Rakhma, Yeruham, Israel",ChIJTTOhKFM_AhURQbu0tK4ks48,רח'מה,31.010452,34.949988,1,,OK,"political,sublocality,sublocality_level_1"
836,,,,אל מחד'י צפונית לדימונה,,,0,,ZERO_RESULTS,
837,APPROXIMATE,"El-Ghul (North to Dimona), Israel",ChIJf4UEAshFAhURuaeTsj5pDVo,אל ע'ול צפונית לדימונה,31.100949,35.005401,1,,OK,"political,sublocality,sublocality_level_1"
838,APPROXIMATE,"El-Amrani (South West to Dimona), Israel",ChIJPSc_C1NGAhURmJJWnlqaHfE,אל עמראני דרום מערב לדימונה,31.044195,35.001706,1,,OK,"political,sublocality,sublocality_level_1"
839,APPROXIMATE,"Dimona, Israel",ChIJU_6mLAFGAhUR0RKnIKBwupY,דימונה,31.069419,35.033363,1,,OK,"locality,political"
840,APPROXIMATE,"Hawashla, Israel",ChIJawQpxSZEAhURZelnRHrNAX4,הוואשלה,31.09222699999999,34.979069,1,,OK,"political,sublocality,sublocality_level_1"
841,APPROXIMATE,"Yeruham, Israel",ChIJAa6V6yE_AhURjyBESg85Ogk,ירוחם,30.987804,34.929741,1,,OK,"locality,political"
842,APPROXIMATE,"Qasr al-Sir, Israel",ChIJFcu18ptGAhURbXPl5Dc7eas,קסר א סיר,31.083329,34.979579,1,,OK,"political,sublocality,sublocality_level_1"
843,APPROXIMATE,"Qarnab Abu Silb, Dimona, Israel",ChIJTx-NbohIAhURJ_arsuzDD4E,קרנב אבו סלב,31.028376,35.050723,1,,OK,"political,sublocality,sublocality_level_1"
844,GEOMETRIC_CENTER,Israel,ChIJuREBlhg6AhUR3Lk-zfFF5lU,אורון,30.910143,35.017804,2,,OK,"establishment,point_of_interest"
845,APPROXIMATE,"El Abid, Israel",ChIJ_V-H009WAhURCByrgPEsGd4,אל עביד,31.265044,35.091313,1,,OK,"political,sublocality,sublocality_level_1"
846,APPROXIMATE,"El-Qur'an B, Israel",ChIJEd4js8FWAhURebKqvnm_OZQ,אל קורעאן ב,31.22964,35.10205,1,,OK,"political,sublocality,sublocality_level_1"
847,APPROXIMATE,"El-Qureishi, Israel",ChIJNWwCmE5WAhURwfZYLMwFIWU,אל קרישי,31.269167,35.089047,1,,OK,"political,sublocality,sublocality_level_1"
848,APPROXIMATE,"El-Qar'an (South to Arad), Arad, Israel",ChIJuT-QXR1VAhURRuduj4_BAQM,אל קרעאן,31.226467,35.183196,1,,OK,"political,sublocality,sublocality_level_1"
849,APPROXIMATE,"El-Qar'an (South to Arad), Arad, Israel",ChIJuT-QXR1VAhURRuduj4_BAQM,אל קרעאן דרומית לערד,31.226467,35.183196,1,,OK,"political,sublocality,sublocality_level_1"
850,,,,אל קשכר,,,0,,ZERO_RESULTS,
851,APPROXIMATE,"Janabib, Israel",ChIJC2FTVh5WAhURW5MZhquZ_wA,ג'נאביב,31.287156,35.108132,1,,OK,"political,sublocality,sublocality_level_1"
852,APPROXIMATE,"Drijat, Israel",ChIJf9dHKHn4AhURxI0O69iCF-g,דריג'את,31.301885,35.076793,1,,OK,"political,sublocality,sublocality_level_1"
853,APPROXIMATE,"Zabarga, Israel",ChIJAy53uf5ZAhUR7Y4sNjHRXvw,זבארגה,31.236449,35.03419,1,,OK,"political,sublocality,sublocality_level_1"
854,APPROXIMATE,"Kukhleh, Israel",ChIJ6wjNQI1XAhURC7oBDwD5eMY,כוחלה,31.287112,35.048572,1,,OK,"political,sublocality,sublocality_level_1"
855,APPROXIMATE,"Kuseife, Israel",ChIJ-b7RcP1WAhURDLNMw_Fe-u4,כסיפה,31.249246,35.083681,1,,OK,"locality,political"
856,APPROXIMATE,"Makhul, Israel",ChIJMRceP85XAhURUS83FEuzqnw,מכחול,31.288515,35.075736,1,,OK,"political,sublocality,sublocality_level_1"
857,APPROXIMATE,"Nasasra, Israel",ChIJJyzsE-RZAhURkd1DhmqPhbY,נצאצרה,31.247033,35.032332,1,,OK,"political,sublocality,sublocality_level_1"
858,APPROXIMATE,"Arad, Israel",ChIJC-qoAAIAAxURl8EhejtlMgI,ערד,31.261447,35.214862,1,,OK,"locality,political"
859,APPROXIMATE,"Ar'arat an-Naqab, Israel",ChIJTw6yM7RaAhURmt2nklYVmCM,ערערה בנגב,31.160927,35.019757,1,,OK,"locality,political"
860,APPROXIMATE,"Kabu'a, Israel",ChIJaSfgSi1VAhURdY6VrTWrSLo,קבועה,31.225087,35.214754,1,,OK,"political,sublocality,sublocality_level_1"
861,APPROXIMATE,"Qudeirat As Sani, Israel",ChIJSWfgzaH4AhURLTUdkTzSuho,קודייראת א צאנה,31.293107,35.10564,1,,OK,"political,sublocality,sublocality_level_1"
862,APPROXIMATE,"Qishkar Nabari, Israel",ChIJd9YFSrD4AhURra9mBI9yzmc,קשכר נבארי,31.297625,35.118316,1,,OK,"political,sublocality,sublocality_level_1"
863,APPROXIMATE,"E-Dahabshe, Arad, Israel",ChIJKyraPzhUAhURff2G6w9BWy0,א דהאבשה,31.226043,35.147482,1,,OK,"political,sublocality,sublocality_level_1"
864,APPROXIMATE,"Abu Joda, Israel",ChIJR1igRJFWAhURKX-QNG-wgg8,אבו ג'ודה,31.234448,35.111137,1,,OK,"political,sublocality,sublocality_level_1"
865,APPROXIMATE,"Abu Jwei'ad, Israel",ChIJ1zOuDvhQAhURjrLJ3n1EoN0,אבו ג'ווייעד,31.180663,35.072843,1,,OK,"political,sublocality,sublocality_level_1"
866,APPROXIMATE,"Abu Qrenat, Israel",ChIJY5T6RwdEAhUR44dPic58ioU,אבו קרינאת,31.103115,34.952003,1,,OK,"political,sublocality,sublocality_level_1"
867,APPROXIMATE,"Abu Qreinat (West to Kseifa), Israel",ChIJ59QdKdJZAhURtbodgkpjbKM,אבו קרינאת מערבית לכסיפה,31.268995,35.03005,1,,OK,"political,sublocality,sublocality_level_1"
868,APPROXIMATE,"Abu Rbei'a, Kseifa, Israel",ChIJt1o8AzdXAhURGF-oU9KnhhM,אבו רביעה,31.230811,35.064209,1,,OK,"political,sublocality,sublocality_level_1"
869,APPROXIMATE,"Abu Rbei'a (North to Kseifa), Israel",ChIJjwPHHohXAhURaq9PQwkE1YI,אבו רביעה צפונית לכסיפה,31.282016,35.039105,1,,OK,"political,sublocality,sublocality_level_1"
870,APPROXIMATE,"El-Jwini, Israel",ChIJB4H1zrRWAhURUjG9ZC4ham8,אל ג'וויני,31.209706,35.108483,1,,OK,"political,sublocality,sublocality_level_1"
871,APPROXIMATE,"El-Ghanami, Israel",ChIJ4aCIYtJWAhURlTxBgUFMboQ,אל ג'נאמי,31.216664,35.093023,1,,OK,"political,sublocality,sublocality_level_1"
872,APPROXIMATE,"Azazme (South to Ramat Khovav), Israel",ChIJZ10VOlxqAhURJ2Tjf_PFQSY,עזאזמה דרומית לרמת חובב,31.098688,34.836807,1,,OK,"political,sublocality,sublocality_level_1"
873,APPROXIMATE,"Azazme (South to Segev Shalom), Israel",ChIJg5sPw6BpAhUR96-Ek4eRqmU,עזאזמה דרומית לשגב שלום,31.16215,34.820191,1,,OK,"political,sublocality,sublocality_level_1"
874,APPROXIMATE,"Azazme (East to Ramat Khovav), Israel",ChIJb0mx3NJrAhURNqkYp742DOk,עזאזמה מזרחית לרמת חובב,31.13089,34.817161,1,,OK,"political,sublocality,sublocality_level_1"
875,APPROXIMATE,"Ramat Hovav, Israel",ChIJzYqA0ehrAhURa9_J8TSkY1Q,רמת חובב,31.135,34.791,1,,OK,"locality,political"
876,APPROXIMATE,"Tirabin al-Sana, Israel",ChIJnd_c7qJjAhURfwMDygo5orU,תראבין א צאנה שבט,31.345481,34.739126,1,,OK,"locality,political"
877,APPROXIMATE,"Abu Afash, Israel",ChIJ09Jx7nJpAhURIrbrUMy9TuA,אבו עפאש,31.15986,34.808983,1,,OK,"political,sublocality,sublocality_level_1"
878,APPROXIMATE,"El-Jarjawi, Israel",ChIJ0U4WwIJpAhUR1DCtEw91lec,אל ג'רג'אווי,31.147081,34.819719,1,,OK,"political,sublocality,sublocality_level_1"
879,APPROXIMATE,"El-Walidi, Israel",ChIJfeOwTgBpAhUR4x7fFwqYcwY,אל ולידי,31.177992,34.815901,1,,OK,"political,sublocality,sublocality_level_1"
880,APPROXIMATE,"El-Kilab, Israel",ChIJ7WM-RW1qAhURJFGA0RJA3U4,אל כלאב,31.107915,34.850613,1,,OK,"political,sublocality,sublocality_level_1"
881,,,,עזאזמה,,,0,,ZERO_RESULTS,
882,APPROXIMATE,"E-Danfiri, Israel",ChIJ3cw1ys1rAhURKU-AcrGDa-o,א דנפירי,31.1277,34.813964,1,,OK,"political,sublocality,sublocality_level_1"
883,APPROXIMATE,Odem,ChIJbfnEO5uwHhURBbuloARYbWE,אודם,33.1933716,35.7495651,1,,OK,"locality,political"
884,APPROXIMATE,El-Rum,ChIJD5Tm5fawHhURkzn1D7GP1GA,אל רום,33.180519,35.770095,1,,OK,"locality,political"
885,APPROXIMATE,Buq'ata,ChIJUfaP-dmwHhURukOYoO-9fPQ,בוקעתא,33.2026572,35.7767723,1,,OK,"locality,political"
886,APPROXIMATE,Majdal Shams,ChIJ0TDKCrq3HhURjbTrrga6zNY,מג'דל שמס,33.2690961,35.772122,1,,OK,"locality,political"
887,APPROXIMATE,Mas'ada,ChIJZ7HJ8EW3HhUR_ArPd0Xi-7U,מסעדה,33.2321159,35.7555991,1,,OK,"locality,political"
888,APPROXIMATE,Neve Ativ,ChIJkb-7idW5HhURRgWJfvEv91M,"נווה אטי""ב",33.26202,35.740574,1,,OK,"locality,political"
889,,,,נמרוד,,,0,,ZERO_RESULTS,
890,APPROXIMATE,Ein Qiniyye,ChIJnQlh7Pq5HhURKiS1_Ouk9tM,עין קנייא,33.2366802,35.7313062,1,,OK,"locality,political"
891,APPROXIMATE,Geva Binyamin,ChIJy1WRMhErAxURKHK0q4S9aUg,גבע בנימין,31.849999,35.273853,1,,OK,"locality,political"
892,APPROXIMATE,Vered Yeriho,ChIJAb-d0SrNHBUR_W6WN8jlNkI,ורד יריחו,31.826192,35.432139,1,,OK,"locality,political"
893,APPROXIMATE,Jericho,ChIJZ4X_5mHMHBURu2hWaKQoFIE,יריחו,31.8611058,35.4617583,1,,OK,"locality,political"
894,APPROXIMATE,Kohav HaShahar,ChIJq8qlSqbRHBUR4_RK1ynmWn8,כוכב השחר,31.960264,35.349421,1,,OK,"locality,political"
895,APPROXIMATE,Kfar Adumim,ChIJpx4gP-UsAxURYJWM62guSYQ,כפר אדומים,31.827216,35.337189,1,,OK,"locality,political"
896,APPROXIMATE,Mevo'ot Yericho,ChIJcQkhKd_NHBURBdnLAzJiDe8,מבואות יריחו,31.9074488,35.4155538,1,,OK,"locality,political"
897,APPROXIMATE,Ma'ale Michmash,ChIJAW4VG1nTHBURzHAo8ai6nLI,מעלה מכמש,31.879131,35.305902,1,,OK,"locality,political"
898,APPROXIMATE,Mitzpe Yeriho,ChIJ5yq5L58yAxURLJbFHIRR9ls,מצפה יריחו,31.815688,35.395409,1,,OK,"locality,political"
899,,,,נועימה,,,0,,ZERO_RESULTS,
900,,,,נועימה מחנה פליטים,,,0,,ZERO_RESULTS,
901,,,,"נח""ל אלישע",,,0,,ZERO_RESULTS,
902,APPROXIMATE,Ein Al Sultan,ChIJySvEmUfMHBURE1A-Dd7RWcE,עין א סולטאן מחנה פליטים,31.879547,35.447437,1,,OK,"locality,political"
903,APPROXIMATE,Almon,ChIJX2xaLnkrAxURHqizy2xKCK0,עלמון,31.832068,35.296764,1,,OK,"locality,political"
904,APPROXIMATE,Aqabat Jabr,ChIJY48gBujMHBURkrsN0evOjqY,עקאבת ג'בר מחנה פליטים,31.842048,35.445564,1,,OK,"locality,political"
905,APPROXIMATE,Kalya,ChIJ3xs1DO4zAxURAzylOPht7v4,קליה,31.749896,35.466131,1,,OK,"locality,political"
906,APPROXIMATE,Rimonim,ChIJw9eR5X3RHBURWdwSyIN4PVw,רימונים,31.93538199999999,35.340494,1,,OK,"locality,political"
907,APPROXIMATE,Alon,ChIJowGVSiItAxUR3dloBHp4kDA,אלון,31.833354,35.353557,1,,OK,"locality,political"
908,APPROXIMATE,Almog,ChIJyyj7nm4zAxUREQgH4dVXbTA,אלמוג,31.790034,35.461968,1,,OK,"locality,political"
909,APPROXIMATE,Beit HaArava,ChIJlVvBxlUzAxURPpUu7m-H2iw,בית הערבה,31.807762,35.476411,1,,OK,"locality,political"
910,APPROXIMATE,"Midreshet Ben-Gurion, Israel",ChIJbR5gcWYZAhURjaw3MJRQpQw,מדרשת בן גוריון,30.852297,34.7834,1,,OK,"locality,political"
911,APPROXIMATE,"Mitzpe Ramon, Israel",ChIJA1MzKVHxARURoVRS2F1FZWY,מצפה רמון,30.610203,34.801898,1,,OK,"locality,political"
912,APPROXIMATE,"Merhav Am, Israel",ChIJna9yai8YAhURZ8eit4kWyHw,מרחב עם,30.888022,34.828175,1,,OK,"locality,political"
913,APPROXIMATE,"Sde Boker, Israel",ChIJ4f76tZkZAhURVu7GBXpk4og,שדה בוקר,30.873611,34.793098,1,,OK,"locality,political"
914,GEOMETRIC_CENTER,"Hazeva, Israel",ChIJ6ZtnApPNAxURKCSCuJ3urms,שלווה במדבר,30.7679651,35.27719620000001,1,,OK,"establishment,lodging,point_of_interest"
915,APPROXIMATE,"Eliakim, Israel",ChIJf1brbOmoHRURogTcrLxpxiI,אליקים,32.633345,35.067613,1,,OK,"locality,political"
916,APPROXIMATE,"Jo'ara, Israel",ChIJjV9tzJ6pHRURIVjEZRVfFPI,ג'ועארה,32.599065,35.10861,1,,OK,"locality,political"
917,,,,גלעד,,,0,,ZERO_RESULTS,
918,APPROXIMATE,"Dalia, Israel",ChIJ-16PrDaoHRURFvjY-Ocuh5c,דליה,32.58925,35.076965,1,,OK,"locality,political"
919,APPROXIMATE,"HaZore'a, Israel",ChIJ4T0GL6yuHRURASwrwnzfygo,הזורע,32.644516,35.11918,1,,OK,"locality,political"
920,APPROXIMATE,"Yokne'am Moshava, Israel",ChIJBYn5WbuuHRURDW560vK5BYo,יוקנעם,32.655859,35.115152,1,,OK,"locality,political"
921,APPROXIMATE,"Yokne'am Illit, Israel",ChIJJ15qpsCuHRURMc9oKvAWfIM,יוקנעם עילית,32.660225,35.104606,1,,OK,"locality,political"
922,APPROXIMATE,"Megiddo, Israel",ChIJ88J_5fyqHRURyoHcLLvMOpU,מגידו,32.577899,35.179972,1,,OK,"locality,political"
923,APPROXIMATE,"Midrakh Oz, Israel",ChIJoxsHu7GrHRURsH3ZL-BHr6c,מדרך עוז,32.59464800000001,35.157976,1,,OK,"locality,political"
924,APPROXIMATE,"Mishmar HaEmek, Israel",ChIJwbOGzcOrHRURF51x9xx7BFk,משמר העמק,32.610063,35.14267299999999,1,,OK,"locality,political"
925,APPROXIMATE,"Ein HaEmek, Israel",ChIJmX1zLeCoHRURB98FfU_MqG4,עין העמק,32.629664,35.082246,1,,OK,"locality,political"
926,APPROXIMATE,"Ein HaShofet, Israel",ChIJjc5ZSaOpHRURYwmFw26PGU4,עין השופט,32.596811,35.100445,1,,OK,"locality,political"
927,APPROXIMATE,Plain of Manasseh,ChIJwVaYMySqHRUR36vtW2snxSc,רמות מנשה,32.583333,35.133333,1,,OK,"establishment,natural_feature"
928,APPROXIMATE,"Ramat HaShofet, Israel",ChIJdx3YCwipHRURdAtj5VUy8OI,רמת השופט,32.609356,35.094079,1,,OK,"locality,political"
929,APPROXIMATE,"Dorot, Israel",ChIJm2f_FnyGAhURMR3aoqegjFg,דורות,31.507207,34.645725,1,,OK,"locality,political"
930,APPROXIMATE,"Havat Shikmim, Israel",ChIJjYq-cISGAhURwcLwO2UrRHc,חוות שיקמים,31.511275,34.633864,1,,OK,"locality,political"
931,APPROXIMATE,"Kibbutz Ruhama, Israel",ChIJtSL_VEqPAhURhRImahCn-ig,רוחמה,31.497378,34.705165,1,,OK,"locality,political"
932,APPROXIMATE,"Betzet, Israel",ChIJNQBeqSzSHRURKbk7tTw818c,בצת,33.070047,35.132636,1,,OK,"locality,political"
933,APPROXIMATE,"Rosh HaNikra, Israel",ChIJR_MALHDRHRUR59u0L42HvFw,כפר ראש הנקרה,33.08609,35.113455,1,,OK,"locality,political"
934,APPROXIMATE,"Liman, Israel",ChIJe7kgFZPRHRURKgwXH1sqsY4,לימן,33.058732,35.111815,1,,OK,"locality,political"
935,APPROXIMATE,"Matzuva, Israel",ChIJTVgbuEzSHRURiTjvhvVhaXM,מצובה,33.062312,35.155705,1,,OK,"locality,political"
936,APPROXIMATE,"Shlomi, Israel",ChIJJf92CcnTHRURXLU-ncynyNQ,שלומי,33.072609,35.145945,1,,OK,"locality,political"
937,APPROXIMATE,"Gesher HaZiv, Israel",ChIJp_vZ1OPRHRUR4t_iBBjYCT0,גשר הזיו,33.040532,35.110563,1,,OK,"locality,political"
938,APPROXIMATE,"Nahariyya, Israel",ChIJmawNCR_OHRURFuSwZk6erUw,נהריה,33.0085361,35.0980514,1,,OK,"locality,political"
939,APPROXIMATE,"Sa'ar, Israel",ChIJRfa74RnOHRURGqSDG3b-zkQ,סער,33.028689,35.109232,1,,OK,"locality,political"
940,APPROXIMATE,"Evron, Israel",ChIJKU8H5u3OHRUR5d_ySs3cUB8,עברון,32.991149,35.100031,1,,OK,"locality,political"
941,APPROXIMATE,"Shavei Tzion, Israel",ChIJ-RrOp9jOHRURQfSgkzq-OhQ,שבי ציון,32.982079,35.083005,1,,OK,"locality,political"
942,APPROXIMATE,"Ben Ami, Israel",ChIJ9XEhRXfOHRURmxPqwd0hbts,בן עמי,33.005369,35.122218,1,,OK,"locality,political"
943,APPROXIMATE,"Kabri, Israel",ChIJgXBeZPPNHRURX5EfyWyw5AI,כברי,33.020985,35.147007,1,,OK,"locality,political"
944,APPROXIMATE,"Mikhmoret, Israel",ChIJae99zlATHRURRQZECm3WqaY,מכמורת,32.406504,34.871551,1,,OK,"locality,political"
945,APPROXIMATE,"Ne'urim, Rishon LeTsiyon, Israel",ChIJgw7dtlO0AhUR1NLoy88aqdo,נעורים,31.9739,34.814382,1,,OK,"neighborhood,political"
946,APPROXIMATE,"Ein HaHoresh, Israel",ChIJWcNec_oTHRURrcBKBmUEm8Y,עין החורש,32.385871,34.939994,1,,OK,"locality,political"
947,GEOMETRIC_CENTER,Israel,ChIJ_4rhMJQPHRUR_J_KB5O6WGg,גבעת חביבה,32.457665,35.020061,1,,OK,"establishment,point_of_interest"
948,APPROXIMATE,"Gan Shmuel, Israel",ChIJZzmMxwESHRURs6P6Ak-3mCg,גן שמואל,32.452911,34.949311,1,,OK,"locality,political"
949,APPROXIMATE,"Maor, Israel",ChIJq2EDhzAQHRURAnXqX0Rth6Y,מאור,32.425832,35.005289,1,,OK,"locality,political"
950,APPROXIMATE,"Ma'anit, Israel",ChIJAYcsx5EPHRUR18XZLrMzGZc,מענית,32.457992,35.026573,1,,OK,"locality,political"
951,APPROXIMATE,"Sde Yitzhak, Israel",ChIJtQMo-aoRHRUR41YbJIpbY-M,שדה יצחק,32.404959,34.992168,1,,OK,"locality,political"
952,GEOMETRIC_CENTER,"כביש 6403, שער מנשה, Israel",ChIJUcjTqMEPHRURv_3QcIeHELc,שער מנשה,32.4438777,35.0109759,1,,OK,"establishment,health,point_of_interest"
953,APPROXIMATE,"Talmei Elazar, Israel",ChIJGX0Pm98RHRURo2glNFSmcgE,תלמי אלעזר,32.447228,34.974991,1,,OK,"locality,political"
954,APPROXIMATE,"Kfar Haroeh, Israel",ChIJfcfs3oATHRUR1Xjyio_F7Ck,"כפר הרא""ה",32.391037,34.910917,1,,OK,"locality,political"
955,APPROXIMATE,"Kfar Vitkin, Israel",ChIJkcIZcbgUHRURXBVrN4lnHqg,כפר ויתקין,32.380541,34.875308,1,,OK,"locality,political"
956,APPROXIMATE,"Mevo'ot Yam, Israel",ChIJ4ThqFKoUHRURtrY-t1-meXM,מבואות ים,32.401697,34.866797,1,,OK,"locality,political"
957,APPROXIMATE,"Yanuv, Israel",ChIJ-fJcFwgWHRUR0g3Rof9e8mg,ינוב,32.307431,34.951384,1,,OK,"locality,political"
958,APPROXIMATE,"Kfar Yona, Israel",ChIJD17g5OsVHRURwv7p-J62EKE,כפר יונה,32.317719,34.933615,1,,OK,"locality,political"
959,APPROXIMATE,"Kfar Monash, Israel",ChIJMVxObK0VHRUR-l8f6y9nQNI,כפר מונש,32.345607,34.916426,1,,OK,"locality,political"
960,APPROXIMATE,"Nitzanei Oz, Israel",ChIJH7xp3rAXHRURqVIdwZAltBg,ניצני עוז,32.306084,35.003278,1,,OK,"locality,political"
961,APPROXIMATE,"Olesh, Israel",ChIJBVcNQfoWHRURIsBlExifwVY,עולש,32.331969,34.98532100000001,1,,OK,"locality,political"
962,APPROXIMATE,"Tnuvot, Israel",ChIJMzkDzxEWHRURSgDt-l7Xww8,תנובות,32.305863,34.962586,1,,OK,"locality,political"
963,APPROXIMATE,"Elyakhin, Israel",ChIJSd3a6L4THRURnkR_mKPNhy4,אליכין,32.407659,34.925028,1,,OK,"locality,political"
964,APPROXIMATE,"Elyashiv, Israel",ChIJQyLF3HwUHRURKHFWOIU0frA,אלישיב,32.380196,34.909945,1,,OK,"locality,political"
965,APPROXIMATE,"Beit Hazon, Israel",ChIJk72cuXgUHRURU8-F21lM-Pw,בית חזון,32.387178,34.91291,1,,OK,"locality,political"
966,APPROXIMATE,"Beit Herut, Israel",ChIJe6NbA8YUHRURHmENZqKGSQs,בית חרות,32.376223,34.873765,1,,OK,"locality,political"
967,APPROXIMATE,"Beit Yanai, Israel",ChIJw-UQ3MoUHRURpP40FsLB4kc,בית ינאי,32.381729,34.863507,1,,OK,"locality,political"
968,APPROXIMATE,"Geulei Teiman, Israel",ChIJ9VA9AIIUHRURmcOo1b8ruY0,גאולי תימן,32.391837,34.900989,1,,OK,"locality,political"
969,APPROXIMATE,"Givat Haim, Israel",ChIJI5uO9esTHRURp_dzMmGO7WU,גבעת חיים איחוד,32.396745,34.932978,1,,OK,"locality,political"
970,APPROXIMATE,"Givat Haim, Israel",ChIJ4QDkuvITHRURb4NvO_HBPnk,גבעת חיים מאוחד,32.392148,34.929447,1,,OK,"locality,political"
971,APPROXIMATE,"Hogla, Israel",ChIJ6T9N8osTHRURnMeejfQ75Kk,חגלה,32.38907,34.924252,1,,OK,"locality,political"
972,APPROXIMATE,"Hofit, Israel",ChIJ61tbBboUHRURUXCLp_QFk_Y,חופית,32.386082,34.874078,1,,OK,"locality,political"
973,APPROXIMATE,"Hibat Tzion, Israel",ChIJx71cVoMTHRURx0NqbrnkyZ0,חיבת ציון,32.397995,34.911931,1,,OK,"locality,political"
974,APPROXIMATE,"Herev Le'et, Israel",ChIJI69s2pkTHRUR7_13LC4Uv6s,חרב לאת,32.403526,34.917146,1,,OK,"locality,political"
975,APPROXIMATE,"Ometz, Israel",ChIJV3HsvikRHRURKvzLdPY5JsA,אומץ,32.369216,34.993129,1,,OK,"locality,political"
976,APPROXIMATE,"Ahituv, Israel",ChIJu-l6lx4RHRUR0blMzoQL2NQ,אחיטוב,32.387701,34.990826,1,,OK,"locality,political"
977,APPROXIMATE,"Baqa al-Gharbiyye, Israel",ChIJ0a9C2QYQHRURHyCqqfb7bIM,באקה אל ע'רביה,32.422891,35.035764,1,,OK,"locality,political"
978,APPROXIMATE,"Baqa-Jatt, Baqa al-Gharbiyye, Israel",ChIJ01WQh5gaHRURtQUg-Khh0tk,באקה ג'ת,32.4045594,35.047091,1,,OK,"neighborhood,political"
979,APPROXIMATE,"Bahan, Israel",ChIJxRyFW0oXHRURc1FnRnVyvNU,בחן,32.351831,35.018542,1,,OK,"locality,political"
980,APPROXIMATE,"Jat, Israel",ChIJ7wUMrXkQHRURHPVO3_nFGvk,ג'ת,32.39693,35.035914,1,,OK,"locality,political"
981,APPROXIMATE,"HaMa'apil, Israel",ChIJczrJ0DoRHRUR19_IwjSwl4M,המעפיל,32.378035,34.983146,1,,OK,"locality,political"
982,GEOMETRIC_CENTER,"Kalat Zeita St, Baqa al-Gharbiyye, Israel",ChIJt9ZE8gkQHRURrJpn6PaNC3o,זיתא ליד באקה אל ע'רביה,32.4130473,35.0382846,2,,OK,route
983,,,,זמר,,,0,,ZERO_RESULTS,
984,APPROXIMATE,"Lehavot Haviva, Israel",ChIJtb2q3fUQHRURpBcvGlgsvZ4,להבות חביבה,32.395216,35.01179,1,,OK,"locality,political"
985,APPROXIMATE,"Magal, Israel",ChIJ9bVqp4EQHRURmxUI94s-qf8,מגל,32.385556,35.036147,1,,OK,"locality,political"
986,APPROXIMATE,"Meiser, Israel",ChIJmY86SF4FHRURAn7kC8hNDXs,מייסר,32.445246,35.042131,1,,OK,"locality,political"
987,APPROXIMATE,"Metzer, Israel",ChIJQ7i4hFwFHRURCgJqGiDnVnU,מצר,32.440186,35.047702,1,,OK,"locality,political"
988,APPROXIMATE,Nazlet Isa,ChIJQeHwPbYaHRURVF7jAsMOiko,נזלת עיסא,32.414832,35.05986,1,,OK,"locality,political"
989,APPROXIMATE,"Be'erotayim, Israel",ChIJAa6aAVoWHRUR7pv-5i1T5qU,בארותיים,32.321039,34.98343,1,,OK,"locality,political"
990,APPROXIMATE,"Burgata, Israel",ChIJUXbz8mQWHRURNjpkv5mwbng,בורגתה,32.325972,34.963848,1,,OK,"locality,political"
991,APPROXIMATE,"Beit HaLevi, Israel",ChIJZ5QkljcUHRUR61yX9yUO6zw,בית הלוי,32.351596,34.930443,1,,OK,"locality,political"
992,APPROXIMATE,"Bat Hefer, Israel",ChIJc_xxVBQXHRURHlUqhrfedpc,בת חפר,32.333714,35.013729,1,,OK,"locality,political"
993,APPROXIMATE,"Gan Yoshiya, Israel",ChIJFXZDoCcXHRURWe9NHeRAGSg,גן יאשיה,32.349487,34.996245,1,,OK,"locality,political"
994,APPROXIMATE,"HaOgen, Israel",ChIJbeXoVkEUHRURD6-DKPxQrCs,העוגן,32.360437,34.923338,1,,OK,"locality,political"
995,APPROXIMATE,"Haniel, Israel",ChIJm0ZlLNQVHRUR9DN9febuNpA,חניאל,32.332803,34.947693,1,,OK,"locality,political"
996,APPROXIMATE,"Yad Hana, Israel",ChIJz7bObg8XHRUR9baNISW9BKE,יד חנה,32.325311,35.006692,1,,OK,"locality,political"
997,APPROXIMATE,"Avihayil, Israel",ChIJS_HZMDAVHRURNoGX_HXnxAM,אביחיל,32.350708,34.871229,1,,OK,"locality,political"
998,APPROXIMATE,"Beit Yitzhak-Sha'ar Hefer, Israel",ChIJp1x-UWsVHRUREAGx0nm-_xY,בית יצחק שער חפר,32.33558,34.8895,1,,OK,"locality,political"
999,APPROXIMATE,"Bitan Aharon, Israel",ChIJC1mU89YUHRURA3eBKXUfUQ0,ביתן אהרן,32.364928,34.86956,1,,OK,"locality,political"
1000,APPROXIMATE,"Bat Hen, Israel",ChIJh-MOFCgVHRURgStheaKK6hk,בת חן,32.360194,34.872388,1,,OK,"locality,political"
1001,APPROXIMATE,"Givat Shapira, Israel",ChIJ_SuprCcVHRURQkrIHNZI2hE,גבעת שפירא,32.35763,34.875845,1,,OK,"locality,political"
1002,APPROXIMATE,"Ganot Hadar, Israel",ChIJafajHHoVHRURtIeLbA7lhfo,גנות הדר,32.32174,34.900715,1,,OK,"locality,political"
1003,APPROXIMATE,"Hadar Am, Israel",ChIJ29hNpQMVHRURcYh1VVV70rM,הדר עם,32.349653,34.898945,1,,OK,"locality,political"
1004,APPROXIMATE,"Havatzelet HaSharon, Israel",ChIJm_HAsNRqHRURGzSafklTN78,חבצלת השרון,32.3604,34.861819,1,,OK,"locality,political"
1005,APPROXIMATE,"Kfar Haim, Israel",ChIJ-1lZ2f0UHRURN0Hs1Ve57MA,כפר חיים,32.353857,34.90070900000001,1,,OK,"locality,political"
1006,APPROXIMATE,"Kfar Yedidia, Israel",ChIJOfjGsQUVHRURp8p_crNEK2M,כפר ידידיה,32.344902,34.899038,1,,OK,"locality,political"
1007,GEOMETRIC_CENTER,"Ma'abarot, Haifa, Israel",ChIJ8YvhPQW7HRURr7wjLA5csOs,מעברות,32.7927745,34.9853634,1,,OK,route
1008,APPROXIMATE,"Mishmar HaSharon kibbutz, Israel",ChIJaVG60_gUHRURT1y9mQlkap0,משמר השרון,32.356305,34.904256,1,,OK,"locality,political"
1009,APPROXIMATE,"Nordia, Israel",ChIJRc6LQX0VHRURQS3_7zr19n8,נורדיה,32.314656,34.896792,1,,OK,"locality,political"
1010,APPROXIMATE,"Netanya, Israel",ChIJ1XXAkwRAHRURIj88VL6V2Sw,נתניה,32.321458,34.853196,1,,OK,"locality,political"
1011,APPROXIMATE,"Tzukei Yam, Israel",ChIJw202jNNqHRURmxAFwLRMnPU,צוקי ים,32.360122,34.858542,1,,OK,"locality,political"
1012,APPROXIMATE,"Shoshanat HaAmakim, Israel",ChIJU7lsdc5qHRURL5CxKVRldhs,שושנת העמקים,32.354794,34.856814,1,,OK,"locality,political"
1013,APPROXIMATE,"al-Nawaqir, Israel",ChIJ8wp-3qzUHRURgQttwTVM_vM,א נוואקיר,33.090788,35.213638,1,,OK,"locality,political"
1014,APPROXIMATE,"Adamit, Israel",ChIJNYLT31PTHRURPDSQInZ6IMM,אדמית,33.078842,35.20951,1,,OK,"locality,political"
1015,APPROXIMATE,"Adamit, Israel",ChIJNYLT31PTHRURPDSQInZ6IMM,אידמית,33.078842,35.20951,1,,OK,"locality,political"
1016,APPROXIMATE,"Eilon, Israel",ChIJB7CG87UsHBURs50TBRGKFkc,אילון,33.062526,35.219162,1,,OK,"locality,political"
1017,APPROXIMATE,"Jordeikh, Israel",ChIJCXZAQEkrHBURUIYMCOF5bM0,ג'ורדיח,33.097041,35.221622,1,,OK,"locality,political"
1018,APPROXIMATE,"Goren, Israel",ChIJ6xNP-sAsHBUR1XPCbG963CA,גורן,33.055566,35.233619,1,,OK,"locality,political"
1019,APPROXIMATE,"Gornot HaGalil, Israel",ChIJYUz8To4sHBURH0BDKKLgZRk,גורנות הגליל,33.059286,35.24967,1,,OK,"locality,political"
1020,APPROXIMATE,"Hanita, Israel",ChIJhVShM3jTHRURmtvnwACrodg,חניתה,33.087634,35.17343,1,,OK,"locality,political"
1021,APPROXIMATE,"Ya'ara, Israel",ChIJRzM-4BPTHRURJ-0AOv-jKk8,יערה,33.068013,35.18608,1,,OK,"locality,political"
1022,APPROXIMATE,"Arab al-Aramshe, Israel",ChIJTX9C1EQrHBURVd00KF5A_7s,עראמשה,33.088834,35.228839,1,,OK,"locality,political"
1023,APPROXIMATE,alZa'im,ChIJyyHmJXcpAxURcX7bouFT5zA,א זעיים,31.787701,35.263531,1,,OK,"locality,political"
1024,APPROXIMATE,Abu Dis,ChIJgy09kqopAxURL_4talKgMtY,אבו דיס,31.763582,35.257722,1,,OK,"locality,political"
1025,APPROXIMATE,alWalaja,ChIJhfcu67nZAhUR2jviAW7X8Ak,אל ולג'ה,31.729394,35.15853,1,,OK,"locality,political"
1026,APPROXIMATE,Bir Nabala,ChIJu71tWZrVAhURbZ_h0Wap0nc,ביר נבאלה,31.85118199999999,35.200835,1,,OK,"locality,political"
1027,APPROXIMATE,Bayt Iksa,ChIJrZDwznrWAhUR4d8Zmn4Sj8o,בית איכסא,31.816677,35.180006,1,,OK,"locality,political"
1028,APPROXIMATE,"Beit Hanina, Jerusalem",ChIJ6zh2ZQ0qAxURTzXc36TdmVM,בית חנינא,31.830131,35.225205,1,,OK,"neighborhood,political"
1029,APPROXIMATE,Dayr Kirmizan,ChIJlwLK6ErYAhUR2ABllSyOz9A,דיר כרמיזן,31.727104,35.172569,1,,OK,"locality,political"
1030,APPROXIMATE,Hizma,ChIJw8h9xqsrAxUR1IHJGopDCnc,חיזמא,31.836461,35.263231,1,,OK,"locality,political"
1031,APPROXIMATE,"Jerusalem, Israel",ChIJS_zBNNbXAhURy-FuRT5ib9k,ירושלים,31.768319,35.21371,1,,OK,"locality,political"
1032,APPROXIMATE,Anata,ChIJDe26Wc0rAxURwDeqn97ge9w,ענאתא,31.811201,35.259602,1,,OK,"locality,political"
1033,APPROXIMATE,"Ramat Rachel, Israel",ChIJa6M-7QMoAxURE-5Td8mK8Ok,רמת רחל,31.7403163,35.2178825,1,,OK,"locality,political"
1034,APPROXIMATE,"Sha'ar HaNegev Regional Council, Israel",ChIJL_ek8a2GAhURlD_wVZ2rNuA,מועצה אזורית שער הנגב,31.50772569999999,34.6303372,1,,OK,"administrative_area_level_4,political"
1035,APPROXIMATE,Gaza,ChIJZydUTgV__RQRkmMEE8mN-X8,הופעלה בישוב בעוטף עזה- ככה''נ איכון שווא,31.5016951,34.4668445,1,,OK,"locality,political"
1036,APPROXIMATE,"Hof Ashkelon, Israel",ChIJFQvBenucAhURMLT4jgMQoe4,מועצה אזורית חוף אשקלון,31.6214381,34.6192702,1,,OK,"administrative_area_level_4,political"
1037,APPROXIMATE,"Hof Ashkelon, Israel",ChIJFQvBenucAhURMLT4jgMQoe4,חוף אשקלון,31.6214381,34.6192702,1,,OK,"administrative_area_level_4,political"
1038,GEOMETRIC_CENTER,"HaEshkol St, Karmia, Israel",ChIJnYrZId2CAhURGHQ__4a8pP8,מועצה אזורית חוף אשקלון - האשכול הקודם נדפק,31.6073175,34.5431666,1,,OK,route
1039,APPROXIMATE,"Netiv HaAsara, Israel",ChIJGT38s0WCAhUR5NddCNuNya0,נתי העשרה - עאללללק הפסקת אש,31.572407,34.539322,1,,OK,"locality,political"
1040,APPROXIMATE,"Nahal Oz, Israel",ChIJ369MrASA_RQRJYNKPc4SgLY,נחל עוז אלומים,31.47267999999999,34.497675,1,,OK,"locality,political"
1041,APPROXIMATE,"Sdot Negev Regional Council, Israel",ChIJzzK2oWd-AhURg_9xXGt9pJE,מועצה אזורית שדות נגב,31.4144482,34.5417619,1,,OK,"administrative_area_level_4,political"
1042,APPROXIMATE,"Sha'ar HaNegev Regional Council, Israel",ChIJL_ek8a2GAhURlD_wVZ2rNuA,שער הנגב,31.50772569999999,34.6303372,1,,OK,"administrative_area_level_4,political"
1043,APPROXIMATE,"Azrikam, Israel",ChIJh0ogEU-9AhURHTo58ZNi7SE,כנות בית עזרא עזריקם שתולים,31.751695,34.694818,1,,OK,"locality,political"
1044,APPROXIMATE,"Be'er Tuvia Regional Council, Israel",ChIJ3x3Cghy9AhURUxie6eaLD6Y,מועצה אזורית באר טוביה,31.766667,34.71666700000001,1,,OK,"locality,political"
1045,APPROXIMATE,"Gederot Regional Council, Israel",ChIJt0VQyb27AhURzB3c1ov9RE8,גדרות,31.830759,34.7354031,1,,OK,"administrative_area_level_4,political"
1046,APPROXIMATE,"Hevel Yavne Regional Council, Israel",ChIJKS8jED26AhURk0sbeFSdR-4,חבל יבנה,31.856,34.761,1,,OK,"locality,political"
1047,GEOMETRIC_CENTER,"Ashdod Ad Halom, Ashdod, Israel",ChIJX227TcKiAhURyGsKom7zuZ8,אשדוד עד הלום בני דרום,31.774061,34.666059,1,,OK,"establishment,point_of_interest,train_station,transit_station"
1048,APPROXIMATE,"Be'er Tuvia, Israel",ChIJJwZZlnm9AhURahAgUgYbWas,אר טוביה,31.737127,34.72557,1,,OK,"locality,political"
1049,APPROXIMATE,"Kiryat Malakhi, Israel",ChIJCTdn0I29AhURJQjYgjPeeyg,קריית מלאכי,31.730202,34.746996,1,,OK,"locality,political"
1050,,,,יואב,,,0,,ZERO_RESULTS,
1051,APPROXIMATE,"Hof Ashkelon, Israel",ChIJFQvBenucAhURMLT4jgMQoe4,חוף אשקלון - תחי מדינת ישראל,31.6214381,34.6192702,1,,OK,"administrative_area_level_4,political"
1052,,,,חבל שלוןם,,,0,,ZERO_RESULTS,
1053,APPROXIMATE,"Kerem Shalom, Israel",ChIJYbENsimT_RQRRKPpPAAObOY,כרם שלום נתיב העשרה,31.228281,34.284559,2,,OK,"locality,political"
1054,APPROXIMATE,"Hof Ashkelon, Israel",ChIJFQvBenucAhURMLT4jgMQoe4,חוף אשקלון - מטח,31.6214381,34.6192702,1,,OK,"administrative_area_level_4,political"
1055,,,,חבל שלום,,,0,,ZERO_RESULTS,
1056,APPROXIMATE,"Kerem Shalom, Israel",ChIJYbENsimT_RQRRKPpPAAObOY,אספקת אש!!! כרם שלום,31.228281,34.284559,1,,OK,"locality,political"
1057,,,,אספקת אש,,,0,,ZERO_RESULTS,
1058,APPROXIMATE,"Eshkol Regional Council, Israel",ChIJj7jy5GGJ_RQRimzaLgX8qf4,אשכול,31.2068084,34.4641848,1,,OK,"administrative_area_level_4,political"
1059,APPROXIMATE,"Merhavim Regional Council, Israel",ChIJPWnESOmHAhURjHqOHuSvnLc,מועצה אזוריתמרחבים,31.3138394,34.5749882,1,,OK,"administrative_area_level_4,political"
1060,,,,''ש,,,0,,ZERO_RESULTS,
1061,GEOMETRIC_CENTER,"דרך חברון 40 באר שבע, Be'er Sheva, Israel",ChIJDXWYVjhmAhURScrnXu3jkfk,אספקת אש! באר שבע,31.2411191,34.804714,2,,OK,"establishment,point_of_interest"
1062,APPROXIMATE,"Yoshivia, Israel",ChIJG0s3BViHAhURzpmi-jycU1M,יושבייה,31.444699,34.608784,1,,OK,"locality,political"
1063,APPROXIMATE,"Bnei Ayish, Israel",ChIJTxdMWw68AhURb-TkcODRnZk,גן יבנה בני עייש,31.790235,34.759291,1,,OK,"locality,political"
1064,,,,ש,,,0,,ZERO_RESULTS,
1065,APPROXIMATE,"Tifrah, Israel",ChIJN6-mnUl7AhURn5Yr4B6hE2w,תפרח שניה,31.324471,34.679236,1,,OK,"locality,political"
1066,GEOMETRIC_CENTER,"Be'er Sheva, Israel",ChIJwWsnP_FmAhURquRMnDt7jfM,באר שבע ז,31.2698223,34.8032432,2,,OK,"establishment,point_of_interest,school"
1067,APPROXIMATE,"Abu Basma Regional Council, Israel",ChIJg_b4eaJjAhURGlI2DJ1jRjM,מועצה אזורית אבו בסמה,31.2582386,34.9671983,1,,OK,"administrative_area_level_4,political"
1068,APPROXIMATE,"Bnei Shimon Regional Council, Israel",ChIJ15ftqcdiAhURC46uyn-xspk,ני שמעון,31.3927762,34.8403408,1,,OK,"administrative_area_level_4,political"
1069,ROOFTOP,"Kibuts Galuyot St 27, Ashkelon, Israel",ChIJu-bnQFqcAhUR7rZJideKUCE,א.ת. אשקלון,31.6644157,34.5655538,1,,OK,"clothing_store,establishment,point_of_interest,store"
1070,APPROXIMATE,"Hof Ashkelon, Israel",ChIJFQvBenucAhURMLT4jgMQoe4,מועצה אזורית חוף אשקלון יציאות נוספות - מטח,31.6214381,34.6192702,1,,OK,"administrative_area_level_4,political"
1071,APPROXIMATE,"Sha'ar HaNegev Regional Council, Israel",ChIJL_ek8a2GAhURlD_wVZ2rNuA,: מועצה אזורית שער הנגב,31.50772569999999,34.6303372,1,,OK,"administrative_area_level_4,political"
1072,APPROXIMATE,"Sdot Negev Regional Council, Israel",ChIJzzK2oWd-AhURg_9xXGt9pJE,שדות נגב,31.4144482,34.5417619,1,,OK,"administrative_area_level_4,political"
1073,APPROXIMATE,"Kissufim, Israel",ChIJbdrJcseF_RQRQVlt4PQ_GoU,מכיסופים,31.374545,34.398992,1,,OK,"locality,political"
1074,APPROXIMATE,"Peduim, Israel",ChIJC7O4QMx7AhUR8EjO38Vtttk,פדוים,31.326275,34.612069,1,,OK,"locality,political"
1075,GEOMETRIC_CENTER,"Ashkelon, Israel",ChIJKfbwy9icAhURYixjv5ZVHzc,אזור תעשיה אשקלון,31.636089,34.554535,1,,OK,"establishment,point_of_interest"
1076,APPROXIMATE,"Brenner Regional Council, Israel",ChIJc_upE-q5AhURXnsoTRIHvtc,מועצה אזורית ברנר,31.8602669,34.7851264,1,,OK,"administrative_area_level_4,political"
1077,APPROXIMATE,Nahal Sorek,ChIJWX4GA5OwAhUR0AdTSHYolQ4,נחל שורק,31.8522341,34.9502489,1,,OK,"establishment,natural_feature"
1078,,,,נשמעו 3 פיצוצים,,,0,,ZERO_RESULTS,
1079,APPROXIMATE,"Kiryat Malakhi, Israel",ChIJCTdn0I29AhURJQjYgjPeeyg,קרית מלאכי גן יבנה באר טוביה,31.730202,34.746996,1,,OK,"locality,political"
1080,APPROXIMATE,"Merhavim Regional Council, Israel",ChIJPWnESOmHAhURjHqOHuSvnLc,מרחבים,31.3138394,34.5749882,1,,OK,"administrative_area_level_4,political"
1081,APPROXIMATE,"Ashdod, Israel",ChIJ7-RHdRGjAhURL2OGWhptgJc,נוספת באשדוד,31.804381,34.655314,1,,OK,"locality,political"
1082,APPROXIMATE,"Ashdod, Israel",ChIJ7-RHdRGjAhURL2OGWhptgJc,שוב אשדוד,31.804381,34.655314,1,,OK,"locality,political"
1083,APPROXIMATE,"Sha'ar HaNegev Regional Council, Israel",ChIJL_ek8a2GAhURlD_wVZ2rNuA,: שער הנגב,31.50772569999999,34.6303372,1,,OK,"administrative_area_level_4,political"
1084,,,,רנר,,,0,,ZERO_RESULTS,
1085,GEOMETRIC_CENTER,"Alexander River National Park, Beit Yanai, Israel",ChIJw-UQ3MoUHRUR0awiSZRSTQQ,נחל,32.395618,34.868194,1,,OK,"establishment,park,point_of_interest"
1086,APPROXIMATE,"Gedera, Israel",ChIJ01avgGW5AhURMUaFg-ORCIk,גדרה מועצה אזורית נחל סורק,31.8123014,34.77701920000001,1,,OK,"locality,political"
1087,APPROXIMATE,"Tzohar, Israel",ChIJ9_oCvoyL_RQR66SU1DeqV5Y,ישובי צוחר,31.23717,34.426444,1,,OK,"locality,political"
1088,APPROXIMATE,"Bnei Shimon Regional Council, Israel",ChIJ15ftqcdiAhURC46uyn-xspk,מועצה אזורית בני שמעון,31.3927762,34.8403408,1,,OK,"administrative_area_level_4,political"
1089,APPROXIMATE,"Be'er Sheva, Israel",ChIJd4efAkBmAhUR2F3rLQHo3gg,אר שבע,31.252973,34.791462,1,,OK,"locality,political"
1090,APPROXIMATE,"Merhavim Regional Council, Israel",ChIJPWnESOmHAhURjHqOHuSvnLc,מועצה אזורית מרחבים,31.3138394,34.5749882,1,,OK,"administrative_area_level_4,political"
1091,APPROXIMATE,"Gan Raveh Regional Council, Israel",ChIJkST4u_WwAhUREdiTFdHFeKI,מועצה אזורית גן רווה,31.9172636,34.7464552,1,,OK,"administrative_area_level_4,political"
1092,APPROXIMATE,"Rishon LeTsiyon, Israel",ChIJ_2arJzi0AhURuHoaV0rFvBc,ראשון,31.9730015,34.7925013,1,,OK,"locality,political"
1093,APPROXIMATE,"Hevel Yavne Regional Council, Israel",ChIJKS8jED26AhURk0sbeFSdR-4,מועצה אזורית חבל יבנה,31.856,34.761,1,,OK,"locality,political"
1094,GEOMETRIC_CENTER,"Hatserim Forest, Israel",ChIJvVy-P5tvAhURYDHR3ww7ZfE,אזור חצרים,31.237183,34.722872,1,,OK,"establishment,park,point_of_interest"
1095,,,,ארי,,,0,,ZERO_RESULTS,
1096,APPROXIMATE,"Tze'elim, Israel",ChIJ15tqqL91AhURfwoNkIoyByE,צאלים!,31.203909,34.533359,1,,OK,"locality,political"
1097,APPROXIMATE,"Eshkol Regional Council, Israel",ChIJj7jy5GGJ_RQRimzaLgX8qf4,מועצה אזורית אשכול - מטח,31.2068084,34.4641848,1,,OK,"administrative_area_level_4,political"
1098,APPROXIMATE,"Givolim, Israel",ChIJZyxx25x-AhUR9kZkg3H3_hM,אשל הנשיא גבעולים,31.397604,34.593821,1,,OK,"locality,political"
1099,GEOMETRIC_CENTER,"Ashkelon, Israel",ChIJKfbwy9icAhURYixjv5ZVHzc,איזור תעשייה הדרומי אשקלון,31.636089,34.554535,2,,OK,"establishment,point_of_interest"
1100,APPROXIMATE,Ma'ale Adumim,ChIJk_sscakuAxURGL1i9kMPn7Y,מעלה אדומים ירושלים,31.777369,35.297955,1,,OK,"locality,political"
1101,GEOMETRIC_CENTER,"Yerushalayim St, Azor, Israel",ChIJ24QzuDZLHRURR5o7-5qkj6Y,אזור ירושלים,32.030995,34.801001,1,,OK,route
1102,APPROXIMATE,"Eshel HaNasi, Israel",ChIJhwlzTqVkAhURVWcLV1V_FmM,אשל הנשיא,31.326828,34.697497,1,,OK,"locality,political"
1103,APPROXIMATE,"Netivot, Israel",ChIJK-qF2HV-AhURarqClNndXp4,המשך ל בנתיבות בשעה : רקטה פגעה ישירות במבנה,31.423196,34.595254,1,,OK,"locality,political"
1104,APPROXIMATE,"Netivot, Israel",ChIJK-qF2HV-AhURarqClNndXp4,מרחב נתיבות,31.423196,34.595254,1,,OK,"locality,political"
1105,APPROXIMATE,"Sdei Avraham, Israel",ChIJN90OuVaN_RQRaqBNlRNAZzA,שדה אברהם,31.211594,34.335692,1,,OK,"locality,political"
1106,,,,חלוצית,,,0,,ZERO_RESULTS,
1107,APPROXIMATE,"Kiryat Gat, Israel",ChIJO6bnsmaRAhUR_WhTM9BYac8,נשמע פיצוץ חזק באזור קריית גת לא הייתה,31.611148,34.768459,1,,OK,"locality,political"
1108,APPROXIMATE,"Kiryat Gat, Israel",ChIJO6bnsmaRAhUR_WhTM9BYac8,קריית גת,31.611148,34.768459,1,,OK,"locality,political"
1109,,,,רון אנקרי: בבאר שבע,,,0,,ZERO_RESULTS,
1110,GEOMETRIC_CENTER,"Nir Yitzhak, Israel",ChIJE_-IfgeN_RQRONT-ps78SU4,כימדע,31.245719,34.377101,1,,OK,"establishment,point_of_interest"
1111,APPROXIMATE,"Bnei Ayish, Israel",ChIJTxdMWw68AhURb-TkcODRnZk,בני עיש,31.790235,34.759291,1,,OK,"locality,political"
1112,APPROXIMATE,"Hatsor Ashdod, Israel",ChIJXbiuL_28AhUR6lVC6tmcgwY,חצור האשדודית,31.772744,34.719366,1,,OK,"locality,political"
1113,APPROXIMATE,"Ami'oz, Israel",ChIJ7ewJuQ6M_RQRf9-1cuu4FXQ,עמי עוז,31.248463,34.413404,1,,OK,"locality,political"
1114,APPROXIMATE,"Tel Aviv-Yafo, Israel",ChIJH3w7GaZMHRURkD-WwKJy-8E,תל אביב,32.0852999,34.78176759999999,1,,OK,"locality,political"
1115,APPROXIMATE,"Kfar Silver, Israel",ChIJ0wswuOWbAhUR_aMl7YbymjI,כבר סילבר,31.675669,34.612311,1,,OK,"locality,political"
1116,APPROXIMATE,"Beit Shikma, Israel",ChIJQxDT7nCbAhUR98Bu0H2KCQo,בית שקמה,31.637735,34.610074,1,,OK,"locality,political"
1117,,,,אלומים,,,0,,ZERO_RESULTS,
